default export[{"ratingStars":1,"name":"Johns, Connelly and Green","streetAddress":"5 Tennyson Pass","postalCode":"66-218","cityLocalized":"Poland","geolocation":{"latitude":52.3048562,"longitude":15.4108777}},
{"ratingStars":2,"name":"Stroman, Klein and Kozey","streetAddress":"72008 Independence Parkway","postalCode":null,"cityLocalized":"Greece","geolocation":{"latitude":37.0422371,"longitude":22.1141264}},
{"ratingStars":3,"name":"Ryan-Nitzsche","streetAddress":"660 Amoth Lane","postalCode":null,"cityLocalized":"China","geolocation":{"latitude":33.195993,"longitude":105.606648}},
{"ratingStars":4,"name":"Wunsch Inc","streetAddress":"0 High Crossing Drive","postalCode":"539 43","cityLocalized":"Czech Republic","geolocation":{"latitude":49.7761881,"longitude":16.0289677}},
{"ratingStars":5,"name":"Price-Champlin","streetAddress":"0 Hoard Circle","postalCode":null,"cityLocalized":"China","geolocation":{"latitude":37.429832,"longitude":110.88907}},
{"ratingStars":6,"name":"Morissette-Jaskolski","streetAddress":"7 8th Plaza","postalCode":"40160","cityLocalized":"Thailand","geolocation":{"latitude":13.7812944,"longitude":100.5191452}},
{"ratingStars":7,"name":"Lynch, Heaney and Auer","streetAddress":"95327 Forest Dale Trail","postalCode":null,"cityLocalized":"China","geolocation":{"latitude":29.863599,"longitude":118.307062}},
{"ratingStars":8,"name":"Shields-Hegmann","streetAddress":"931 Northview Park","postalCode":"89105","cityLocalized":"United States","geolocation":{"latitude":35.99,"longitude":-115.09}},
{"ratingStars":9,"name":"Sipes LLC","streetAddress":"131 Luster Crossing","postalCode":"5413","cityLocalized":"Argentina","geolocation":{"latitude":-32.8842032,"longitude":-68.7998021}},
{"ratingStars":10,"name":"Hand, Aufderhar and Kunze","streetAddress":"4032 Delaware Way","postalCode":null,"cityLocalized":"South Korea","geolocation":{"latitude":38.1056484,"longitude":127.7080492}},
{"ratingStars":11,"name":"O'Keefe Inc","streetAddress":"941 Gerald Alley","postalCode":null,"cityLocalized":"Guinea-Bissau","geolocation":{"latitude":11.8816553,"longitude":-15.6177942}},
{"ratingStars":12,"name":"Gleichner-Runolfsson","streetAddress":"83 Corscot Park","postalCode":null,"cityLocalized":"Indonesia","geolocation":{"latitude":"-6.7422","longitude":"111.3587"}},
{"ratingStars":13,"name":"Schmeler-Muller","streetAddress":"79 Hooker Junction","postalCode":"3505-157","cityLocalized":"Portugal","geolocation":{"latitude":40.7485192,"longitude":-7.8032048}},
{"ratingStars":14,"name":"Roberts, Hauck and Botsford","streetAddress":"53573 Westport Drive","postalCode":"7030","cityLocalized":"Philippines","geolocation":{"latitude":9.2901323,"longitude":123.247589}},
{"ratingStars":15,"name":"Abernathy-Lueilwitz","streetAddress":"4917 Manufacturers Place","postalCode":null,"cityLocalized":"Libya","geolocation":{"latitude":27.550779,"longitude":14.2686658}},
{"ratingStars":16,"name":"Emard-Lind","streetAddress":"2306 Milwaukee Street","postalCode":null,"cityLocalized":"Montenegro","geolocation":{"latitude":42.8408389,"longitude":20.1670628}},
{"ratingStars":17,"name":"McCullough Inc","streetAddress":"737 Thackeray Park","postalCode":"62-002","cityLocalized":"Poland","geolocation":{"latitude":52.5125385,"longitude":16.8395278}},
{"ratingStars":18,"name":"Cummings LLC","streetAddress":"47542 Manley Hill","postalCode":null,"cityLocalized":"Indonesia","geolocation":{"latitude":-8.8056791,"longitude":121.7252457}},
{"ratingStars":19,"name":"Koch and Sons","streetAddress":"31 Crownhardt Center","postalCode":null,"cityLocalized":"Indonesia","geolocation":{"latitude":-8.6601628,"longitude":117.4615118}},
{"ratingStars":20,"name":"McDermott Inc","streetAddress":"1325 Kings Hill","postalCode":"141930","cityLocalized":"Russia","geolocation":{"latitude":56.5303315,"longitude":37.5975489}},
{"ratingStars":21,"name":"Abernathy-Ortiz","streetAddress":"69 New Castle Street","postalCode":null,"cityLocalized":"Indonesia","geolocation":{"latitude":-3.9461346,"longitude":119.8410174}},
{"ratingStars":22,"name":"Blanda, Cummerata and Wyman","streetAddress":"9690 Upham Crossing","postalCode":"55170","cityLocalized":"Thailand","geolocation":{"latitude":18.601533,"longitude":100.980225}},
{"ratingStars":23,"name":"Orn-Haag","streetAddress":"69 Talisman Park","postalCode":null,"cityLocalized":"Indonesia","geolocation":{"latitude":-6.8973394,"longitude":112.9565196}},
{"ratingStars":24,"name":"Kulas-Braun","streetAddress":"6960 Maryland Pass","postalCode":"88837","cityLocalized":"Malaysia","geolocation":{"latitude":5.9840985,"longitude":116.0761121}},
{"ratingStars":25,"name":"Mayer-Johnston","streetAddress":"9839 Nobel Alley","postalCode":"76330-000","cityLocalized":"Brazil","geolocation":{"latitude":-15.6469053,"longitude":-49.4466005}},
{"ratingStars":26,"name":"McKenzie Group","streetAddress":"49 Lunder Terrace","postalCode":"97471 CEDEX","cityLocalized":"Reunion","geolocation":{"latitude":-20.891394,"longitude":55.5178001}},
{"ratingStars":27,"name":"Rippin Inc","streetAddress":"592 Forest Run Crossing","postalCode":null,"cityLocalized":"Paraguay","geolocation":{"latitude":-25.3088443,"longitude":-56.9014072}},
{"ratingStars":28,"name":"Breitenberg, Bernhard and Walsh","streetAddress":"2 Meadow Vale Plaza","postalCode":null,"cityLocalized":"Saudi Arabia","geolocation":{"latitude":26.5642157,"longitude":50.0495725}},
{"ratingStars":29,"name":"Jerde, Gerhold and Doyle","streetAddress":"626 Jana Park","postalCode":"76-002","cityLocalized":"Poland","geolocation":{"latitude":54.3110486,"longitude":16.2037727}},
{"ratingStars":30,"name":"Ruecker-Rutherford","streetAddress":"67 Menomonie Drive","postalCode":"2500-454","cityLocalized":"Portugal","geolocation":{"latitude":39.4365442,"longitude":-9.2134149}},
{"ratingStars":31,"name":"Lakin LLC","streetAddress":"3 School Hill","postalCode":null,"cityLocalized":"China","geolocation":{"latitude":23.028956,"longitude":113.143441}},
{"ratingStars":32,"name":"Schmidt Group","streetAddress":"7289 Badeau Drive","postalCode":"92224 CEDEX","cityLocalized":"France","geolocation":{"latitude":48.7946784,"longitude":2.3067496}},
{"ratingStars":33,"name":"Kub Group","streetAddress":"2 Vidon Circle","postalCode":"13548 CEDEX","cityLocalized":"France","geolocation":{"latitude":43.553302,"longitude":6.574529}},
{"ratingStars":34,"name":"Hackett Group","streetAddress":"24 American Ash Pass","postalCode":"649792","cityLocalized":"Russia","geolocation":{"latitude":54.3843215,"longitude":44.8151638}},
{"ratingStars":35,"name":"Hahn LLC","streetAddress":"88617 Lake View Park","postalCode":null,"cityLocalized":"Vietnam","geolocation":{"latitude":20.4343787,"longitude":106.2757514}},
{"ratingStars":36,"name":"Littel, Larson and Satterfield","streetAddress":"450 Lakewood Terrace","postalCode":"4760-411","cityLocalized":"Portugal","geolocation":{"latitude":41.3495192,"longitude":-8.5704778}},
{"ratingStars":37,"name":"Abshire, Bednar and Rice","streetAddress":"3604 Clemons Drive","postalCode":"252257","cityLocalized":"Colombia","geolocation":{"latitude":4.524233,"longitude":-74.356481}},
{"ratingStars":38,"name":"Wehner LLC","streetAddress":"0254 Mallard Avenue","postalCode":"869-0502","cityLocalized":"Japan","geolocation":{"latitude":32.6521604,"longitude":130.675613}},
{"ratingStars":39,"name":"Goodwin-Hagenes","streetAddress":"114 Oneill Alley","postalCode":null,"cityLocalized":"China","geolocation":{"latitude":25.454084,"longitude":119.007777}},
{"ratingStars":40,"name":"Doyle and Sons","streetAddress":"9 Holy Cross Terrace","postalCode":"46140","cityLocalized":"Thailand","geolocation":{"latitude":13.9702519,"longitude":100.6035503}},
{"ratingStars":41,"name":"Grady-Adams","streetAddress":"13224 Sutherland Point","postalCode":null,"cityLocalized":"Vietnam","geolocation":{"latitude":15.113472,"longitude":107.71625}},
{"ratingStars":42,"name":"Mante-Veum","streetAddress":"42662 Mayfield Road","postalCode":null,"cityLocalized":"Serbia","geolocation":{"latitude":43.6173787,"longitude":21.0023004}},
{"ratingStars":43,"name":"Morissette-Hane","streetAddress":"41 Golf Course Trail","postalCode":null,"cityLocalized":"Peru","geolocation":{"latitude":-6.6382226,"longitude":-79.7904475}},
{"ratingStars":44,"name":"Doyle, Mante and Morissette","streetAddress":"445 Everett Parkway","postalCode":null,"cityLocalized":"Greece","geolocation":{"latitude":36.6107151,"longitude":27.1320962}},
{"ratingStars":45,"name":"Hegmann LLC","streetAddress":"2 Morning Hill","postalCode":null,"cityLocalized":"China","geolocation":{"latitude":24.9936281,"longitude":121.3009798}},
{"ratingStars":46,"name":"Bruen-Hickle","streetAddress":"18550 Ludington Point","postalCode":null,"cityLocalized":"Indonesia","geolocation":{"latitude":-6.3079232,"longitude":107.172085}},
{"ratingStars":47,"name":"McLaughlin, O'Kon and Davis","streetAddress":"79 Roxbury Junction","postalCode":null,"cityLocalized":"Ivory Coast","geolocation":{"latitude":9.5842012,"longitude":-5.1953554}},
{"ratingStars":48,"name":"Beier, Kunde and Schmidt","streetAddress":"55 New Castle Parkway","postalCode":"413824","cityLocalized":"Russia","geolocation":{"latitude":51.9696504,"longitude":47.3645344}},
{"ratingStars":49,"name":"Torp-Hyatt","streetAddress":"6814 La Follette Circle","postalCode":"5417","cityLocalized":"Philippines","geolocation":{"latitude":16.0768029,"longitude":120.4222511}},
{"ratingStars":50,"name":"Smitham Group","streetAddress":"15 Ludington Trail","postalCode":"10436","cityLocalized":"Croatia","geolocation":{"latitude":45.7123346,"longitude":15.8074521}},
{"ratingStars":51,"name":"Padberg and Sons","streetAddress":"462 Northwestern Crossing","postalCode":null,"cityLocalized":"Indonesia","geolocation":{"latitude":-2.609012,"longitude":112.403397}},
{"ratingStars":52,"name":"Kuhn-Grant","streetAddress":"1 Sloan Park","postalCode":"594 53","cityLocalized":"Czech Republic","geolocation":{"latitude":49.3431786,"longitude":16.2159455}},
{"ratingStars":53,"name":"Keeling-VonRueden","streetAddress":"5708 Burning Wood Hill","postalCode":"6131","cityLocalized":"Philippines","geolocation":{"latitude":15.5356992,"longitude":120.5285998}},
{"ratingStars":54,"name":"Gutmann-Windler","streetAddress":"2 Saint Paul Park","postalCode":null,"cityLocalized":"China","geolocation":{"latitude":23.69589,"longitude":113.645048}},
{"ratingStars":55,"name":"Koelpin, Kirlin and Mertz","streetAddress":"8517 Packers Crossing","postalCode":"190990","cityLocalized":"Russia","geolocation":{"latitude":60.0456385,"longitude":30.3403569}},
{"ratingStars":56,"name":"Swaniawski, Auer and Boyer","streetAddress":"1 Elgar Crossing","postalCode":null,"cityLocalized":"Vietnam","geolocation":{"latitude":21.6837923,"longitude":104.4551361}},
{"ratingStars":57,"name":"Franecki Inc","streetAddress":"684 Becker Hill","postalCode":"404172","cityLocalized":"Russia","geolocation":{"latitude":46.711547,"longitude":38.2755861}},
{"ratingStars":58,"name":"Bernhard-Dare","streetAddress":"444 Hooker Point","postalCode":"39290","cityLocalized":"Finland","geolocation":{"latitude":60.0750723,"longitude":23.687553}},
{"ratingStars":59,"name":"Bednar-Feil","streetAddress":"649 8th Court","postalCode":null,"cityLocalized":"Honduras","geolocation":{"latitude":15.5056823,"longitude":-86.3478151}},
{"ratingStars":60,"name":"Conn, Ondricka and Smith","streetAddress":"2809 Golden Leaf Junction","postalCode":"5823","cityLocalized":"Argentina","geolocation":{"latitude":-31.3582685,"longitude":-64.2371705}},
{"ratingStars":61,"name":"Collins-Shields","streetAddress":"9800 Hintze Parkway","postalCode":"196625","cityLocalized":"Russia","geolocation":{"latitude":59.7050314,"longitude":30.451101}},
{"ratingStars":62,"name":"Windler-Klocko","streetAddress":"5043 Almo Court","postalCode":"35538 CEDEX","cityLocalized":"France","geolocation":{"latitude":48.1079676,"longitude":-1.5212701}},
{"ratingStars":63,"name":"Grimes-Rolfson","streetAddress":"67081 Forest Run Street","postalCode":null,"cityLocalized":"China","geolocation":{"latitude":32.888994,"longitude":120.555917}},
{"ratingStars":64,"name":"Kreiger and Sons","streetAddress":"79 Paget Lane","postalCode":"85950-000","cityLocalized":"Brazil","geolocation":{"latitude":-24.2570411,"longitude":-53.7803147}},
{"ratingStars":65,"name":"Steuber, Mertz and Mills","streetAddress":"66 Sachtjen Center","postalCode":null,"cityLocalized":"China","geolocation":{"latitude":42.5246357,"longitude":87.5395855}},
{"ratingStars":66,"name":"Zieme, Armstrong and Cole","streetAddress":"2130 Troy Alley","postalCode":"690-1115","cityLocalized":"Japan","geolocation":{"latitude":35.5205669,"longitude":133.1274711}},
{"ratingStars":67,"name":"Blanda, Russel and Trantow","streetAddress":"3952 Spaight Hill","postalCode":null,"cityLocalized":"Indonesia","geolocation":{"latitude":-7.3646327,"longitude":107.5505152}},
{"ratingStars":68,"name":"Goodwin and Sons","streetAddress":"53055 Melody Pass","postalCode":"D04","cityLocalized":"Ireland","geolocation":{"latitude":53.3177535,"longitude":-6.2324705}},
{"ratingStars":69,"name":"Stoltenberg, Rodriguez and Towne","streetAddress":"722 Sutteridge Plaza","postalCode":null,"cityLocalized":"China","geolocation":{"latitude":19.2262055,"longitude":108.6824066}},
{"ratingStars":70,"name":"Blanda Group","streetAddress":"61 Pine View Hill","postalCode":null,"cityLocalized":"Georgia","geolocation":{"latitude":41.9837685,"longitude":43.5865947}},
{"ratingStars":71,"name":"Reinger and Sons","streetAddress":"52389 Independence Drive","postalCode":null,"cityLocalized":"Honduras","geolocation":{"latitude":14.8288248,"longitude":-86.5728785}},
{"ratingStars":72,"name":"Vandervort Inc","streetAddress":"840 Blackbird Avenue","postalCode":null,"cityLocalized":"Indonesia","geolocation":{"latitude":-7.3306931,"longitude":108.6799144}},
{"ratingStars":73,"name":"Koelpin-Durgan","streetAddress":"674 Veith Drive","postalCode":"2495-205","cityLocalized":"Portugal","geolocation":{"latitude":39.6632753,"longitude":-8.7151173}},
{"ratingStars":74,"name":"Schiller-Murazik","streetAddress":"04 Dwight Avenue","postalCode":null,"cityLocalized":"Indonesia","geolocation":{"latitude":-6.2102916,"longitude":106.9833084}},
{"ratingStars":75,"name":"McCullough Group","streetAddress":"2066 Mallory Hill","postalCode":"34981","cityLocalized":"United States","geolocation":{"latitude":27.3980151,"longitude":-80.3714326}},
{"ratingStars":76,"name":"Glover-Turner","streetAddress":"9076 Hoffman Road","postalCode":null,"cityLocalized":"China","geolocation":{"latitude":30.022669,"longitude":101.545865}},
{"ratingStars":77,"name":"Blanda-Greenholt","streetAddress":"3 Grayhawk Court","postalCode":"10715","cityLocalized":"Germany","geolocation":{"latitude":52.4837296,"longitude":13.3304798}},
{"ratingStars":78,"name":"Schneider-Hand","streetAddress":"98323 Jenifer Alley","postalCode":"9201","cityLocalized":"Philippines","geolocation":{"latitude":8.1831476,"longitude":124.1949463}},
{"ratingStars":79,"name":"Wintheiser, McKenzie and Bednar","streetAddress":"733 Lindbergh Pass","postalCode":null,"cityLocalized":"Afghanistan","geolocation":{"latitude":"31.98303","longitude":"67.33558"}},
{"ratingStars":80,"name":"Fadel, Haley and Hand","streetAddress":"6 Drewry Pass","postalCode":null,"cityLocalized":"Indonesia","geolocation":{"latitude":-6.9391309,"longitude":109.1259181}},
{"ratingStars":81,"name":"Kunze-Rau","streetAddress":"51 Grover Street","postalCode":null,"cityLocalized":"China","geolocation":{"latitude":25.075123,"longitude":117.017536}},
{"ratingStars":82,"name":"Larkin-Hackett","streetAddress":"403 Walton Court","postalCode":null,"cityLocalized":"China","geolocation":{"latitude":29.042269,"longitude":121.626963}},
{"ratingStars":83,"name":"Jakubowski, West and Wintheiser","streetAddress":"914 Mcbride Trail","postalCode":"80044","cityLocalized":"United States","geolocation":{"latitude":39.6599999,"longitude":-104.84}},
{"ratingStars":84,"name":"Goyette Group","streetAddress":"58 Spaight Way","postalCode":"739 23","cityLocalized":"Czech Republic","geolocation":{"latitude":49.7219212,"longitude":18.188717}},
{"ratingStars":85,"name":"Volkman, Johnston and Kling","streetAddress":"1812 Oriole Parkway","postalCode":"71984","cityLocalized":"Mexico","geolocation":{"latitude":22.9410456,"longitude":-109.94522}},
{"ratingStars":86,"name":"Collier Inc","streetAddress":"5 Sloan Way","postalCode":null,"cityLocalized":"Nigeria","geolocation":{"latitude":9.9739491,"longitude":9.6038586}},
{"ratingStars":87,"name":"O'Keefe, Beatty and Lowe","streetAddress":"5834 Shelley Way","postalCode":"7319","cityLocalized":"Netherlands","geolocation":{"latitude":52.2313764,"longitude":5.9938487}},
{"ratingStars":88,"name":"Ritchie and Sons","streetAddress":"90178 Brentwood Court","postalCode":null,"cityLocalized":"Indonesia","geolocation":{"latitude":-6.6780425,"longitude":106.9172768}},
{"ratingStars":89,"name":"Watsica, Kirlin and Gaylord","streetAddress":"2324 Meadow Ridge Court","postalCode":null,"cityLocalized":"Afghanistan","geolocation":{"latitude":32.3118725,"longitude":64.811084}},
{"ratingStars":90,"name":"Stracke, Kemmer and Mills","streetAddress":"52995 Pearson Alley","postalCode":"10700","cityLocalized":"Thailand","geolocation":{"latitude":13.7836468,"longitude":100.4842054}},
{"ratingStars":91,"name":"Haag Inc","streetAddress":"56 Dunning Center","postalCode":"644002","cityLocalized":"Russia","geolocation":{"latitude":"62.8487","longitude":"34.82621"}},
{"ratingStars":92,"name":"Pfeffer Inc","streetAddress":"87 Prairie Rose Alley","postalCode":"370 01","cityLocalized":"Czech Republic","geolocation":{"latitude":48.9620719,"longitude":14.4514592}},
{"ratingStars":93,"name":"Durgan Inc","streetAddress":"735 Mcbride Pass","postalCode":null,"cityLocalized":"China","geolocation":{"latitude":30.118912,"longitude":111.484536}},
{"ratingStars":94,"name":"Herman, Waters and Fahey","streetAddress":"71073 Lien Road","postalCode":"06173 CEDEX 2","cityLocalized":"France","geolocation":{"latitude":43.6953508,"longitude":7.2559678}},
{"ratingStars":95,"name":"Larson, Hudson and Upton","streetAddress":"79 Tomscot Parkway","postalCode":"27990","cityLocalized":"Mexico","geolocation":{"latitude":19.482042,"longitude":-99.1985584}},
{"ratingStars":96,"name":"Moore-Satterfield","streetAddress":"3728 Red Cloud Center","postalCode":null,"cityLocalized":"Indonesia","geolocation":{"latitude":-6.6355378,"longitude":106.8490872}},
{"ratingStars":97,"name":"Bergstrom Group","streetAddress":"92 Red Cloud Court","postalCode":null,"cityLocalized":"China","geolocation":{"latitude":37.775349,"longitude":117.385256}},
{"ratingStars":98,"name":"Halvorson-McCullough","streetAddress":"61359 Paget Parkway","postalCode":"08209 CEDEX","cityLocalized":"France","geolocation":{"latitude":49.7052493,"longitude":4.9404055}},
{"ratingStars":99,"name":"Brown, Harber and Harber","streetAddress":"41 Mandrake Circle","postalCode":null,"cityLocalized":"Albania","geolocation":{"latitude":41.9238499,"longitude":20.3755648}},
{"ratingStars":100,"name":"Welch, O'Hara and Waters","streetAddress":"2740 Comanche Hill","postalCode":"57148 CEDEX","cityLocalized":"France","geolocation":{"latitude":49.1698106,"longitude":6.1200844}},
{"ratingStars":101,"name":"Torp-Jenkins","streetAddress":"2 Dwight Crossing","postalCode":"42-625","cityLocalized":"Poland","geolocation":{"latitude":49.444308,"longitude":19.9504449}},
{"ratingStars":102,"name":"Turcotte, Bergnaum and Gleichner","streetAddress":"4 Heath Park","postalCode":null,"cityLocalized":"Egypt","geolocation":{"latitude":30.1253988,"longitude":31.3181252}},
{"ratingStars":103,"name":"Hansen-Conn","streetAddress":"5 Melvin Junction","postalCode":null,"cityLocalized":"North Korea","geolocation":{"latitude":"38.79861","longitude":"125.79194"}},
{"ratingStars":104,"name":"Dickens-Langworth","streetAddress":"90109 Northwestern Street","postalCode":null,"cityLocalized":"China","geolocation":{"latitude":24.874132,"longitude":118.675675}},
{"ratingStars":105,"name":"Abernathy-Goldner","streetAddress":"03630 Continental Plaza","postalCode":null,"cityLocalized":"Indonesia","geolocation":{"latitude":-6.1560113,"longitude":106.90896}},
{"ratingStars":106,"name":"Kuvalis Inc","streetAddress":"00 Eastlawn Circle","postalCode":null,"cityLocalized":"Greece","geolocation":{"latitude":38.020906,"longitude":23.9325441}},
{"ratingStars":107,"name":"Rosenbaum Inc","streetAddress":"98 Colorado Alley","postalCode":null,"cityLocalized":"China","geolocation":{"latitude":28.901726,"longitude":109.924422}},
{"ratingStars":108,"name":"Nicolas, Senger and Frami","streetAddress":"8 Mcguire Park","postalCode":null,"cityLocalized":"China","geolocation":{"latitude":25.704872,"longitude":102.942339}},
{"ratingStars":109,"name":"Lindgren Inc","streetAddress":"4240 Thompson Place","postalCode":null,"cityLocalized":"China","geolocation":{"latitude":38.487193,"longitude":106.230908}},
{"ratingStars":110,"name":"Schulist and Sons","streetAddress":"19 Hoepker Avenue","postalCode":null,"cityLocalized":"Morocco","geolocation":{"latitude":32.654079,"longitude":-5.9213829}},
{"ratingStars":111,"name":"Bayer, Waters and Huel","streetAddress":"275 Riverside Parkway","postalCode":"186806","cityLocalized":"Russia","geolocation":{"latitude":61.7575929,"longitude":31.0233095}},
{"ratingStars":112,"name":"Wisoky LLC","streetAddress":"74142 Havey Street","postalCode":null,"cityLocalized":"Peru","geolocation":{"latitude":-9.771006,"longitude":-76.6613239}},
{"ratingStars":113,"name":"Ondricka, Windler and Weimann","streetAddress":"52043 Hanson Place","postalCode":null,"cityLocalized":"Nigeria","geolocation":{"latitude":11.5291917,"longitude":8.6573084}},
{"ratingStars":114,"name":"Lindgren-Conroy","streetAddress":"0926 Bluejay Parkway","postalCode":"5900","cityLocalized":"Argentina","geolocation":{"latitude":-32.4084888,"longitude":-63.2596263}},
{"ratingStars":115,"name":"Von-MacGyver","streetAddress":"9 Lerdahl Terrace","postalCode":null,"cityLocalized":"Indonesia","geolocation":{"latitude":"-8.2962","longitude":"111.5437"}},
{"ratingStars":116,"name":"Koss-Homenick","streetAddress":"75423 Lotheville Junction","postalCode":null,"cityLocalized":"Burkina Faso","geolocation":{"latitude":12.0601649,"longitude":0.3654204}},
{"ratingStars":117,"name":"Windler-Hintz","streetAddress":"24317 Grasskamp Park","postalCode":"1325","cityLocalized":"Australia","geolocation":{"latitude":-33.93274,"longitude":151.188577}},
{"ratingStars":118,"name":"Rutherford and Sons","streetAddress":"56 Hermina Junction","postalCode":null,"cityLocalized":"Kazakhstan","geolocation":{"latitude":52.9718428,"longitude":63.1128326}},
{"ratingStars":119,"name":"Kutch LLC","streetAddress":"972 Sullivan Alley","postalCode":"8307","cityLocalized":"Argentina","geolocation":{"latitude":-34.6893026,"longitude":-58.5247124}},
{"ratingStars":120,"name":"Collier Inc","streetAddress":"187 Artisan Drive","postalCode":null,"cityLocalized":"China","geolocation":{"latitude":30.203152,"longitude":115.429626}},
{"ratingStars":121,"name":"Medhurst Group","streetAddress":"55 Forest Run Crossing","postalCode":"01061","cityLocalized":"Guatemala","geolocation":{"latitude":14.8190224,"longitude":-90.5131461}},
{"ratingStars":122,"name":"Simonis, Wolff and Beer","streetAddress":"4 Village Avenue","postalCode":"4500","cityLocalized":"Philippines","geolocation":{"latitude":13.6361135,"longitude":123.1924955}},
{"ratingStars":123,"name":"Robel Group","streetAddress":"7 Sutherland Alley","postalCode":null,"cityLocalized":"China","geolocation":{"latitude":20.0429063,"longitude":110.354037}},
{"ratingStars":124,"name":"Krajcik, Morar and Romaguera","streetAddress":"527 Buell Park","postalCode":"27180","cityLocalized":"Thailand","geolocation":{"latitude":15.767975,"longitude":101.010223}},
{"ratingStars":125,"name":"Krajcik-Halvorson","streetAddress":"9696 Schiller Junction","postalCode":"624144","cityLocalized":"Russia","geolocation":{"latitude":57.4249887,"longitude":60.0526098}},
{"ratingStars":126,"name":"Ryan-Fritsch","streetAddress":"42 Jenna Avenue","postalCode":null,"cityLocalized":"Greece","geolocation":{"latitude":39.918603,"longitude":22.6825626}},
{"ratingStars":127,"name":"Dare, Moen and Gislason","streetAddress":"0 Stoughton Point","postalCode":"444008","cityLocalized":"Colombia","geolocation":{"latitude":10.89732,"longitude":-72.88412}},
{"ratingStars":128,"name":"Sanford Inc","streetAddress":"73109 Bunting Drive","postalCode":"76086 CEDEX","cityLocalized":"France","geolocation":{"latitude":48.0386685,"longitude":-2.9231898}},
{"ratingStars":129,"name":"Hartmann Inc","streetAddress":"048 Banding Hill","postalCode":"58-263","cityLocalized":"Poland","geolocation":{"latitude":51.7717109,"longitude":15.921227}},
{"ratingStars":130,"name":"Ullrich, Maggio and Lehner","streetAddress":"5511 Stuart Lane","postalCode":null,"cityLocalized":"Indonesia","geolocation":{"latitude":-7.0428799,"longitude":113.8019562}},
{"ratingStars":131,"name":"Nolan, Miller and West","streetAddress":"11 Messerschmidt Drive","postalCode":"595-0814","cityLocalized":"Japan","geolocation":{"latitude":34.5021072,"longitude":135.3785556}},
{"ratingStars":132,"name":"Boehm-Nitzsche","streetAddress":"8791 Hallows Point","postalCode":"251 67","cityLocalized":"Czech Republic","geolocation":{"latitude":49.8752681,"longitude":14.6777303}},
{"ratingStars":133,"name":"Bednar-Torphy","streetAddress":"4 Grayhawk Point","postalCode":null,"cityLocalized":"Mongolia","geolocation":{"latitude":"46.71327","longitude":"96.52588"}},
{"ratingStars":134,"name":"Leffler Inc","streetAddress":"07 Vera Point","postalCode":"20136","cityLocalized":"Italy","geolocation":{"latitude":45.4476447,"longitude":9.1855974}},
{"ratingStars":135,"name":"Lowe Group","streetAddress":"804 Riverside Trail","postalCode":"161140","cityLocalized":"Russia","geolocation":{"latitude":59.6313435,"longitude":39.72516}},
{"ratingStars":136,"name":"Jast, Gleichner and Feeney","streetAddress":"094 Lillian Road","postalCode":null,"cityLocalized":"Greece","geolocation":{"latitude":40.5004933,"longitude":22.9246383}},
{"ratingStars":137,"name":"Runolfsdottir Inc","streetAddress":"81905 Westridge Terrace","postalCode":null,"cityLocalized":"China","geolocation":{"latitude":42.078622,"longitude":126.908717}},
{"ratingStars":138,"name":"Graham-Aufderhar","streetAddress":"7975 Acker Center","postalCode":"624400","cityLocalized":"Russia","geolocation":{"latitude":59.0490896,"longitude":60.5974703}},
{"ratingStars":139,"name":"Parker Inc","streetAddress":"7 Nobel Way","postalCode":"4515","cityLocalized":"Philippines","geolocation":{"latitude":13.0730815,"longitude":123.5982956}},
{"ratingStars":140,"name":"Robel, Zulauf and Welch","streetAddress":"0 Monument Parkway","postalCode":null,"cityLocalized":"Indonesia","geolocation":{"latitude":-8.8814738,"longitude":117.3733989}},
{"ratingStars":141,"name":"Schamberger Group","streetAddress":"5516 Upham Street","postalCode":"90036","cityLocalized":"Lithuania","geolocation":{"latitude":56.0372083,"longitude":21.8173884}},
{"ratingStars":142,"name":"Mohr Inc","streetAddress":"4030 Forest Dale Way","postalCode":"2445-204","cityLocalized":"Portugal","geolocation":{"latitude":39.6832131,"longitude":-9.0018424}},
{"ratingStars":143,"name":"Kerluke LLC","streetAddress":"6 Messerschmidt Terrace","postalCode":"2440-370","cityLocalized":"Portugal","geolocation":{"latitude":39.6678843,"longitude":-8.8344377}},
{"ratingStars":144,"name":"Grady-Jenkins","streetAddress":"90 Logan Street","postalCode":null,"cityLocalized":"Nigeria","geolocation":{"latitude":7.4654418,"longitude":4.0721007}},
{"ratingStars":145,"name":"Kovacek-Runolfsson","streetAddress":"5 Veith Parkway","postalCode":"69928-000","cityLocalized":"Brazil","geolocation":{"latitude":-10.2313205,"longitude":-67.2847875}},
{"ratingStars":146,"name":"Cassin and Sons","streetAddress":"339 Morning Circle","postalCode":null,"cityLocalized":"Honduras","geolocation":{"latitude":15.6019543,"longitude":-87.6112325}},
{"ratingStars":147,"name":"MacGyver, Yundt and Paucek","streetAddress":"129 Rutledge Lane","postalCode":null,"cityLocalized":"Indonesia","geolocation":{"latitude":-7.302664,"longitude":112.7330892}},
{"ratingStars":148,"name":"Mosciski-Upton","streetAddress":"399 Del Mar Crossing","postalCode":null,"cityLocalized":"Latvia","geolocation":{"latitude":57.7581391,"longitude":24.3543455}},
{"ratingStars":149,"name":"Robel LLC","streetAddress":"062 Vahlen Crossing","postalCode":null,"cityLocalized":"Afghanistan","geolocation":{"latitude":34.496651,"longitude":69.079674}},
{"ratingStars":150,"name":"Hagenes, Heathcote and Prosacco","streetAddress":"439 Becker Road","postalCode":null,"cityLocalized":"China","geolocation":{"latitude":22.996513,"longitude":113.823603}},
{"ratingStars":151,"name":"Herman and Sons","streetAddress":"76 Esker Hill","postalCode":null,"cityLocalized":"Indonesia","geolocation":{"latitude":-8.0095874,"longitude":111.913497}},
{"ratingStars":152,"name":"Wilderman, Skiles and Kunde","streetAddress":"62 Comanche Plaza","postalCode":null,"cityLocalized":"China","geolocation":{"latitude":45.597839,"longitude":126.637515}},
{"ratingStars":153,"name":"Reichert, Lebsack and Christiansen","streetAddress":"810 Fair Oaks Hill","postalCode":null,"cityLocalized":"China","geolocation":{"latitude":37.627661,"longitude":116.391507}},
{"ratingStars":154,"name":"Baumbach, Runolfsdottir and Boehm","streetAddress":"162 Towne Road","postalCode":null,"cityLocalized":"Vietnam","geolocation":{"latitude":21.3873563,"longitude":106.1270717}},
{"ratingStars":155,"name":"Bins and Sons","streetAddress":"23 Schurz Way","postalCode":"28860-000","cityLocalized":"Brazil","geolocation":{"latitude":-22.4836725,"longitude":-42.2015431}},
{"ratingStars":156,"name":"Collins and Sons","streetAddress":"76 Almo Drive","postalCode":"14300","cityLocalized":"Finland","geolocation":{"latitude":60.8936893,"longitude":24.2869324}},
{"ratingStars":157,"name":"Krajcik, Abshire and Murphy","streetAddress":"6 Truax Parkway","postalCode":"64-500","cityLocalized":"Poland","geolocation":{"latitude":52.6116547,"longitude":16.5779047}},
{"ratingStars":158,"name":"Stiedemann-Schmitt","streetAddress":"66 Doe Crossing Way","postalCode":null,"cityLocalized":"Ukraine","geolocation":{"latitude":44.8464736,"longitude":33.6744583}},
{"ratingStars":159,"name":"Hauck Group","streetAddress":"63 South Pass","postalCode":"8300","cityLocalized":"Argentina","geolocation":{"latitude":-34.7277137,"longitude":-58.3326356}},
{"ratingStars":160,"name":"Prohaska LLC","streetAddress":"598 Wayridge Park","postalCode":"39216","cityLocalized":"United States","geolocation":{"latitude":32.3361632,"longitude":-90.1565209}},
{"ratingStars":161,"name":"Stehr-Keeling","streetAddress":"254 5th Junction","postalCode":"683 33","cityLocalized":"Czech Republic","geolocation":{"latitude":49.1511054,"longitude":17.0809537}},
{"ratingStars":162,"name":"Zieme-Dibbert","streetAddress":"206 Eagle Crest Hill","postalCode":"737 01","cityLocalized":"Czech Republic","geolocation":{"latitude":49.7192421,"longitude":18.591659}},
{"ratingStars":163,"name":"Muller LLC","streetAddress":"29262 Blaine Parkway","postalCode":"33-260","cityLocalized":"Poland","geolocation":{"latitude":50.2527847,"longitude":20.7999452}},
{"ratingStars":164,"name":"Thompson, Willms and Pfeffer","streetAddress":"86999 Pankratz Pass","postalCode":null,"cityLocalized":"Botswana","geolocation":{"latitude":-24.5551012,"longitude":25.8107681}},
{"ratingStars":165,"name":"Batz Inc","streetAddress":"69990 Gina Alley","postalCode":null,"cityLocalized":"China","geolocation":{"latitude":38.058088,"longitude":117.230602}},
{"ratingStars":166,"name":"Anderson and Sons","streetAddress":"5 Beilfuss Avenue","postalCode":null,"cityLocalized":"China","geolocation":{"latitude":23.076233,"longitude":113.86913}},
{"ratingStars":167,"name":"Roob and Sons","streetAddress":"582 Harbort Street","postalCode":null,"cityLocalized":"Indonesia","geolocation":{"latitude":-8.5066242,"longitude":122.9719348}},
{"ratingStars":168,"name":"Maggio, Watsica and Harris","streetAddress":"841 Kipling Park","postalCode":null,"cityLocalized":"Vietnam","geolocation":{"latitude":15.0431944,"longitude":108.5700636}},
{"ratingStars":169,"name":"Schumm-Abshire","streetAddress":"32824 Stoughton Alley","postalCode":null,"cityLocalized":"Saudi Arabia","geolocation":{"latitude":23.9052203,"longitude":42.9124955}},
{"ratingStars":170,"name":"Leannon, Nikolaus and Stark","streetAddress":"6 Schiller Place","postalCode":"M3H","cityLocalized":"Canada","geolocation":{"latitude":43.7543283,"longitude":-79.4422593}},
{"ratingStars":171,"name":"McClure Inc","streetAddress":"416 Kinsman Lane","postalCode":"50904","cityLocalized":"Costa Rica","geolocation":{"latitude":10.0307694,"longitude":-85.2294397}},
{"ratingStars":172,"name":"Hills, Hintz and Effertz","streetAddress":"56 Village Park","postalCode":null,"cityLocalized":"Nigeria","geolocation":{"latitude":6.0639962,"longitude":7.4760047}},
{"ratingStars":173,"name":"Hartmann, Jast and Smitham","streetAddress":"84270 Hovde Pass","postalCode":"88540-000","cityLocalized":"Brazil","geolocation":{"latitude":-27.4794141,"longitude":-50.1236024}},
{"ratingStars":174,"name":"Pouros-Ward","streetAddress":"575 Goodland Lane","postalCode":null,"cityLocalized":"China","geolocation":{"latitude":19.09535,"longitude":108.651815}},
{"ratingStars":175,"name":"Schuppe LLC","streetAddress":"657 Kinsman Street","postalCode":null,"cityLocalized":"China","geolocation":{"latitude":39.1945956,"longitude":117.111713}},
{"ratingStars":176,"name":"Beatty-Upton","streetAddress":"68591 Victoria Trail","postalCode":null,"cityLocalized":"Greece","geolocation":{"latitude":39.1442379,"longitude":23.8641946}},
{"ratingStars":177,"name":"Hegmann-Mayert","streetAddress":"19 Browning Lane","postalCode":null,"cityLocalized":"Indonesia","geolocation":{"latitude":-8.6969761,"longitude":121.2769483}},
{"ratingStars":178,"name":"Ledner-Little","streetAddress":"1695 East Avenue","postalCode":null,"cityLocalized":"Saint Vincent and the Grenadines","geolocation":{"latitude":13.2326269,"longitude":-61.265623}},
{"ratingStars":179,"name":"Wolf, Yundt and Schaden","streetAddress":"80 5th Street","postalCode":"6714","cityLocalized":"Philippines","geolocation":{"latitude":14.7044701,"longitude":121.0519495}},
{"ratingStars":180,"name":"Maggio LLC","streetAddress":"94108 Shelley Trail","postalCode":null,"cityLocalized":"Panama","geolocation":{"latitude":9.0343296,"longitude":-79.4942916}},
{"ratingStars":181,"name":"Bosco, Bartell and Gutmann","streetAddress":"56 Fieldstone Way","postalCode":"21-110","cityLocalized":"Poland","geolocation":{"latitude":51.4938767,"longitude":22.8528812}},
{"ratingStars":182,"name":"Feil Group","streetAddress":"83154 6th Pass","postalCode":"926-0867","cityLocalized":"Japan","geolocation":{"latitude":37.0511419,"longitude":136.9632426}},
{"ratingStars":183,"name":"Grady, Jacobi and O'Reilly","streetAddress":"2380 Ramsey Lane","postalCode":"652878","cityLocalized":"Russia","geolocation":{"latitude":53.6836301,"longitude":88.0813924}},
{"ratingStars":184,"name":"Reynolds LLC","streetAddress":"9 Milwaukee Road","postalCode":"2615-284","cityLocalized":"Portugal","geolocation":{"latitude":38.9022136,"longitude":-9.0443293}},
{"ratingStars":185,"name":"Greenholt, Lindgren and Halvorson","streetAddress":"95 Kinsman Court","postalCode":"2304","cityLocalized":"Philippines","geolocation":{"latitude":15.6240255,"longitude":120.3903545}},
{"ratingStars":186,"name":"Dicki, White and Orn","streetAddress":"4 Vera Center","postalCode":null,"cityLocalized":"China","geolocation":{"latitude":36.406404,"longitude":94.928484}},
{"ratingStars":187,"name":"Anderson LLC","streetAddress":"39 Barnett Hill","postalCode":"170 66","cityLocalized":"Sweden","geolocation":{"latitude":59.3771328,"longitude":18.0104218}},
{"ratingStars":188,"name":"Little-Boyle","streetAddress":"64658 Main Circle","postalCode":null,"cityLocalized":"Honduras","geolocation":{"latitude":14.08181,"longitude":-85.994003}},
{"ratingStars":189,"name":"Olson LLC","streetAddress":"59 Cordelia Parkway","postalCode":null,"cityLocalized":"Indonesia","geolocation":{"latitude":-8.1075296,"longitude":110.8440632}},
{"ratingStars":190,"name":"Heathcote-Mohr","streetAddress":"4933 Loftsgordon Avenue","postalCode":"57954 CEDEX","cityLocalized":"France","geolocation":{"latitude":49.0858197,"longitude":6.1654992}},
{"ratingStars":191,"name":"Powlowski, Hegmann and Windler","streetAddress":"3 Maryland Hill","postalCode":null,"cityLocalized":"Vietnam","geolocation":{"latitude":10.3793903,"longitude":106.4541903}},
{"ratingStars":192,"name":"Hermann, Osinski and Parker","streetAddress":"7 Cherokee Parkway","postalCode":"613 38","cityLocalized":"Sweden","geolocation":{"latitude":58.6842686,"longitude":17.0452859}},
{"ratingStars":193,"name":"Parker-Schiller","streetAddress":"1 Maple Wood Crossing","postalCode":null,"cityLocalized":"Paraguay","geolocation":{"latitude":-25.3820751,"longitude":-56.9633087}},
{"ratingStars":194,"name":"Gislason, Marks and Medhurst","streetAddress":"65 Jackson Crossing","postalCode":null,"cityLocalized":"Paraguay","geolocation":{"latitude":-27.0501654,"longitude":-55.5746294}},
{"ratingStars":195,"name":"Feeney, Kuphal and Gerhold","streetAddress":"87 Hanover Center","postalCode":null,"cityLocalized":"China","geolocation":{"latitude":22.529403,"longitude":103.93935}},
{"ratingStars":196,"name":"McDermott, Schoen and Roob","streetAddress":"349 Dorton Center","postalCode":null,"cityLocalized":"China","geolocation":{"latitude":48.726098,"longitude":128.939819}},
{"ratingStars":197,"name":"Dicki, Cole and Casper","streetAddress":"26 Scofield Drive","postalCode":"L-9674","cityLocalized":"Luxembourg","geolocation":{"latitude":49.9467601,"longitude":5.9721206}},
{"ratingStars":198,"name":"Roberts, Gleason and Ernser","streetAddress":"2910 Carberry Junction","postalCode":"433762","cityLocalized":"Russia","geolocation":{"latitude":55.6819119,"longitude":37.7795228}},
{"ratingStars":199,"name":"Rosenbaum, Johnson and Tillman","streetAddress":"29378 Southridge Parkway","postalCode":"687 37","cityLocalized":"Czech Republic","geolocation":{"latitude":49.0338988,"longitude":17.3406456}},
{"ratingStars":200,"name":"Rosenbaum-Mitchell","streetAddress":"080 Mallard Junction","postalCode":null,"cityLocalized":"Nigeria","geolocation":{"latitude":7.0913555,"longitude":5.1484196}},
{"ratingStars":201,"name":"Sipes, Cartwright and Kihn","streetAddress":"7963 Huxley Point","postalCode":null,"cityLocalized":"China","geolocation":{"latitude":22.843818,"longitude":114.164223}},
{"ratingStars":202,"name":"Glover-Wiza","streetAddress":"3975 Clyde Gallagher Plaza","postalCode":null,"cityLocalized":"Honduras","geolocation":{"latitude":13.9013242,"longitude":-87.1996084}},
{"ratingStars":203,"name":"Will LLC","streetAddress":"691 Almo Pass","postalCode":null,"cityLocalized":"Togo","geolocation":{"latitude":6.3336659,"longitude":1.5281253}},
{"ratingStars":204,"name":"Eichmann-Konopelski","streetAddress":"11 Division Hill","postalCode":"75808 CEDEX 17","cityLocalized":"France","geolocation":{"latitude":43.4945737,"longitude":5.8978018}},
{"ratingStars":205,"name":"Wiza-Walter","streetAddress":"68531 Stone Corner Junction","postalCode":"56163-000","cityLocalized":"Brazil","geolocation":{"latitude":-8.1347511,"longitude":-39.734338}},
{"ratingStars":206,"name":"Predovic, Mosciski and Conn","streetAddress":"5605 Heath Drive","postalCode":null,"cityLocalized":"China","geolocation":{"latitude":29.1082924,"longitude":119.6364468}},
{"ratingStars":207,"name":"Fahey and Sons","streetAddress":"3 Lunder Road","postalCode":"361624","cityLocalized":"Russia","geolocation":{"latitude":43.3911349,"longitude":42.9174509}},
{"ratingStars":208,"name":"Beahan Group","streetAddress":"527 Northwestern Place","postalCode":"735 72","cityLocalized":"Czech Republic","geolocation":{"latitude":49.8958649,"longitude":18.5477977}},
{"ratingStars":209,"name":"Gottlieb, Cremin and Tillman","streetAddress":"76 Chinook Way","postalCode":null,"cityLocalized":"Botswana","geolocation":{"latitude":-24.5969718,"longitude":25.9124229}},
{"ratingStars":210,"name":"Stokes LLC","streetAddress":"5 Eagan Point","postalCode":null,"cityLocalized":"China","geolocation":{"latitude":41.149869,"longitude":114.722326}},
{"ratingStars":211,"name":"Ryan, Moen and McLaughlin","streetAddress":"893 Mccormick Junction","postalCode":null,"cityLocalized":"China","geolocation":{"latitude":39.912288,"longitude":116.365867}},
{"ratingStars":212,"name":"Tromp-Walker","streetAddress":"0017 Stoughton Lane","postalCode":"69450-000","cityLocalized":"Brazil","geolocation":{"latitude":-3.8398302,"longitude":-62.0610928}},
{"ratingStars":213,"name":"Parker, Skiles and Tillman","streetAddress":"8252 Mesta Place","postalCode":null,"cityLocalized":"Indonesia","geolocation":{"latitude":-7.1570833,"longitude":110.2862003}},
{"ratingStars":214,"name":"Kautzer, Cartwright and Morissette","streetAddress":"6237 Rusk Park","postalCode":null,"cityLocalized":"Indonesia","geolocation":{"latitude":-9.101629,"longitude":124.9120662}},
{"ratingStars":215,"name":"Kulas Inc","streetAddress":"98764 Merry Trail","postalCode":null,"cityLocalized":"China","geolocation":{"latitude":28.34343,"longitude":120.489051}},
{"ratingStars":216,"name":"Pollich-Kunze","streetAddress":"78 Arrowood Hill","postalCode":null,"cityLocalized":"China","geolocation":{"latitude":22.829287,"longitude":107.200654}},
{"ratingStars":217,"name":"Lubowitz Group","streetAddress":"8 Hoard Crossing","postalCode":"9242","cityLocalized":"Bangladesh","geolocation":{"latitude":22.845641,"longitude":89.5403279}},
{"ratingStars":218,"name":"Dicki-O'Keefe","streetAddress":"85254 Rieder Junction","postalCode":null,"cityLocalized":"China","geolocation":{"latitude":31.437058,"longitude":119.975172}},
{"ratingStars":219,"name":"Mayert Inc","streetAddress":"72765 Kingsford Court","postalCode":null,"cityLocalized":"Yemen","geolocation":{"latitude":"17.39713","longitude":"43.47743"}},
{"ratingStars":220,"name":"Durgan, Bartell and Gibson","streetAddress":"17 Prentice Center","postalCode":"520-0111","cityLocalized":"Japan","geolocation":{"latitude":35.089251,"longitude":135.8827528}},
{"ratingStars":221,"name":"Schulist, Champlin and Haley","streetAddress":"535 Mayfield Road","postalCode":"T56","cityLocalized":"Ireland","geolocation":{"latitude":53.3788495,"longitude":-6.1822287}},
{"ratingStars":222,"name":"Stamm Inc","streetAddress":"56462 Becker Parkway","postalCode":"3450-301","cityLocalized":"Portugal","geolocation":{"latitude":40.4604941,"longitude":-8.2950775}},
{"ratingStars":223,"name":"Lebsack, Bode and West","streetAddress":"5617 Eliot Street","postalCode":"181-0012","cityLocalized":"Japan","geolocation":{"latitude":35.6958419,"longitude":139.5530816}},
{"ratingStars":224,"name":"Bogisich and Sons","streetAddress":"2351 Randy Point","postalCode":"57193","cityLocalized":"United States","geolocation":{"latitude":43.6,"longitude":-96.7099999}},
{"ratingStars":225,"name":"Swaniawski Inc","streetAddress":"88 Esker Circle","postalCode":"672-8090","cityLocalized":"Japan","geolocation":{"latitude":34.7757093,"longitude":134.7206721}},
{"ratingStars":226,"name":"Jacobson, Frami and Sanford","streetAddress":"219 Talisman Pass","postalCode":null,"cityLocalized":"Indonesia","geolocation":{"latitude":-1.4328008,"longitude":132.0583886}},
{"ratingStars":227,"name":"Gusikowski, Feest and Lynch","streetAddress":"10291 Haas Place","postalCode":null,"cityLocalized":"China","geolocation":{"latitude":27.8469,"longitude":105.049027}},
{"ratingStars":228,"name":"Gleichner, Hickle and Kohler","streetAddress":"24 Dakota Parkway","postalCode":"456143","cityLocalized":"Russia","geolocation":{"latitude":55.354135,"longitude":40.297852}},
{"ratingStars":229,"name":"Mayert-Beahan","streetAddress":"2153 Amoth Center","postalCode":null,"cityLocalized":"Uganda","geolocation":{"latitude":0.1698986,"longitude":30.078078}},
{"ratingStars":230,"name":"Baumbach-Bruen","streetAddress":"336 Nevada Terrace","postalCode":"J9H","cityLocalized":"Canada","geolocation":{"latitude":53.7131425,"longitude":-111.743338}},
{"ratingStars":231,"name":"Marvin, Grimes and Treutel","streetAddress":"4096 Forest Dale Point","postalCode":null,"cityLocalized":"China","geolocation":{"latitude":36.334104,"longitude":113.228852}},
{"ratingStars":232,"name":"Crist-Thiel","streetAddress":"875 Shopko Way","postalCode":null,"cityLocalized":"China","geolocation":{"latitude":36.1093631,"longitude":103.694265}},
{"ratingStars":233,"name":"Gulgowski Inc","streetAddress":"10985 Thierer Park","postalCode":"6525","cityLocalized":"Philippines","geolocation":{"latitude":13.3656061,"longitude":123.3810275}},
{"ratingStars":234,"name":"Kihn LLC","streetAddress":"53 Spenser Trail","postalCode":"142806","cityLocalized":"Russia","geolocation":{"latitude":54.8843032,"longitude":38.1642604}},
{"ratingStars":235,"name":"Fahey Group","streetAddress":"6 Sloan Junction","postalCode":"97001","cityLocalized":"Lithuania","geolocation":{"latitude":55.8884553,"longitude":21.2431408}},
{"ratingStars":236,"name":"Kreiger-Spencer","streetAddress":"19618 Bashford Lane","postalCode":null,"cityLocalized":"Indonesia","geolocation":{"latitude":"-6.7919","longitude":"111.9161"}},
{"ratingStars":237,"name":"Kerluke-Pagac","streetAddress":"727 Arkansas Drive","postalCode":null,"cityLocalized":"China","geolocation":{"latitude":25.112046,"longitude":99.161761}},
{"ratingStars":238,"name":"Prohaska Group","streetAddress":"3826 Monica Point","postalCode":null,"cityLocalized":"Greece","geolocation":{"latitude":40.5040992,"longitude":21.376499}},
{"ratingStars":239,"name":"Schimmel-Nader","streetAddress":"06769 Summit Drive","postalCode":"90305","cityLocalized":"United States","geolocation":{"latitude":33.9596334,"longitude":-118.3286614}},
{"ratingStars":240,"name":"Grady, Kovacek and Windler","streetAddress":"32 Eastwood Park","postalCode":null,"cityLocalized":"Indonesia","geolocation":{"latitude":-7.1525924,"longitude":111.8971017}},
{"ratingStars":241,"name":"Jast LLC","streetAddress":"326 Sachs Circle","postalCode":null,"cityLocalized":"Indonesia","geolocation":{"latitude":-8.509828,"longitude":118.623299}},
{"ratingStars":242,"name":"Christiansen LLC","streetAddress":"41564 Spohn Place","postalCode":"166004","cityLocalized":"Russia","geolocation":{"latitude":67.6710067,"longitude":53.1078339}},
{"ratingStars":243,"name":"Romaguera, Hamill and Ferry","streetAddress":"60293 Clove Park","postalCode":null,"cityLocalized":"Ukraine","geolocation":{"latitude":48.0486753,"longitude":38.45053}},
{"ratingStars":244,"name":"Graham Inc","streetAddress":"7299 Sachtjen Park","postalCode":"34230","cityLocalized":"Thailand","geolocation":{"latitude":13.7315145,"longitude":100.5692601}},
{"ratingStars":245,"name":"Bins, Hackett and Hudson","streetAddress":"65939 Katie Terrace","postalCode":"6022","cityLocalized":"Philippines","geolocation":{"latitude":9.8318931,"longitude":123.4675853}},
{"ratingStars":246,"name":"Prosacco, Satterfield and Leuschke","streetAddress":"646 School Terrace","postalCode":"57-230","cityLocalized":"Poland","geolocation":{"latitude":50.5251922,"longitude":16.8791589}},
{"ratingStars":247,"name":"McDermott Inc","streetAddress":"6 Di Loreto Hill","postalCode":"3800-006","cityLocalized":"Portugal","geolocation":{"latitude":40.6394384,"longitude":-8.6380475}},
{"ratingStars":248,"name":"Swift-Boyle","streetAddress":"662 Claremont Street","postalCode":"61910","cityLocalized":"Mexico","geolocation":{"latitude":19.710125,"longitude":-99.1400807}},
{"ratingStars":249,"name":"Jacobson-Morar","streetAddress":"9 Dennis Trail","postalCode":"5280","cityLocalized":"Slovenia","geolocation":{"latitude":46.0029454,"longitude":14.0278459}},
{"ratingStars":250,"name":"Sawayn, Emard and Haley","streetAddress":"79 Truax Crossing","postalCode":null,"cityLocalized":"Iran","geolocation":{"latitude":"36.8211","longitude":"49.4264"}},
{"ratingStars":251,"name":"Bahringer Inc","streetAddress":"084 Kim Park","postalCode":null,"cityLocalized":"Syria","geolocation":{"latitude":"34.95563","longitude":"36.1983"}},
{"ratingStars":252,"name":"Gibson, Shanahan and Emard","streetAddress":"85337 Ramsey Place","postalCode":null,"cityLocalized":"China","geolocation":{"latitude":26.463923,"longitude":107.905837}},
{"ratingStars":253,"name":"Rath, Gleason and Sauer","streetAddress":"3470 Westend Junction","postalCode":"38477","cityLocalized":"Mexico","geolocation":{"latitude":20.6941604,"longitude":-103.3818783}},
{"ratingStars":254,"name":"Kris-Jerde","streetAddress":"215 Westridge Terrace","postalCode":null,"cityLocalized":"Haiti","geolocation":{"latitude":18.8340566,"longitude":-72.8663173}},
{"ratingStars":255,"name":"Rogahn Group","streetAddress":"2828 Scott Lane","postalCode":null,"cityLocalized":"China","geolocation":{"latitude":49.571196,"longitude":121.395538}},
{"ratingStars":256,"name":"Schmeler-Bosco","streetAddress":"84 Hauk Hill","postalCode":null,"cityLocalized":"Mauritania","geolocation":{"latitude":20.5072923,"longitude":-13.052978}},
{"ratingStars":257,"name":"Bernhard-Bernhard","streetAddress":"44 Dunning Place","postalCode":null,"cityLocalized":"Ecuador","geolocation":{"latitude":-0.9583345,"longitude":-78.6965972}},
{"ratingStars":258,"name":"Brown-Franecki","streetAddress":"2116 Blaine Drive","postalCode":null,"cityLocalized":"Indonesia","geolocation":{"latitude":-7.9675395,"longitude":112.7032945}},
{"ratingStars":259,"name":"Metz Group","streetAddress":"388 Moland Park","postalCode":null,"cityLocalized":"Indonesia","geolocation":{"latitude":-6.7345601,"longitude":108.2777899}},
{"ratingStars":260,"name":"Kilback LLC","streetAddress":"16 Crownhardt Road","postalCode":null,"cityLocalized":"Sudan","geolocation":{"latitude":14.2549626,"longitude":33.000095}},
{"ratingStars":261,"name":"Buckridge, Brekke and Borer","streetAddress":"4887 Troy Lane","postalCode":null,"cityLocalized":"Ukraine","geolocation":{"latitude":49.189578,"longitude":26.8447254}},
{"ratingStars":262,"name":"Schneider, Larkin and Smith","streetAddress":"2543 Cottonwood Court","postalCode":null,"cityLocalized":"Uruguay","geolocation":{"latitude":-34.7328945,"longitude":-56.0305724}},
{"ratingStars":263,"name":"Roob Group","streetAddress":"5032 Mayer Alley","postalCode":null,"cityLocalized":"Nigeria","geolocation":{"latitude":6.4315805,"longitude":2.8876436}},
{"ratingStars":264,"name":"Smitham LLC","streetAddress":"91 1st Circle","postalCode":null,"cityLocalized":"Indonesia","geolocation":{"latitude":-7.5429807,"longitude":110.8135688}},
{"ratingStars":265,"name":"Williamson, Kris and Purdy","streetAddress":"6 Oneill Way","postalCode":null,"cityLocalized":"China","geolocation":{"latitude":29.693316,"longitude":120.167774}},
{"ratingStars":266,"name":"Lind, Botsford and Bartoletti","streetAddress":"19183 Waywood Lane","postalCode":null,"cityLocalized":"China","geolocation":{"latitude":31.058765,"longitude":121.315718}},
{"ratingStars":267,"name":"Schowalter-Schaefer","streetAddress":"94 Fieldstone Point","postalCode":"628126","cityLocalized":"Russia","geolocation":{"latitude":62.5465831,"longitude":65.628237}},
{"ratingStars":268,"name":"Koepp LLC","streetAddress":"8 Forest Lane","postalCode":"4505-569","cityLocalized":"Portugal","geolocation":{"latitude":40.954617,"longitude":-8.481788}},
{"ratingStars":269,"name":"Boyle and Sons","streetAddress":"8 Bluestem Lane","postalCode":null,"cityLocalized":"Turkmenistan","geolocation":{"latitude":40.0336591,"longitude":52.9759299}},
{"ratingStars":270,"name":"Nienow, Weber and Luettgen","streetAddress":"046 Veith Street","postalCode":null,"cityLocalized":"China","geolocation":{"latitude":28.46763,"longitude":119.922796}},
{"ratingStars":271,"name":"Hartmann, Boehm and Dicki","streetAddress":"654 Oxford Crossing","postalCode":"15910-000","cityLocalized":"Brazil","geolocation":{"latitude":-21.2846176,"longitude":-48.5316897}},
{"ratingStars":272,"name":"Green-Lubowitz","streetAddress":"89425 Monica Point","postalCode":"23275","cityLocalized":"Croatia","geolocation":{"latitude":44.1316723,"longitude":15.1038874}},
{"ratingStars":273,"name":"Baumbach-Dach","streetAddress":"463 Pierstorff Parkway","postalCode":null,"cityLocalized":"China","geolocation":{"latitude":19.214452,"longitude":110.019489}},
{"ratingStars":274,"name":"Friesen Inc","streetAddress":"201 Roth Circle","postalCode":"08190","cityLocalized":"Spain","geolocation":{"latitude":41.4904044,"longitude":2.0776887}},
{"ratingStars":275,"name":"Muller, Farrell and Rutherford","streetAddress":"2945 Lakewood Point","postalCode":null,"cityLocalized":"China","geolocation":{"latitude":26.458254,"longitude":114.786182}},
{"ratingStars":276,"name":"Cummings, Abbott and Ullrich","streetAddress":"99736 Bultman Trail","postalCode":"B1V","cityLocalized":"Canada","geolocation":{"latitude":46.2475531,"longitude":-60.2362743}},
{"ratingStars":277,"name":"Yundt, West and Bergstrom","streetAddress":"27743 5th Hill","postalCode":null,"cityLocalized":"China","geolocation":{"latitude":39.9041999,"longitude":116.4073963}},
{"ratingStars":278,"name":"Funk LLC","streetAddress":"74 Barnett Road","postalCode":null,"cityLocalized":"Indonesia","geolocation":{"latitude":-8.3465933,"longitude":115.5207358}},
{"ratingStars":279,"name":"Ondricka-Schaden","streetAddress":"49 Scott Hill","postalCode":null,"cityLocalized":"China","geolocation":{"latitude":26.489902,"longitude":113.772655}},
{"ratingStars":280,"name":"Bins-Kertzmann","streetAddress":"6 Forster Plaza","postalCode":"6711","cityLocalized":"Philippines","geolocation":{"latitude":14.3839328,"longitude":121.050126}},
{"ratingStars":281,"name":"Carter, Hayes and Weber","streetAddress":"6 Cottonwood Court","postalCode":null,"cityLocalized":"Indonesia","geolocation":{"latitude":-7.6411786,"longitude":112.6377432}},
{"ratingStars":282,"name":"Buckridge-Rath","streetAddress":"1077 Sachtjen Trail","postalCode":null,"cityLocalized":"Iraq","geolocation":{"latitude":36.6085381,"longitude":44.5238693}},
{"ratingStars":283,"name":"Funk, Auer and Johns","streetAddress":"547 Mallory Road","postalCode":null,"cityLocalized":"Vietnam","geolocation":{"latitude":10.4452129,"longitude":106.4729811}},
{"ratingStars":284,"name":"Hermiston, Hagenes and Kunde","streetAddress":"3 Corscot Crossing","postalCode":null,"cityLocalized":"China","geolocation":{"latitude":37.198731,"longitude":106.1580937}},
{"ratingStars":285,"name":"Barton-Goldner","streetAddress":"666 Delaware Hill","postalCode":null,"cityLocalized":"Tanzania","geolocation":{"latitude":-7.4031768,"longitude":36.9917125}},
{"ratingStars":286,"name":"Rosenbaum, Mraz and Rogahn","streetAddress":"21 Bobwhite Point","postalCode":"054829","cityLocalized":"Colombia","geolocation":{"latitude":5.6460924,"longitude":-75.3178952}},
{"ratingStars":287,"name":"McGlynn Group","streetAddress":"05396 Stephen Place","postalCode":"24009","cityLocalized":"United States","geolocation":{"latitude":37.27,"longitude":-79.94}},
{"ratingStars":288,"name":"Collins-Hudson","streetAddress":"38932 Debs Lane","postalCode":null,"cityLocalized":"Greece","geolocation":{"latitude":39.2759274,"longitude":22.818555}},
{"ratingStars":289,"name":"Parisian-Hahn","streetAddress":"6918 Darwin Center","postalCode":null,"cityLocalized":"Niger","geolocation":{"latitude":14.0790439,"longitude":5.956825}},
{"ratingStars":290,"name":"Waters, Braun and Bergnaum","streetAddress":"03663 Sycamore Park","postalCode":"752-0923","cityLocalized":"Japan","geolocation":{"latitude":34.0319016,"longitude":131.0103712}},
{"ratingStars":291,"name":"Corkery, Labadie and Casper","streetAddress":"348 Raven Circle","postalCode":"58031","cityLocalized":"Pakistan","geolocation":{"latitude":30.1996024,"longitude":73.6119469}},
{"ratingStars":292,"name":"Wisoky, Tillman and Gorczany","streetAddress":"396 Ohio Junction","postalCode":null,"cityLocalized":"Chile","geolocation":{"latitude":-33.4408815,"longitude":-70.6516913}},
{"ratingStars":293,"name":"Ferry, Parker and Hyatt","streetAddress":"5 New Castle Terrace","postalCode":null,"cityLocalized":"Angola","geolocation":{"latitude":-10.7072554,"longitude":22.22946}},
{"ratingStars":294,"name":"Nader, Hane and Gutmann","streetAddress":"348 Waywood Point","postalCode":"353664","cityLocalized":"Russia","geolocation":{"latitude":46.6522807,"longitude":38.0818378}},
{"ratingStars":295,"name":"Reilly and Sons","streetAddress":"68235 Monica Center","postalCode":null,"cityLocalized":"Burundi","geolocation":{"latitude":-3.1572403,"longitude":29.3714909}},
{"ratingStars":296,"name":"Rau, Muller and Kerluke","streetAddress":"009 Delaware Street","postalCode":"66119","cityLocalized":"Germany","geolocation":{"latitude":49.2088164,"longitude":7.0075837}},
{"ratingStars":297,"name":"Leuschke-Schmidt","streetAddress":"648 Cambridge Hill","postalCode":"48912","cityLocalized":"United States","geolocation":{"latitude":42.7376689,"longitude":-84.5169757}},
{"ratingStars":298,"name":"McLaughlin, Will and Wolf","streetAddress":"29 Old Shore Hill","postalCode":null,"cityLocalized":"Greece","geolocation":{"latitude":"39.66667","longitude":"22.38333"}},
{"ratingStars":299,"name":"Yost, Nikolaus and Bruen","streetAddress":"4 Norway Maple Avenue","postalCode":null,"cityLocalized":"China","geolocation":{"latitude":39.898215,"longitude":116.178179}},
{"ratingStars":300,"name":"Wiza Inc","streetAddress":"30719 Vera Center","postalCode":null,"cityLocalized":"Venezuela","geolocation":{"latitude":7.766667,"longitude":-71.466667}},
{"ratingStars":301,"name":"Greenholt-Shanahan","streetAddress":"2126 Victoria Trail","postalCode":null,"cityLocalized":"Indonesia","geolocation":{"latitude":-8.4164207,"longitude":115.3459831}},
{"ratingStars":302,"name":"Smitham Inc","streetAddress":"52 Jana Road","postalCode":"052848","cityLocalized":"Colombia","geolocation":{"latitude":6.8740602,"longitude":-74.9910112}},
{"ratingStars":303,"name":"Frami Inc","streetAddress":"801 Tennessee Lane","postalCode":null,"cityLocalized":"Armenia","geolocation":{"latitude":40.2544003,"longitude":44.6027766}},
{"ratingStars":304,"name":"Kozey Inc","streetAddress":"7 Londonderry Place","postalCode":null,"cityLocalized":"China","geolocation":{"latitude":30.208404,"longitude":116.681928}},
{"ratingStars":305,"name":"Breitenberg and Sons","streetAddress":"02 Tennessee Terrace","postalCode":null,"cityLocalized":"Kiribati","geolocation":{"latitude":1.968543,"longitude":-157.3936469}},
{"ratingStars":306,"name":"Kuvalis Inc","streetAddress":"20 Ryan Lane","postalCode":"8501","cityLocalized":"Philippines","geolocation":{"latitude":8.508983,"longitude":125.969667}},
{"ratingStars":307,"name":"Gleason Inc","streetAddress":"663 Shasta Crossing","postalCode":null,"cityLocalized":"Indonesia","geolocation":{"latitude":-7.2528931,"longitude":108.1886249}},
{"ratingStars":308,"name":"Wiegand, Weissnat and McClure","streetAddress":"3551 Lakewood Gardens Terrace","postalCode":"354-0046","cityLocalized":"Japan","geolocation":{"latitude":35.8232602,"longitude":139.5521867}},
{"ratingStars":309,"name":"Miller, Koch and Marks","streetAddress":"67 Goodland Park","postalCode":null,"cityLocalized":"Kosovo","geolocation":{"latitude":42.3998287,"longitude":20.6527992}},
{"ratingStars":310,"name":"Runte-Mueller","streetAddress":"0352 Oak Alley","postalCode":"70180","cityLocalized":"Germany","geolocation":{"latitude":48.7643143,"longitude":9.1752629}},
{"ratingStars":311,"name":"Hansen Inc","streetAddress":"6704 Reinke Circle","postalCode":null,"cityLocalized":"China","geolocation":{"latitude":51.79909,"longitude":124.537673}},
{"ratingStars":312,"name":"Emmerich, Towne and Bernier","streetAddress":"97 Schlimgen Terrace","postalCode":null,"cityLocalized":"Afghanistan","geolocation":{"latitude":36.7285907,"longitude":68.8680663}},
{"ratingStars":313,"name":"Shanahan, Romaguera and Greenfelder","streetAddress":"87 Warner Lane","postalCode":null,"cityLocalized":"Iran","geolocation":{"latitude":37.2406676,"longitude":55.1596592}},
{"ratingStars":314,"name":"Yundt Group","streetAddress":"7 Sutherland Alley","postalCode":"95-047","cityLocalized":"Poland","geolocation":{"latitude":51.8135681,"longitude":19.9684918}},
{"ratingStars":315,"name":"Purdy, Kreiger and Carter","streetAddress":"476 Aberg Hill","postalCode":null,"cityLocalized":"China","geolocation":{"latitude":30.208404,"longitude":116.681928}},
{"ratingStars":316,"name":"Kozey Group","streetAddress":"1388 Harbort Court","postalCode":"3504","cityLocalized":"Hungary","geolocation":{"latitude":48.081286,"longitude":20.7644305}},
{"ratingStars":317,"name":"Bechtelar, Considine and Von","streetAddress":"216 Towne Parkway","postalCode":"G5J","cityLocalized":"Canada","geolocation":{"latitude":48.465994,"longitude":-67.4324153}},
{"ratingStars":318,"name":"Bogisich, Crist and Breitenberg","streetAddress":"882 Glendale Plaza","postalCode":null,"cityLocalized":"Uruguay","geolocation":{"latitude":-33.7902407,"longitude":-57.4895998}},
{"ratingStars":319,"name":"Bosco, Hagenes and Lind","streetAddress":"9 Ronald Regan Street","postalCode":"M4C","cityLocalized":"Canada","geolocation":{"latitude":"45.41675","longitude":"-71.6324"}},
{"ratingStars":320,"name":"Keeling-Durgan","streetAddress":"153 Spohn Parkway","postalCode":"2430-620","cityLocalized":"Portugal","geolocation":{"latitude":39.876135,"longitude":-8.9189073}},
{"ratingStars":321,"name":"Moen-Blick","streetAddress":"15081 Walton Terrace","postalCode":"5223","cityLocalized":"Argentina","geolocation":{"latitude":-31.4149049,"longitude":-64.1467066}},
{"ratingStars":322,"name":"Walsh, Hane and Schimmel","streetAddress":"0 Oak Junction","postalCode":null,"cityLocalized":"China","geolocation":{"latitude":32.840217,"longitude":117.229368}},
{"ratingStars":323,"name":"O'Reilly-Christiansen","streetAddress":"31 Utah Place","postalCode":null,"cityLocalized":"China","geolocation":{"latitude":35.919651,"longitude":103.845271}},
{"ratingStars":324,"name":"Bruen-Bernhard","streetAddress":"244 Burning Wood Drive","postalCode":"32224","cityLocalized":"Croatia","geolocation":{"latitude":45.4447185,"longitude":18.8903084}},
{"ratingStars":325,"name":"Steuber, Price and Braun","streetAddress":"5816 Badeau Drive","postalCode":null,"cityLocalized":"China","geolocation":{"latitude":37.377139,"longitude":97.369751}},
{"ratingStars":326,"name":"Wilkinson Inc","streetAddress":"0 Judy Junction","postalCode":null,"cityLocalized":"China","geolocation":{"latitude":30.7016468,"longitude":104.0663422}},
{"ratingStars":327,"name":"Hamill-Beer","streetAddress":"384 Prentice Terrace","postalCode":null,"cityLocalized":"China","geolocation":{"latitude":22.579117,"longitude":113.081508}},
{"ratingStars":328,"name":"Nader Group","streetAddress":"81 Sutteridge Park","postalCode":null,"cityLocalized":"China","geolocation":{"latitude":26.641315,"longitude":100.222545}},
{"ratingStars":329,"name":"Senger, Pollich and Larkin","streetAddress":"1370 Jay Street","postalCode":"96180-000","cityLocalized":"Brazil","geolocation":{"latitude":-30.8493976,"longitude":-51.8048311}},
{"ratingStars":330,"name":"Bode, Braun and O'Kon","streetAddress":"5377 Del Sol Park","postalCode":null,"cityLocalized":"Botswana","geolocation":{"latitude":-24.3965818,"longitude":25.4970466}},
{"ratingStars":331,"name":"Cremin Group","streetAddress":"8 North Place","postalCode":"751 14","cityLocalized":"Czech Republic","geolocation":{"latitude":49.4259425,"longitude":17.5920528}},
{"ratingStars":332,"name":"Stamm-Eichmann","streetAddress":"96 Walton Avenue","postalCode":"87-340","cityLocalized":"Poland","geolocation":{"latitude":53.1595566,"longitude":19.3969614}},
{"ratingStars":333,"name":"Cassin Group","streetAddress":"9847 Fairfield Pass","postalCode":null,"cityLocalized":"Iran","geolocation":{"latitude":34.0375944,"longitude":48.4631098}},
{"ratingStars":334,"name":"Harris and Sons","streetAddress":"9584 Declaration Crossing","postalCode":"3515","cityLocalized":"Philippines","geolocation":{"latitude":15.3614928,"longitude":120.530743}},
{"ratingStars":335,"name":"McGlynn, Luettgen and Prosacco","streetAddress":"99 Arrowood Hill","postalCode":"2840-466","cityLocalized":"Portugal","geolocation":{"latitude":38.6407826,"longitude":-9.0955246}},
{"ratingStars":336,"name":"White-Eichmann","streetAddress":"6990 Huxley Drive","postalCode":"58122","cityLocalized":"United States","geolocation":{"latitude":46.8843099,"longitude":-96.7847834}},
{"ratingStars":337,"name":"Walter, Hansen and Wisozk","streetAddress":"5826 Steensland Junction","postalCode":null,"cityLocalized":"Chile","geolocation":{"latitude":-37.7178812,"longitude":-72.2374343}},
{"ratingStars":338,"name":"Littel Group","streetAddress":"0943 Mesta Alley","postalCode":null,"cityLocalized":"Ecuador","geolocation":{"latitude":-0.9676533,"longitude":-80.7089101}},
{"ratingStars":339,"name":"Kovacek, White and Huels","streetAddress":"6 Milwaukee Circle","postalCode":null,"cityLocalized":"Haiti","geolocation":{"latitude":19.6616066,"longitude":-71.8363794}},
{"ratingStars":340,"name":"Kirlin and Sons","streetAddress":"57582 Pepper Wood Park","postalCode":null,"cityLocalized":"China","geolocation":{"latitude":19.543278,"longitude":110.797759}},
{"ratingStars":341,"name":"Yost-Volkman","streetAddress":"45336 Blue Bill Park Trail","postalCode":"0113","cityLocalized":"Norway","geolocation":{"latitude":59.913104,"longitude":10.7238941}},
{"ratingStars":342,"name":"Stracke-Ernser","streetAddress":"118 Carpenter Court","postalCode":"7413","cityLocalized":"Philippines","geolocation":{"latitude":29.8867761,"longitude":-95.54919}},
{"ratingStars":343,"name":"Crooks, Carter and Gutmann","streetAddress":"5748 Nobel Court","postalCode":null,"cityLocalized":"Vietnam","geolocation":{"latitude":20.4463471,"longitude":106.3365828}},
{"ratingStars":344,"name":"Schiller LLC","streetAddress":"02531 Texas Terrace","postalCode":null,"cityLocalized":"China","geolocation":{"latitude":18.400092,"longitude":109.752583}},
{"ratingStars":345,"name":"Durgan LLC","streetAddress":"2714 Crownhardt Junction","postalCode":"38-458","cityLocalized":"Poland","geolocation":{"latitude":49.642816,"longitude":21.660458}},
{"ratingStars":346,"name":"Volkman-Sanford","streetAddress":"8701 Oriole Lane","postalCode":"285 71","cityLocalized":"Czech Republic","geolocation":{"latitude":49.9287189,"longitude":15.4598339}},
{"ratingStars":347,"name":"Wolf-Cummings","streetAddress":"0388 Bobwhite Way","postalCode":null,"cityLocalized":"Indonesia","geolocation":{"latitude":4.3378413,"longitude":98.0717968}},
{"ratingStars":348,"name":"McClure Inc","streetAddress":"5643 Loomis Place","postalCode":null,"cityLocalized":"China","geolocation":{"latitude":24.098959,"longitude":115.264182}},
{"ratingStars":349,"name":"Jaskolski, Kertzmann and Bechtelar","streetAddress":"68 Paget Terrace","postalCode":"966-0847","cityLocalized":"Japan","geolocation":{"latitude":37.6453583,"longitude":139.8670624}},
{"ratingStars":350,"name":"Rolfson Group","streetAddress":"0 Donald Junction","postalCode":null,"cityLocalized":"Peru","geolocation":{"latitude":-6.5801079,"longitude":-76.2609463}},
{"ratingStars":351,"name":"Stamm Group","streetAddress":"56171 Artisan Alley","postalCode":null,"cityLocalized":"China","geolocation":{"latitude":27.622797,"longitude":119.388311}},
{"ratingStars":352,"name":"Rowe, Mertz and Cole","streetAddress":"0075 Utah Plaza","postalCode":null,"cityLocalized":"Indonesia","geolocation":{"latitude":-7.5471852,"longitude":112.7137227}},
{"ratingStars":353,"name":"Stark Group","streetAddress":"916 Westridge Center","postalCode":null,"cityLocalized":"Indonesia","geolocation":{"latitude":-9.7464338,"longitude":124.4309165}},
{"ratingStars":354,"name":"Altenwerth and Sons","streetAddress":"27 Duke Trail","postalCode":"13170-000","cityLocalized":"Brazil","geolocation":{"latitude":-22.8209029,"longitude":-47.2732726}},
{"ratingStars":355,"name":"Altenwerth, Cummerata and Osinski","streetAddress":"62 Warrior Circle","postalCode":"28470-000","cityLocalized":"Brazil","geolocation":{"latitude":-21.5418158,"longitude":-42.1837129}},
{"ratingStars":356,"name":"Frami, Klocko and Fritsch","streetAddress":"925 Merry Pass","postalCode":null,"cityLocalized":"China","geolocation":{"latitude":40.142128,"longitude":94.661966}},
{"ratingStars":357,"name":"Gleichner Inc","streetAddress":"30 Moland Lane","postalCode":"33190","cityLocalized":"Thailand","geolocation":{"latitude":15.241178,"longitude":104.4024704}},
{"ratingStars":358,"name":"White-Tromp","streetAddress":"185 Northwestern Terrace","postalCode":"303623","cityLocalized":"Russia","geolocation":{"latitude":55.900378,"longitude":37.387813}},
{"ratingStars":359,"name":"Dach LLC","streetAddress":"10 Katie Drive","postalCode":null,"cityLocalized":"Ethiopia","geolocation":{"latitude":7.0503742,"longitude":38.4955043}},
{"ratingStars":360,"name":"Hyatt Group","streetAddress":"96766 Kingsford Plaza","postalCode":"58130","cityLocalized":"Thailand","geolocation":{"latitude":19.2987683,"longitude":98.5062007}},
{"ratingStars":361,"name":"Sanford, Beatty and Hermiston","streetAddress":"6675 Fordem Circle","postalCode":null,"cityLocalized":"China","geolocation":{"latitude":23.11153,"longitude":109.57224}},
{"ratingStars":362,"name":"Gleason Group","streetAddress":"1 Lakewood Gardens Road","postalCode":null,"cityLocalized":"China","geolocation":{"latitude":42.654146,"longitude":122.749282}},
{"ratingStars":363,"name":"Conn, Becker and Littel","streetAddress":"8303 Graceland Plaza","postalCode":"32-435","cityLocalized":"Poland","geolocation":{"latitude":49.7371648,"longitude":19.9186389}},
{"ratingStars":364,"name":"Bahringer-Denesik","streetAddress":"763 Sloan Avenue","postalCode":null,"cityLocalized":"Indonesia","geolocation":{"latitude":-7.5273,"longitude":110.336609}},
{"ratingStars":365,"name":"Bernier, Rutherford and Keeling","streetAddress":"44712 Jackson Crossing","postalCode":null,"cityLocalized":"Peru","geolocation":{"latitude":-6.4240524,"longitude":-79.242648}},
{"ratingStars":366,"name":"Daugherty and Sons","streetAddress":"17745 Pierstorff Street","postalCode":null,"cityLocalized":"Ukraine","geolocation":{"latitude":48.3284147,"longitude":39.7960619}},
{"ratingStars":367,"name":"Olson, Davis and Feeney","streetAddress":"40 Vera Pass","postalCode":null,"cityLocalized":"China","geolocation":{"latitude":22.529403,"longitude":103.93935}},
{"ratingStars":368,"name":"Leuschke Group","streetAddress":"1134 Dwight Place","postalCode":"619184","cityLocalized":"Russia","geolocation":{"latitude":58.999782,"longitude":55.8855974}},
{"ratingStars":369,"name":"Miller, Hoppe and Kautzer","streetAddress":"7487 Di Loreto Junction","postalCode":null,"cityLocalized":"China","geolocation":{"latitude":24.880095,"longitude":102.832891}},
{"ratingStars":370,"name":"Walter, Cole and Schaden","streetAddress":"31 Barnett Drive","postalCode":"307425","cityLocalized":"Russia","geolocation":{"latitude":51.4787508,"longitude":38.0781648}},
{"ratingStars":371,"name":"O'Hara and Sons","streetAddress":"0087 Elmside Trail","postalCode":null,"cityLocalized":"China","geolocation":{"latitude":34.534829,"longitude":109.088297}},
{"ratingStars":372,"name":"Bosco LLC","streetAddress":"2833 Redwing Pass","postalCode":null,"cityLocalized":"Cuba","geolocation":{"latitude":20.1871897,"longitude":-75.8475853}},
{"ratingStars":373,"name":"Macejkovic, Huel and Lindgren","streetAddress":"3 Morningstar Hill","postalCode":"300-0636","cityLocalized":"Japan","geolocation":{"latitude":35.9581394,"longitude":140.3212196}},
{"ratingStars":374,"name":"Abshire LLC","streetAddress":"6244 Del Mar Avenue","postalCode":null,"cityLocalized":"China","geolocation":{"latitude":34.513586,"longitude":108.317445}},
{"ratingStars":375,"name":"Carter, Senger and Kris","streetAddress":"554 Lindbergh Road","postalCode":"17622","cityLocalized":"United States","geolocation":{"latitude":40.04,"longitude":-76.31}},
{"ratingStars":376,"name":"Auer, Homenick and Miller","streetAddress":"512 Orin Trail","postalCode":null,"cityLocalized":"China","geolocation":{"latitude":31.031933,"longitude":119.659553}},
{"ratingStars":377,"name":"Jast, Feest and Robel","streetAddress":"22 Farragut Pass","postalCode":"20337","cityLocalized":"United States","geolocation":{"latitude":42.5420213,"longitude":-91.1118075}},
{"ratingStars":378,"name":"Goyette LLC","streetAddress":"02 Calypso Point","postalCode":"28405","cityLocalized":"United States","geolocation":{"latitude":34.2426224,"longitude":-77.8252923}},
{"ratingStars":379,"name":"Langosh, Parker and Grimes","streetAddress":"7 Erie Terrace","postalCode":"411 21","cityLocalized":"Sweden","geolocation":{"latitude":57.7050333,"longitude":11.9551054}},
{"ratingStars":380,"name":"Heidenreich-Parker","streetAddress":"9 Brown Circle","postalCode":null,"cityLocalized":"China","geolocation":{"latitude":30.0510093,"longitude":119.9499657}},
{"ratingStars":381,"name":"Shanahan and Sons","streetAddress":"3754 Maple Wood Trail","postalCode":"0968","cityLocalized":"Norway","geolocation":{"latitude":59.9739683,"longitude":10.9282159}},
{"ratingStars":382,"name":"Bogisich LLC","streetAddress":"9 Golf Parkway","postalCode":null,"cityLocalized":"Peru","geolocation":{"latitude":-8.1468836,"longitude":-78.1721189}},
{"ratingStars":383,"name":"VonRueden, Pfeffer and Braun","streetAddress":"7 Maple Wood Alley","postalCode":null,"cityLocalized":"Nigeria","geolocation":{"latitude":9.4535964,"longitude":12.0318456}},
{"ratingStars":384,"name":"Zemlak-Abbott","streetAddress":"0485 Beilfuss Pass","postalCode":"38-471","cityLocalized":"Poland","geolocation":{"latitude":49.7774163,"longitude":21.7112659}},
{"ratingStars":385,"name":"Nicolas, Howe and Pagac","streetAddress":"5 Nelson Center","postalCode":"5401","cityLocalized":"Argentina","geolocation":{"latitude":-31.5868009,"longitude":-68.5173853}},
{"ratingStars":386,"name":"Gutkowski-Daugherty","streetAddress":"054 Thierer Road","postalCode":null,"cityLocalized":"China","geolocation":{"latitude":30.823499,"longitude":104.158705}},
{"ratingStars":387,"name":"Marvin LLC","streetAddress":"60 Hoard Street","postalCode":"46160","cityLocalized":"Thailand","geolocation":{"latitude":16.7315698,"longitude":104.0769024}},
{"ratingStars":388,"name":"Lesch, Barrows and Turcotte","streetAddress":"758 Saint Paul Drive","postalCode":null,"cityLocalized":"Jamaica","geolocation":{"latitude":18.30987,"longitude":-77.901428}},
{"ratingStars":389,"name":"Kreiger-Crooks","streetAddress":"511 Florence Alley","postalCode":null,"cityLocalized":"China","geolocation":{"latitude":29.00091,"longitude":120.568856}},
{"ratingStars":390,"name":"Flatley Inc","streetAddress":"713 Hanover Avenue","postalCode":"333 24","cityLocalized":"Sweden","geolocation":{"latitude":57.1630313,"longitude":13.4153897}},
{"ratingStars":391,"name":"Schuster, Hyatt and Yundt","streetAddress":"780 Farwell Drive","postalCode":"399903","cityLocalized":"Russia","geolocation":{"latitude":53.2408084,"longitude":39.9633318}},
{"ratingStars":392,"name":"Howe, Crooks and Bahringer","streetAddress":"1 Iowa Center","postalCode":null,"cityLocalized":"Bolivia","geolocation":{"latitude":-16.131343,"longitude":-62.0399534}},
{"ratingStars":393,"name":"Morar, Bahringer and Greenholt","streetAddress":"770 Carberry Drive","postalCode":"27040","cityLocalized":"Mexico","geolocation":{"latitude":19.0561748,"longitude":-98.2151462}},
{"ratingStars":394,"name":"Cruickshank, Carter and Lehner","streetAddress":"51 Stone Corner Avenue","postalCode":"612744","cityLocalized":"Russia","geolocation":{"latitude":58.6772898,"longitude":52.190142}},
{"ratingStars":395,"name":"Kuhlman Inc","streetAddress":"1 Warbler Circle","postalCode":null,"cityLocalized":"Peru","geolocation":{"latitude":-11.9796093,"longitude":-77.0698281}},
{"ratingStars":396,"name":"VonRueden, Wisoky and Hahn","streetAddress":"2 Oak Valley Plaza","postalCode":"2211","cityLocalized":"Philippines","geolocation":{"latitude":15.537073,"longitude":119.950207}},
{"ratingStars":397,"name":"Stark-Adams","streetAddress":"513 Nova Avenue","postalCode":null,"cityLocalized":"China","geolocation":{"latitude":48.433225,"longitude":123.220598}},
{"ratingStars":398,"name":"Strosin and Sons","streetAddress":"40907 Ludington Hill","postalCode":"5607","cityLocalized":"Philippines","geolocation":{"latitude":11.8194472,"longitude":122.1619663}},
{"ratingStars":399,"name":"Botsford-Hackett","streetAddress":"86 Vidon Road","postalCode":null,"cityLocalized":"Comoros","geolocation":{"latitude":-11.5459875,"longitude":43.3885797}},
{"ratingStars":400,"name":"Murray, Connelly and Langosh","streetAddress":"0 Mandrake Terrace","postalCode":"33-111","cityLocalized":"Poland","geolocation":{"latitude":49.9776657,"longitude":20.9421091}},
{"ratingStars":401,"name":"Muller, Wunsch and Kutch","streetAddress":"946 Steensland Circle","postalCode":null,"cityLocalized":"China","geolocation":{"latitude":30.335237,"longitude":112.239631}},
{"ratingStars":402,"name":"Herman-Wiegand","streetAddress":"5765 Moose Park","postalCode":"121 12","cityLocalized":"Sweden","geolocation":{"latitude":59.2992508,"longitude":18.0807417}},
{"ratingStars":403,"name":"Dooley Group","streetAddress":"7 Porter Point","postalCode":null,"cityLocalized":"China","geolocation":{"latitude":41.095685,"longitude":121.1268459}},
{"ratingStars":404,"name":"Mayer-Baumbach","streetAddress":"9609 Pond Circle","postalCode":null,"cityLocalized":"Cape Verde","geolocation":{"latitude":15.229571,"longitude":-23.2141352}},
{"ratingStars":405,"name":"Schmeler, Rodriguez and Ritchie","streetAddress":"53870 Sullivan Junction","postalCode":null,"cityLocalized":"Palau","geolocation":{"latitude":"7.46932","longitude":"134.60991"}},
{"ratingStars":406,"name":"Johns-Leannon","streetAddress":"538 Gina Parkway","postalCode":null,"cityLocalized":"China","geolocation":{"latitude":28.9693852,"longitude":119.8453914}},
{"ratingStars":407,"name":"Heller Inc","streetAddress":"9579 Glendale Plaza","postalCode":"BT66","cityLocalized":"United Kingdom","geolocation":{"latitude":54.4429264,"longitude":-6.4175653}},
{"ratingStars":408,"name":"Towne and Sons","streetAddress":"706 Rigney Point","postalCode":null,"cityLocalized":"Nepal","geolocation":{"latitude":28.1962471,"longitude":84.3857442}},
{"ratingStars":409,"name":"Green Inc","streetAddress":"251 Old Shore Lane","postalCode":null,"cityLocalized":"Saudi Arabia","geolocation":{"latitude":26.6274775,"longitude":49.9161886}},
{"ratingStars":410,"name":"Schmidt, Wyman and Lynch","streetAddress":"61 Marquette Drive","postalCode":"20005","cityLocalized":"Guatemala","geolocation":{"latitude":14.8215286,"longitude":-89.3904407}},
{"ratingStars":411,"name":"Runolfsdottir LLC","streetAddress":"669 Darwin Point","postalCode":null,"cityLocalized":"Yemen","geolocation":{"latitude":13.4535926,"longitude":44.18389}},
{"ratingStars":412,"name":"Halvorson, Marks and Gibson","streetAddress":"8411 Little Fleur Center","postalCode":null,"cityLocalized":"Indonesia","geolocation":{"latitude":-8.1658601,"longitude":111.7763713}},
{"ratingStars":413,"name":"Upton LLC","streetAddress":"1052 Randy Drive","postalCode":"352159","cityLocalized":"Russia","geolocation":{"latitude":45.5426102,"longitude":40.4010024}},
{"ratingStars":414,"name":"Mante-Kozey","streetAddress":"4647 Scott Lane","postalCode":null,"cityLocalized":"China","geolocation":{"latitude":25.2527,"longitude":110.317826}},
{"ratingStars":415,"name":"Rohan-Lueilwitz","streetAddress":"852 5th Avenue","postalCode":null,"cityLocalized":"Indonesia","geolocation":{"latitude":-6.9927364,"longitude":107.8731968}},
{"ratingStars":416,"name":"Emard, Bauch and Collier","streetAddress":"90142 Express Parkway","postalCode":null,"cityLocalized":"Morocco","geolocation":{"latitude":35.4449242,"longitude":-5.0937101}},
{"ratingStars":417,"name":"Pollich-Boehm","streetAddress":"821 Rusk Circle","postalCode":"216533","cityLocalized":"Russia","geolocation":{"latitude":"54.11285","longitude":"33.29648"}},
{"ratingStars":418,"name":"Wintheiser, Leffler and Kuhic","streetAddress":"70 Union Circle","postalCode":"F31","cityLocalized":"Ireland","geolocation":{"latitude":53.940892,"longitude":-8.9480659}},
{"ratingStars":419,"name":"Daniel Inc","streetAddress":"6220 Onsgard Point","postalCode":null,"cityLocalized":"China","geolocation":{"latitude":29.919421,"longitude":121.085794}},
{"ratingStars":420,"name":"Hand Group","streetAddress":"50645 Rowland Circle","postalCode":null,"cityLocalized":"Haiti","geolocation":{"latitude":18.8340566,"longitude":-72.8663173}},
{"ratingStars":421,"name":"Will Inc","streetAddress":"08 Summerview Way","postalCode":"607-8077","cityLocalized":"Japan","geolocation":{"latitude":44.3868443,"longitude":142.3980641}},
{"ratingStars":422,"name":"Wolff Group","streetAddress":"7 Lindbergh Alley","postalCode":"82301","cityLocalized":"Finland","geolocation":{"latitude":62.416327,"longitude":29.9016349}},
{"ratingStars":423,"name":"Considine-Olson","streetAddress":"577 Kenwood Crossing","postalCode":"27197-000","cityLocalized":"Brazil","geolocation":{"latitude":-22.5383309,"longitude":-44.0103922}},
{"ratingStars":424,"name":"Lemke, Mann and Swift","streetAddress":"7 Northwestern Circle","postalCode":null,"cityLocalized":"China","geolocation":{"latitude":28.127664,"longitude":110.90203}},
{"ratingStars":425,"name":"Cremin LLC","streetAddress":"26270 Marquette Point","postalCode":"62800-000","cityLocalized":"Brazil","geolocation":{"latitude":-4.5612094,"longitude":-37.7688612}},
{"ratingStars":426,"name":"Yundt Group","streetAddress":"502 Pennsylvania Trail","postalCode":null,"cityLocalized":"Indonesia","geolocation":{"latitude":-7.258606,"longitude":108.4444578}},
{"ratingStars":427,"name":"Stokes, Anderson and Douglas","streetAddress":"6 Dexter Place","postalCode":"468 82","cityLocalized":"Sweden","geolocation":{"latitude":65.2670135,"longitude":21.7880154}},
{"ratingStars":428,"name":"Bogisich-Champlin","streetAddress":"46 Talisman Way","postalCode":"140074","cityLocalized":"Russia","geolocation":{"latitude":55.6152783,"longitude":37.9416367}},
{"ratingStars":429,"name":"Hahn Inc","streetAddress":"4242 Roth Street","postalCode":null,"cityLocalized":"Indonesia","geolocation":{"latitude":-7.2467407,"longitude":108.3474974}},
{"ratingStars":430,"name":"Schimmel-Wilderman","streetAddress":"9445 South Center","postalCode":null,"cityLocalized":"Mauritius","geolocation":{"latitude":-20.3399053,"longitude":57.5688474}},
{"ratingStars":431,"name":"Mraz Inc","streetAddress":"16 Kensington Pass","postalCode":null,"cityLocalized":"Indonesia","geolocation":{"latitude":"-10.2322","longitude":"123.9182"}},
{"ratingStars":432,"name":"Bruen-Ullrich","streetAddress":"1560 New Castle Court","postalCode":null,"cityLocalized":"Angola","geolocation":{"latitude":-8.1874595,"longitude":15.3745964}},
{"ratingStars":433,"name":"Schinner Group","streetAddress":"9 Sommers Plaza","postalCode":null,"cityLocalized":"Indonesia","geolocation":{"latitude":-7.0478731,"longitude":107.7473363}},
{"ratingStars":434,"name":"D'Amore Inc","streetAddress":"42 Hagan Road","postalCode":null,"cityLocalized":"China","geolocation":{"latitude":39.505925,"longitude":106.726099}},
{"ratingStars":435,"name":"Beier-Harris","streetAddress":"34505 Delaware Alley","postalCode":null,"cityLocalized":"Cuba","geolocation":{"latitude":20.1453986,"longitude":-77.4300357}},
{"ratingStars":436,"name":"White-Keebler","streetAddress":"29 Arizona Hill","postalCode":null,"cityLocalized":"China","geolocation":{"latitude":31.298974,"longitude":120.585289}},
{"ratingStars":437,"name":"Vandervort Group","streetAddress":"2 Badeau Avenue","postalCode":"4550","cityLocalized":"Bulgaria","geolocation":{"latitude":42.0298857,"longitude":24.2987265}},
{"ratingStars":438,"name":"Kautzer-Harris","streetAddress":"78 Melrose Street","postalCode":null,"cityLocalized":"China","geolocation":{"latitude":29.584292,"longitude":111.380014}},
{"ratingStars":439,"name":"Parker-Rau","streetAddress":"4 Lake View Hill","postalCode":null,"cityLocalized":"Indonesia","geolocation":{"latitude":-6.9975825,"longitude":108.07765}},
{"ratingStars":440,"name":"Corwin LLC","streetAddress":"21 Farmco Alley","postalCode":null,"cityLocalized":"China","geolocation":{"latitude":27.318852,"longitude":115.444319}},
{"ratingStars":441,"name":"Ratke-Littel","streetAddress":"7 Eastlawn Way","postalCode":null,"cityLocalized":"Albania","geolocation":{"latitude":40.605681,"longitude":20.9193691}},
{"ratingStars":442,"name":"Pfeffer, Kautzer and Stoltenberg","streetAddress":"21415 Arapahoe Street","postalCode":null,"cityLocalized":"Nigeria","geolocation":{"latitude":9.3278585,"longitude":9.4311572}},
{"ratingStars":443,"name":"Mayert, Reynolds and Jacobson","streetAddress":"2 Hayes Junction","postalCode":null,"cityLocalized":"Indonesia","geolocation":{"latitude":-1.8053216,"longitude":138.4687311}},
{"ratingStars":444,"name":"Reichert, Bergnaum and Wolff","streetAddress":"910 Westerfield Way","postalCode":"2425-724","cityLocalized":"Portugal","geolocation":{"latitude":39.819732,"longitude":-8.8093934}},
{"ratingStars":445,"name":"Bergstrom-Mitchell","streetAddress":"08 Hallows Park","postalCode":"3001","cityLocalized":"Argentina","geolocation":{"latitude":-31.6146073,"longitude":-60.7152064}},
{"ratingStars":446,"name":"Stiedemann Group","streetAddress":"02 Lindbergh Place","postalCode":null,"cityLocalized":"Indonesia","geolocation":{"latitude":-2.2161048,"longitude":113.913977}},
{"ratingStars":447,"name":"Stracke Inc","streetAddress":"12 Morrow Drive","postalCode":"94946 CEDEX 9","cityLocalized":"France","geolocation":{"latitude":48.7803815,"longitude":2.4549884}},
{"ratingStars":448,"name":"Feil-Cremin","streetAddress":"34 Rusk Circle","postalCode":null,"cityLocalized":"Ukraine","geolocation":{"latitude":48.1509479,"longitude":25.379971}},
{"ratingStars":449,"name":"Gerhold, Goldner and Ortiz","streetAddress":"0 Hollow Ridge Circle","postalCode":"33110","cityLocalized":"Thailand","geolocation":{"latitude":14.6066438,"longitude":104.705431}},
{"ratingStars":450,"name":"Wiza, Skiles and Lynch","streetAddress":"7 Loeprich Terrace","postalCode":null,"cityLocalized":"China","geolocation":{"latitude":32.871671,"longitude":117.56024}},
{"ratingStars":451,"name":"Rutherford-Gislason","streetAddress":"0 Pierstorff Park","postalCode":null,"cityLocalized":"Indonesia","geolocation":{"latitude":-0.031303,"longitude":110.120499}},
{"ratingStars":452,"name":"Cummings-Kuhlman","streetAddress":"94 Lawn Circle","postalCode":"33710","cityLocalized":"United States","geolocation":{"latitude":27.791959,"longitude":-82.723924}},
{"ratingStars":453,"name":"Wilkinson, Ryan and Heidenreich","streetAddress":"79 Moland Junction","postalCode":null,"cityLocalized":"Indonesia","geolocation":{"latitude":-8.6447759,"longitude":116.3751225}},
{"ratingStars":454,"name":"Kunde, Gleichner and Feeney","streetAddress":"434 Hayes Terrace","postalCode":null,"cityLocalized":"Indonesia","geolocation":{"latitude":-7.7798092,"longitude":110.3562018}},
{"ratingStars":455,"name":"Pfannerstill Group","streetAddress":"4 Meadow Valley Road","postalCode":null,"cityLocalized":"Indonesia","geolocation":{"latitude":-6.308986,"longitude":106.8766009}},
{"ratingStars":456,"name":"Christiansen LLC","streetAddress":"69545 Dexter Plaza","postalCode":null,"cityLocalized":"Indonesia","geolocation":{"latitude":-6.406039,"longitude":106.899566}},
{"ratingStars":457,"name":"Thiel-Ernser","streetAddress":"32 Blue Bill Park Hill","postalCode":"45254","cityLocalized":"United States","geolocation":{"latitude":39.0745039,"longitude":-84.33211}},
{"ratingStars":458,"name":"Eichmann Inc","streetAddress":"46 Rieder Center","postalCode":null,"cityLocalized":"Greece","geolocation":{"latitude":37.9253691,"longitude":23.7006539}},
{"ratingStars":459,"name":"Goodwin Inc","streetAddress":"4831 Union Junction","postalCode":"641 47","cityLocalized":"Sweden","geolocation":{"latitude":59.0110968,"longitude":16.2239747}},
{"ratingStars":460,"name":"Nicolas-Lemke","streetAddress":"3 Chinook Way","postalCode":"3020-895","cityLocalized":"Portugal","geolocation":{"latitude":40.288561,"longitude":-8.4435315}},
{"ratingStars":461,"name":"Blick and Sons","streetAddress":"9982 Hollow Ridge Park","postalCode":null,"cityLocalized":"Madagascar","geolocation":{"latitude":-24.333333,"longitude":45.95}},
{"ratingStars":462,"name":"Schmidt and Sons","streetAddress":"49 Manitowish Pass","postalCode":null,"cityLocalized":"China","geolocation":{"latitude":31.361491,"longitude":119.150254}},
{"ratingStars":463,"name":"Shanahan and Sons","streetAddress":"54174 Moland Place","postalCode":"4610-572","cityLocalized":"Portugal","geolocation":{"latitude":40.356194,"longitude":-8.0224709}},
{"ratingStars":464,"name":"Morissette, Aufderhar and Armstrong","streetAddress":"860 Gale Place","postalCode":null,"cityLocalized":"China","geolocation":{"latitude":29.686366,"longitude":89.208761}},
{"ratingStars":465,"name":"Sporer, Kunze and Jaskolski","streetAddress":"28 Westend Lane","postalCode":null,"cityLocalized":"Indonesia","geolocation":{"latitude":-6.9757055,"longitude":111.8270486}},
{"ratingStars":466,"name":"Flatley Group","streetAddress":"10092 Melvin Lane","postalCode":null,"cityLocalized":"China","geolocation":{"latitude":31.3400146,"longitude":118.9478423}},
{"ratingStars":467,"name":"Gorczany-Collins","streetAddress":"2076 Menomonie Park","postalCode":"747 14","cityLocalized":"Czech Republic","geolocation":{"latitude":49.89042,"longitude":18.2400902}},
{"ratingStars":468,"name":"Stamm, Gorczany and Reichert","streetAddress":"990 Canary Junction","postalCode":"3605","cityLocalized":"Philippines","geolocation":{"latitude":14.722622,"longitude":121.0427995}},
{"ratingStars":469,"name":"Hane-D'Amore","streetAddress":"5379 Golf View Point","postalCode":null,"cityLocalized":"Zimbabwe","geolocation":{"latitude":-20.9398233,"longitude":29.0110762}},
{"ratingStars":470,"name":"Stroman, Hagenes and Keeling","streetAddress":"79 Delladonna Street","postalCode":null,"cityLocalized":"China","geolocation":{"latitude":27.578926,"longitude":110.040315}},
{"ratingStars":471,"name":"Hodkiewicz-Hickle","streetAddress":"4 Mendota Circle","postalCode":null,"cityLocalized":"China","geolocation":{"latitude":32.010214,"longitude":119.606439}},
{"ratingStars":472,"name":"Nienow-Gottlieb","streetAddress":"047 Algoma Pass","postalCode":null,"cityLocalized":"Ukraine","geolocation":{"latitude":50.3919,"longitude":30.368267}},
{"ratingStars":473,"name":"McCullough and Sons","streetAddress":"96487 Cherokee Junction","postalCode":null,"cityLocalized":"Indonesia","geolocation":{"latitude":-8.0034823,"longitude":112.7420274}},
{"ratingStars":474,"name":"Raynor, Zulauf and Corwin","streetAddress":"9788 Fordem Plaza","postalCode":"37500-000","cityLocalized":"Brazil","geolocation":{"latitude":-22.4231821,"longitude":-45.4535162}},
{"ratingStars":475,"name":"Wolff-Stracke","streetAddress":"74 Maple Wood Parkway","postalCode":"453663","cityLocalized":"Russia","geolocation":{"latitude":52.9850842,"longitude":58.1242712}},
{"ratingStars":476,"name":"Oberbrunner-Hudson","streetAddress":"04968 Elka Center","postalCode":null,"cityLocalized":"China","geolocation":{"latitude":27.692542,"longitude":111.664316}},
{"ratingStars":477,"name":"Collins-Collins","streetAddress":"77349 Surrey Drive","postalCode":null,"cityLocalized":"China","geolocation":{"latitude":22.830192,"longitude":112.074588}},
{"ratingStars":478,"name":"Doyle-Legros","streetAddress":"84494 Maple Wood Place","postalCode":null,"cityLocalized":"China","geolocation":{"latitude":24.808198,"longitude":118.03177}},
{"ratingStars":479,"name":"Brakus Group","streetAddress":"6772 David Trail","postalCode":null,"cityLocalized":"China","geolocation":{"latitude":22.691253,"longitude":114.346251}},
{"ratingStars":480,"name":"Spencer and Sons","streetAddress":"8053 Kropf Crossing","postalCode":null,"cityLocalized":"Indonesia","geolocation":{"latitude":-3.544289,"longitude":104.4683}},
{"ratingStars":481,"name":"Konopelski-Ziemann","streetAddress":"0 Kings Place","postalCode":null,"cityLocalized":"Mauritania","geolocation":{"latitude":16.6053508,"longitude":-15.348246}},
{"ratingStars":482,"name":"Kirlin-Emmerich","streetAddress":"8897 North Alley","postalCode":null,"cityLocalized":"Nepal","geolocation":{"latitude":26.6523865,"longitude":85.7974141}},
{"ratingStars":483,"name":"Torphy LLC","streetAddress":"10600 Sunbrook Pass","postalCode":null,"cityLocalized":"China","geolocation":{"latitude":48.170403,"longitude":126.2118229}},
{"ratingStars":484,"name":"Heaney-Schmitt","streetAddress":"43 Forest Dale Way","postalCode":"1218","cityLocalized":"Slovenia","geolocation":{"latitude":46.2052815,"longitude":14.5391653}},
{"ratingStars":485,"name":"O'Hara-Moen","streetAddress":"6176 Cody Drive","postalCode":null,"cityLocalized":"Latvia","geolocation":{"latitude":56.886652,"longitude":21.1951809}},
{"ratingStars":486,"name":"Watsica, Beatty and Hudson","streetAddress":"9 Village Green Road","postalCode":null,"cityLocalized":"Mongolia","geolocation":{"latitude":46.9063815,"longitude":102.7636515}},
{"ratingStars":487,"name":"Zboncak, Kiehn and Vandervort","streetAddress":"4527 Towne Terrace","postalCode":null,"cityLocalized":"Samoa","geolocation":{"latitude":-13.876472,"longitude":-171.6425505}},
{"ratingStars":488,"name":"Considine and Sons","streetAddress":"980 Milwaukee Way","postalCode":null,"cityLocalized":"Mongolia","geolocation":{"latitude":46.2837247,"longitude":100.4518004}},
{"ratingStars":489,"name":"Boehm-Mann","streetAddress":"616 Florence Way","postalCode":"57000","cityLocalized":"Thailand","geolocation":{"latitude":19.9104798,"longitude":99.840576}},
{"ratingStars":490,"name":"Botsford, Veum and Rosenbaum","streetAddress":"5 Bonner Point","postalCode":"9560-205","cityLocalized":"Portugal","geolocation":{"latitude":37.7213799,"longitude":-25.510372}},
{"ratingStars":491,"name":"Adams-Waelchi","streetAddress":"1285 Dryden Point","postalCode":null,"cityLocalized":"China","geolocation":{"latitude":31.23285,"longitude":121.467218}},
{"ratingStars":492,"name":"Daugherty Group","streetAddress":"5318 Bultman Circle","postalCode":"699-1105","cityLocalized":"Japan","geolocation":{"latitude":35.3434929,"longitude":132.9039749}},
{"ratingStars":493,"name":"Franecki Inc","streetAddress":"0 Texas Plaza","postalCode":null,"cityLocalized":"Indonesia","geolocation":{"latitude":-8.4044008,"longitude":116.5491893}},
{"ratingStars":494,"name":"Von, Prohaska and Hintz","streetAddress":"29772 Kropf Crossing","postalCode":"04070","cityLocalized":"Spain","geolocation":{"latitude":37.4852899,"longitude":-2.2959788}},
{"ratingStars":495,"name":"Kulas and Sons","streetAddress":"065 Huxley Junction","postalCode":null,"cityLocalized":"Indonesia","geolocation":{"latitude":-10.1585855,"longitude":123.5818992}},
{"ratingStars":496,"name":"Pagac, Hoppe and Weber","streetAddress":"15 Gulseth Plaza","postalCode":null,"cityLocalized":"El Salvador","geolocation":{"latitude":13.6929403,"longitude":-89.2181911}},
{"ratingStars":497,"name":"Schinner Group","streetAddress":"9 7th Point","postalCode":null,"cityLocalized":"Cameroon","geolocation":{"latitude":5.4852096,"longitude":9.8627243}},
{"ratingStars":498,"name":"Haley, Batz and Shields","streetAddress":"35 Miller Trail","postalCode":null,"cityLocalized":"Indonesia","geolocation":{"latitude":-8.2545915,"longitude":123.7154467}},
{"ratingStars":499,"name":"Considine-Mertz","streetAddress":"90 Birchwood Lane","postalCode":null,"cityLocalized":"Greece","geolocation":{"latitude":38.0740965,"longitude":20.7968395}},
{"ratingStars":500,"name":"Gibson Group","streetAddress":"29 Briar Crest Court","postalCode":"28600-000","cityLocalized":"Brazil","geolocation":{"latitude":-22.2887261,"longitude":-42.5340796}},
{"ratingStars":501,"name":"Langworth-Fisher","streetAddress":"6208 Fair Oaks Trail","postalCode":null,"cityLocalized":"China","geolocation":{"latitude":4.6690872,"longitude":-74.1386906}},
{"ratingStars":502,"name":"Kshlerin, Schuster and Lakin","streetAddress":"0304 Northport Terrace","postalCode":null,"cityLocalized":"Albania","geolocation":{"latitude":40.605681,"longitude":20.9193691}},
{"ratingStars":503,"name":"Kuhn-Wolf","streetAddress":"2856 Arizona Point","postalCode":null,"cityLocalized":"Mongolia","geolocation":{"latitude":47.918302,"longitude":106.915572}},
{"ratingStars":504,"name":"Buckridge and Sons","streetAddress":"4974 Fremont Parkway","postalCode":null,"cityLocalized":"Gabon","geolocation":{"latitude":0.9931336,"longitude":9.5770844}},
{"ratingStars":505,"name":"Kovacek, Langosh and Spinka","streetAddress":"95 Hazelcrest Crossing","postalCode":"86220","cityLocalized":"Thailand","geolocation":{"latitude":6.426373,"longitude":101.277052}},
{"ratingStars":506,"name":"Nitzsche-Cassin","streetAddress":"929 Mayer Hill","postalCode":"922 81","cityLocalized":"Sweden","geolocation":{"latitude":64.3018789,"longitude":19.6203523}},
{"ratingStars":507,"name":"Bins LLC","streetAddress":"83802 Cottonwood Circle","postalCode":null,"cityLocalized":"Indonesia","geolocation":{"latitude":-5.507078,"longitude":122.596901}},
{"ratingStars":508,"name":"Breitenberg LLC","streetAddress":"8886 Raven Plaza","postalCode":null,"cityLocalized":"Indonesia","geolocation":{"latitude":-6.7160998,"longitude":111.4886997}},
{"ratingStars":509,"name":"Moore and Sons","streetAddress":"875 Westerfield Center","postalCode":"43800","cityLocalized":"Finland","geolocation":{"latitude":63.1199384,"longitude":25.0747115}},
{"ratingStars":510,"name":"Dietrich LLC","streetAddress":"9 Lawn Drive","postalCode":null,"cityLocalized":"Vietnam","geolocation":{"latitude":9.8252566,"longitude":105.8172881}},
{"ratingStars":511,"name":"Barton, Johnson and Schiller","streetAddress":"2275 Northwestern Pass","postalCode":null,"cityLocalized":"Ukraine","geolocation":{"latitude":49.4931107,"longitude":36.8206064}},
{"ratingStars":512,"name":"Stracke, Kunde and Mraz","streetAddress":"10 Alpine Crossing","postalCode":null,"cityLocalized":"China","geolocation":{"latitude":32.6350368,"longitude":115.5777522}},
{"ratingStars":513,"name":"Kuphal, Jaskolski and Batz","streetAddress":"106 Vernon Avenue","postalCode":"679130","cityLocalized":"Russia","geolocation":{"latitude":49.0026196,"longitude":132.4671327}},
{"ratingStars":514,"name":"Steuber, Braun and Dibbert","streetAddress":"4 8th Hill","postalCode":"55718","cityLocalized":"Mexico","geolocation":{"latitude":19.638192,"longitude":-99.079824}},
{"ratingStars":515,"name":"Reichert, Kovacek and Hermiston","streetAddress":"63445 Kedzie Hill","postalCode":null,"cityLocalized":"Honduras","geolocation":{"latitude":14.1234415,"longitude":-86.8697068}},
{"ratingStars":516,"name":"Hegmann, MacGyver and Gutkowski","streetAddress":"695 Farmco Alley","postalCode":null,"cityLocalized":"China","geolocation":{"latitude":27.027081,"longitude":117.694969}},
{"ratingStars":517,"name":"Zemlak Group","streetAddress":"02 Mifflin Trail","postalCode":null,"cityLocalized":"Morocco","geolocation":{"latitude":28.0942907,"longitude":-12.050407}},
{"ratingStars":518,"name":"Jaskolski LLC","streetAddress":"60 Sherman Lane","postalCode":"4520-525","cityLocalized":"Portugal","geolocation":{"latitude":40.927135,"longitude":-8.5178319}},
{"ratingStars":519,"name":"Wisoky-Ruecker","streetAddress":"4 High Crossing Trail","postalCode":"7006","cityLocalized":"Philippines","geolocation":{"latitude":7.7381338,"longitude":122.8349537}},
{"ratingStars":520,"name":"Cummings-Thiel","streetAddress":"32 Lien Park","postalCode":"36-100","cityLocalized":"Poland","geolocation":{"latitude":50.24417,"longitude":21.77627}},
{"ratingStars":521,"name":"Harris Group","streetAddress":"13843 Laurel Trail","postalCode":"4705-722","cityLocalized":"Portugal","geolocation":{"latitude":41.5027813,"longitude":-8.4423541}},
{"ratingStars":522,"name":"Dietrich-Balistreri","streetAddress":"8779 Kinsman Trail","postalCode":null,"cityLocalized":"Kyrgyzstan","geolocation":{"latitude":42.8201977,"longitude":74.1122506}},
{"ratingStars":523,"name":"Connelly and Sons","streetAddress":"76 Norway Maple Terrace","postalCode":"29950","cityLocalized":"Mexico","geolocation":{"latitude":25.9375976,"longitude":-100.3638252}},
{"ratingStars":524,"name":"Keeling, Mitchell and Paucek","streetAddress":"0 Fisk Lane","postalCode":"60160","cityLocalized":"Thailand","geolocation":{"latitude":15.670299,"longitude":100.4846227}},
{"ratingStars":525,"name":"Bogisich-McGlynn","streetAddress":"998 Fulton Road","postalCode":"1101","cityLocalized":"Philippines","geolocation":{"latitude":6.382615,"longitude":124.789568}},
{"ratingStars":526,"name":"Schuppe-Stracke","streetAddress":"38 Shopko Street","postalCode":null,"cityLocalized":"Democratic Republic of the Congo","geolocation":{"latitude":2.7388719,"longitude":23.7811324}},
{"ratingStars":527,"name":"Lebsack, Lang and Hirthe","streetAddress":"40 Havey Drive","postalCode":"663716","cityLocalized":"Russia","geolocation":{"latitude":50.6000912,"longitude":94.9998807}},
{"ratingStars":528,"name":"Greenfelder Group","streetAddress":"299 Banding Drive","postalCode":"2835-496","cityLocalized":"Portugal","geolocation":{"latitude":38.6271104,"longitude":-9.0346456}},
{"ratingStars":529,"name":"Kuhlman, Shanahan and Conroy","streetAddress":"96292 New Castle Avenue","postalCode":null,"cityLocalized":"China","geolocation":{"latitude":34.56128,"longitude":105.58335}},
{"ratingStars":530,"name":"Hegmann, Parisian and Wolf","streetAddress":"1222 Moulton Alley","postalCode":null,"cityLocalized":"Indonesia","geolocation":{"latitude":-7.61469,"longitude":110.63554}},
{"ratingStars":531,"name":"Considine-Kassulke","streetAddress":"557 Brickson Park Alley","postalCode":"44900-000","cityLocalized":"Brazil","geolocation":{"latitude":-11.303555,"longitude":-41.8561503}},
{"ratingStars":532,"name":"Frami LLC","streetAddress":"2 Dwight Street","postalCode":"382 76","cityLocalized":"Czech Republic","geolocation":{"latitude":48.6138851,"longitude":14.2281446}},
{"ratingStars":533,"name":"Ruecker LLC","streetAddress":"3 Hauk Drive","postalCode":null,"cityLocalized":"China","geolocation":{"latitude":"35.20048","longitude":"101.78524"}},
{"ratingStars":534,"name":"Kertzmann-Erdman","streetAddress":"4451 Delladonna Place","postalCode":"3370","cityLocalized":"Argentina","geolocation":{"latitude":-25.6112339,"longitude":-54.5515662}},
{"ratingStars":535,"name":"Grimes-Jacobson","streetAddress":"7223 Fieldstone Park","postalCode":null,"cityLocalized":"Cuba","geolocation":{"latitude":21.6495224,"longitude":-79.2451149}},
{"ratingStars":536,"name":"Kulas-Rogahn","streetAddress":"7039 Manitowish Court","postalCode":"57230-000","cityLocalized":"Brazil","geolocation":{"latitude":-10.0519585,"longitude":-36.2196853}},
{"ratingStars":537,"name":"Moen-Hartmann","streetAddress":"39 Hayes Parkway","postalCode":"182 57","cityLocalized":"Sweden","geolocation":{"latitude":59.3927955,"longitude":18.0310718}},
{"ratingStars":538,"name":"Herzog Inc","streetAddress":"247 Emmet Avenue","postalCode":"61635","cityLocalized":"United States","geolocation":{"latitude":40.7,"longitude":-89.52}},
{"ratingStars":539,"name":"Breitenberg Inc","streetAddress":"1 Maryland Crossing","postalCode":null,"cityLocalized":"Bolivia","geolocation":{"latitude":-17.2333329,"longitude":-62.816667}},
{"ratingStars":540,"name":"Bode, Goyette and Nader","streetAddress":"6421 Wayridge Avenue","postalCode":"63-830","cityLocalized":"Poland","geolocation":{"latitude":51.7597721,"longitude":17.1196937}},
{"ratingStars":541,"name":"Marquardt Group","streetAddress":"1671 Moland Road","postalCode":null,"cityLocalized":"Armenia","geolocation":{"latitude":40.2544003,"longitude":44.6027766}},
{"ratingStars":542,"name":"Macejkovic-Homenick","streetAddress":"675 Michigan Park","postalCode":null,"cityLocalized":"Nigeria","geolocation":{"latitude":6.3049636,"longitude":7.5626411}},
{"ratingStars":543,"name":"Luettgen, Kling and Ziemann","streetAddress":"102 Reinke Way","postalCode":null,"cityLocalized":"China","geolocation":{"latitude":"29.33801","longitude":"89.24618"}},
{"ratingStars":544,"name":"Koelpin-Wisoky","streetAddress":"9 Debra Junction","postalCode":"29920","cityLocalized":"Mexico","geolocation":{"latitude":15.4575357,"longitude":-92.281427}},
{"ratingStars":545,"name":"Torp Inc","streetAddress":"75082 Daystar Drive","postalCode":null,"cityLocalized":"China","geolocation":{"latitude":42.3223159,"longitude":128.1256078}},
{"ratingStars":546,"name":"Zboncak, Luettgen and Carroll","streetAddress":"1667 Prairieview Road","postalCode":null,"cityLocalized":"Indonesia","geolocation":{"latitude":4.5475154,"longitude":97.1574784}},
{"ratingStars":547,"name":"Fahey-Lockman","streetAddress":"7 Kim Trail","postalCode":"9050","cityLocalized":"Argentina","geolocation":{"latitude":-34.5685748,"longitude":-58.870055}},
{"ratingStars":548,"name":"Bayer, Nienow and Wilkinson","streetAddress":"070 Mcbride Point","postalCode":"31709 CEDEX","cityLocalized":"France","geolocation":{"latitude":45.2384571,"longitude":-0.8106708}},
{"ratingStars":549,"name":"Borer, Mosciski and Sauer","streetAddress":"48 Pierstorff Center","postalCode":"6254","cityLocalized":"Macedonia","geolocation":{"latitude":"41.58806","longitude":"21.03111"}},
{"ratingStars":550,"name":"Lakin LLC","streetAddress":"1118 Novick Alley","postalCode":"4650-454","cityLocalized":"Portugal","geolocation":{"latitude":41.3507611,"longitude":-8.2517567}},
{"ratingStars":551,"name":"Fritsch-Runte","streetAddress":"81037 Shelley Place","postalCode":null,"cityLocalized":"Ivory Coast","geolocation":{"latitude":6.8276228,"longitude":-5.2893433}},
{"ratingStars":552,"name":"Gutmann and Sons","streetAddress":"29 Magdeline Court","postalCode":null,"cityLocalized":"Indonesia","geolocation":{"latitude":-6.8016236,"longitude":108.6235004}},
{"ratingStars":553,"name":"Volkman-Pagac","streetAddress":"664 Almo Trail","postalCode":null,"cityLocalized":"China","geolocation":{"latitude":29.689847,"longitude":121.28259}},
{"ratingStars":554,"name":"Jerde Inc","streetAddress":"16644 Dryden Road","postalCode":"60435","cityLocalized":"Germany","geolocation":{"latitude":50.1616215,"longitude":8.7032376}},
{"ratingStars":555,"name":"MacGyver Group","streetAddress":"14 International Road","postalCode":"00174","cityLocalized":"Italy","geolocation":{"latitude":41.8535089,"longitude":12.5556193}},
{"ratingStars":556,"name":"Sawayn, Bartoletti and Schowalter","streetAddress":"70801 Rieder Park","postalCode":null,"cityLocalized":"Bosnia and Herzegovina","geolocation":{"latitude":44.7381571,"longitude":17.8240149}},
{"ratingStars":557,"name":"Goldner, Lemke and Johns","streetAddress":"1812 Forest Road","postalCode":null,"cityLocalized":"China","geolocation":{"latitude":35.580662,"longitude":104.626282}},
{"ratingStars":558,"name":"Dickens, Schmitt and Friesen","streetAddress":"080 4th Court","postalCode":"05-827","cityLocalized":"Poland","geolocation":{"latitude":52.1087493,"longitude":20.6266832}},
{"ratingStars":559,"name":"Kertzmann, Wintheiser and Beahan","streetAddress":"0 Morning Lane","postalCode":null,"cityLocalized":"China","geolocation":{"latitude":33.2991249,"longitude":117.2408191}},
{"ratingStars":560,"name":"Jakubowski, Crooks and Langosh","streetAddress":"4527 Nova Junction","postalCode":null,"cityLocalized":"Indonesia","geolocation":{"latitude":-8.2593984,"longitude":112.0714835}},
{"ratingStars":561,"name":"Kshlerin-Heaney","streetAddress":"7915 Comanche Road","postalCode":"96570-000","cityLocalized":"Brazil","geolocation":{"latitude":-30.5148445,"longitude":-53.4832383}},
{"ratingStars":562,"name":"Cole-Erdman","streetAddress":"769 Tony Lane","postalCode":"273 71","cityLocalized":"Czech Republic","geolocation":{"latitude":50.287503,"longitude":14.0921466}},
{"ratingStars":563,"name":"Considine-Kuvalis","streetAddress":"52 Union Park","postalCode":"613641","cityLocalized":"Russia","geolocation":{"latitude":58.740909,"longitude":49.4604521}},
{"ratingStars":564,"name":"Dietrich-Williamson","streetAddress":"2 Doe Crossing Terrace","postalCode":null,"cityLocalized":"China","geolocation":{"latitude":39.9048438,"longitude":117.2490532}},
{"ratingStars":565,"name":"Kreiger Group","streetAddress":"21 Bluejay Court","postalCode":null,"cityLocalized":"Indonesia","geolocation":{"latitude":-7.1282614,"longitude":108.6591293}},
{"ratingStars":566,"name":"Abbott-Emmerich","streetAddress":"936 Fallview Plaza","postalCode":null,"cityLocalized":"Serbia","geolocation":{"latitude":44.7019676,"longitude":19.3777049}},
{"ratingStars":567,"name":"Aufderhar, Streich and Lueilwitz","streetAddress":"5 Pearson Lane","postalCode":null,"cityLocalized":"China","geolocation":{"latitude":26.855047,"longitude":100.22775}},
{"ratingStars":568,"name":"Schowalter and Sons","streetAddress":"1120 Melvin Point","postalCode":"4342","cityLocalized":"Philippines","geolocation":{"latitude":14.697103,"longitude":122.365336}},
{"ratingStars":569,"name":"Kiehn Inc","streetAddress":"5729 Hoepker Avenue","postalCode":null,"cityLocalized":"Armenia","geolocation":{"latitude":40.8318278,"longitude":44.2797884}},
{"ratingStars":570,"name":"Harris and Sons","streetAddress":"44 Independence Court","postalCode":null,"cityLocalized":"Ukraine","geolocation":{"latitude":49.4923255,"longitude":39.617514}},
{"ratingStars":571,"name":"Heidenreich and Sons","streetAddress":"5 Westend Avenue","postalCode":null,"cityLocalized":"China","geolocation":{"latitude":40.316139,"longitude":115.545296}},
{"ratingStars":572,"name":"Schuppe and Sons","streetAddress":"8 Forest Run Alley","postalCode":null,"cityLocalized":"Greece","geolocation":{"latitude":38.8162965,"longitude":24.5955356}},
{"ratingStars":573,"name":"Murray-Bernhard","streetAddress":"448 Coolidge Lane","postalCode":"177089","cityLocalized":"Colombia","geolocation":{"latitude":5.242598,"longitude":-75.781831}},
{"ratingStars":574,"name":"Glover, Rohan and Dibbert","streetAddress":"15678 Manitowish Junction","postalCode":"39-460","cityLocalized":"Poland","geolocation":{"latitude":50.42959,"longitude":21.75077}},
{"ratingStars":575,"name":"Hilll Group","streetAddress":"5958 Pleasure Street","postalCode":"10307","cityLocalized":"Costa Rica","geolocation":{"latitude":9.8759581,"longitude":-84.0375168}},
{"ratingStars":576,"name":"Brown, Sporer and Moore","streetAddress":"330 Express Avenue","postalCode":"30328","cityLocalized":"United States","geolocation":{"latitude":33.9253024,"longitude":-84.3857442}},
{"ratingStars":577,"name":"Kunde Group","streetAddress":"417 Hermina Trail","postalCode":"403964","cityLocalized":"Russia","geolocation":{"latitude":50.52546,"longitude":42.6645851}},
{"ratingStars":578,"name":"Runolfsson-Shanahan","streetAddress":"47042 Norway Maple Plaza","postalCode":null,"cityLocalized":"China","geolocation":{"latitude":31.238854,"longitude":121.331694}},
{"ratingStars":579,"name":"Hoppe, Rippin and Swift","streetAddress":"99495 Vera Place","postalCode":"392558","cityLocalized":"Russia","geolocation":{"latitude":52.7680084,"longitude":41.2841466}},
{"ratingStars":580,"name":"Tremblay-Nikolaus","streetAddress":"84224 Northport Junction","postalCode":"86-260","cityLocalized":"Poland","geolocation":{"latitude":53.2122406,"longitude":18.3961325}},
{"ratingStars":581,"name":"Balistreri Group","streetAddress":"40 Oxford Street","postalCode":null,"cityLocalized":"Afghanistan","geolocation":{"latitude":"34.34099","longitude":"69.4377"}},
{"ratingStars":582,"name":"Kulas, Hirthe and D'Amore","streetAddress":"939 Judy Crossing","postalCode":null,"cityLocalized":"South Korea","geolocation":{"latitude":34.6816856,"longitude":126.9069278}},
{"ratingStars":583,"name":"Rogahn, Carter and Jerde","streetAddress":"669 Donald Circle","postalCode":"87505","cityLocalized":"United States","geolocation":{"latitude":35.6869752,"longitude":-105.937799}},
{"ratingStars":584,"name":"Waelchi, Botsford and Reichert","streetAddress":"936 Monica Circle","postalCode":"4846","cityLocalized":"Norway","geolocation":{"latitude":58.4816956,"longitude":8.7569654}},
{"ratingStars":585,"name":"Daugherty Inc","streetAddress":"0 Center Lane","postalCode":null,"cityLocalized":"China","geolocation":{"latitude":38.004153,"longitude":114.461066}},
{"ratingStars":586,"name":"Lubowitz Inc","streetAddress":"50 Monterey Court","postalCode":"73216 CEDEX","cityLocalized":"France","geolocation":{"latitude":47.1036608,"longitude":0.3010983}},
{"ratingStars":587,"name":"Ondricka-Altenwerth","streetAddress":"284 Hoard Road","postalCode":"6431","cityLocalized":"Bangladesh","geolocation":{"latitude":22.8275824,"longitude":90.5247893}},
{"ratingStars":588,"name":"Hahn Group","streetAddress":"06 Knutson Alley","postalCode":"43-476","cityLocalized":"Poland","geolocation":{"latitude":49.5395711,"longitude":18.8708641}},
{"ratingStars":589,"name":"Halvorson-Schroeder","streetAddress":"70308 Grover Center","postalCode":"442895","cityLocalized":"Russia","geolocation":{"latitude":52.4594585,"longitude":44.1998095}},
{"ratingStars":590,"name":"Gislason-Paucek","streetAddress":"77596 Miller Crossing","postalCode":null,"cityLocalized":"China","geolocation":{"latitude":24.4908935,"longitude":118.1202121}},
{"ratingStars":591,"name":"Moen-Hilll","streetAddress":"3 Northport Alley","postalCode":"673550","cityLocalized":"Russia","geolocation":{"latitude":55.9576019,"longitude":36.2249059}},
{"ratingStars":592,"name":"Hilpert, Larson and Pouros","streetAddress":"22815 Cardinal Plaza","postalCode":null,"cityLocalized":"China","geolocation":{"latitude":22.719816,"longitude":113.829156}},
{"ratingStars":593,"name":"Gusikowski, Hirthe and Dibbert","streetAddress":"29108 Lunder Park","postalCode":null,"cityLocalized":"China","geolocation":{"latitude":35.656128,"longitude":112.117922}},
{"ratingStars":594,"name":"Macejkovic LLC","streetAddress":"8783 Dottie Park","postalCode":null,"cityLocalized":"Honduras","geolocation":{"latitude":15.2708337,"longitude":-87.8672509}},
{"ratingStars":595,"name":"Koss, Kertzmann and Watsica","streetAddress":"279 Oakridge Street","postalCode":"39804 CEDEX","cityLocalized":"France","geolocation":{"latitude":48.0395425,"longitude":-0.705495}},
{"ratingStars":596,"name":"Dicki-Goyette","streetAddress":"660 Stang Lane","postalCode":null,"cityLocalized":"Jamaica","geolocation":{"latitude":18.0736829,"longitude":-76.7942403}},
{"ratingStars":597,"name":"Shields Group","streetAddress":"99016 Bartelt Point","postalCode":null,"cityLocalized":"Greece","geolocation":{"latitude":39.0390133,"longitude":26.4565448}},
{"ratingStars":598,"name":"Smith-Considine","streetAddress":"19 Eagan Hill","postalCode":"4106","cityLocalized":"Philippines","geolocation":{"latitude":10.7160345,"longitude":124.011269}},
{"ratingStars":599,"name":"Cruickshank Group","streetAddress":"0 Cherokee Center","postalCode":"501-0531","cityLocalized":"Japan","geolocation":{"latitude":35.4420431,"longitude":136.6271698}},
{"ratingStars":600,"name":"Wiza-Roberts","streetAddress":"6813 Butterfield Plaza","postalCode":null,"cityLocalized":"Turkmenistan","geolocation":{"latitude":41.1768699,"longitude":61.402695}},
{"ratingStars":601,"name":"Weimann, Robel and Bartell","streetAddress":"5 Texas Plaza","postalCode":null,"cityLocalized":"China","geolocation":{"latitude":35.950284,"longitude":101.968352}},
{"ratingStars":602,"name":"Pollich-Jacobs","streetAddress":"48365 Independence Crossing","postalCode":null,"cityLocalized":"China","geolocation":{"latitude":27.718295,"longitude":119.394148}},
{"ratingStars":603,"name":"Roob, Kohler and Pfannerstill","streetAddress":"5 Dapin Crossing","postalCode":null,"cityLocalized":"Indonesia","geolocation":{"latitude":-6.981636,"longitude":108.308502}},
{"ratingStars":604,"name":"Daugherty-McCullough","streetAddress":"9971 Crowley Pass","postalCode":null,"cityLocalized":"Serbia","geolocation":{"latitude":42.9963758,"longitude":21.944034}},
{"ratingStars":605,"name":"McCullough, Wolf and Heller","streetAddress":"53317 Corry Road","postalCode":null,"cityLocalized":"Tunisia","geolocation":{"latitude":35.0809148,"longitude":8.6600586}},
{"ratingStars":606,"name":"Wisoky, Kessler and Durgan","streetAddress":"713 Boyd Plaza","postalCode":null,"cityLocalized":"Indonesia","geolocation":{"latitude":-6.2360264,"longitude":106.3198908}},
{"ratingStars":607,"name":"Kunde, MacGyver and Ondricka","streetAddress":"971 Old Shore Parkway","postalCode":null,"cityLocalized":"China","geolocation":{"latitude":35.289368,"longitude":115.089905}},
{"ratingStars":608,"name":"Friesen-Bauch","streetAddress":"5709 Delladonna Terrace","postalCode":null,"cityLocalized":"China","geolocation":{"latitude":31.7711077,"longitude":119.9742793}},
{"ratingStars":609,"name":"Wyman Group","streetAddress":"710 Fairview Point","postalCode":null,"cityLocalized":"Afghanistan","geolocation":{"latitude":34.352865,"longitude":62.2040287}},
{"ratingStars":610,"name":"Kshlerin, Halvorson and Emard","streetAddress":"025 Sutteridge Court","postalCode":"12280-000","cityLocalized":"Brazil","geolocation":{"latitude":-23.0939881,"longitude":-45.6964547}},
{"ratingStars":611,"name":"Deckow-Ortiz","streetAddress":"9172 Sheridan Plaza","postalCode":null,"cityLocalized":"Libya","geolocation":{"latitude":32.7473047,"longitude":12.5642261}},
{"ratingStars":612,"name":"Terry, Hegmann and Jakubowski","streetAddress":"48315 Elgar Center","postalCode":"2089","cityLocalized":"Bulgaria","geolocation":{"latitude":42.7352907,"longitude":24.2595187}},
{"ratingStars":613,"name":"Considine, Rolfson and Bosco","streetAddress":"09746 Commercial Crossing","postalCode":"801 38","cityLocalized":"Sweden","geolocation":{"latitude":60.6755434,"longitude":17.14035}},
{"ratingStars":614,"name":"Pacocha Group","streetAddress":"1 Lyons Pass","postalCode":"40141","cityLocalized":"Italy","geolocation":{"latitude":44.4645876,"longitude":11.3727437}},
{"ratingStars":615,"name":"Predovic-Hauck","streetAddress":"04 Wayridge Point","postalCode":"624400","cityLocalized":"Russia","geolocation":{"latitude":59.0490896,"longitude":60.5974703}},
{"ratingStars":616,"name":"Konopelski-Carroll","streetAddress":"565 Bartelt Lane","postalCode":null,"cityLocalized":"Iran","geolocation":{"latitude":36.6454207,"longitude":52.9009502}},
{"ratingStars":617,"name":"Marvin, Gulgowski and Pouros","streetAddress":"4619 Buhler Plaza","postalCode":null,"cityLocalized":"Indonesia","geolocation":{"latitude":-7.3354943,"longitude":108.230338}},
{"ratingStars":618,"name":"Johnson Group","streetAddress":"90613 Knutson Crossing","postalCode":"191529","cityLocalized":"Colombia","geolocation":{"latitude":3.251528,"longitude":-76.229027}},
{"ratingStars":619,"name":"Rempel, Hintz and Reynolds","streetAddress":"62 Glacier Hill Circle","postalCode":"144010","cityLocalized":"Russia","geolocation":{"latitude":56.7477877,"longitude":37.1492786}},
{"ratingStars":620,"name":"Cummerata, Kohler and Sawayn","streetAddress":"2 Shoshone Court","postalCode":"T1J","cityLocalized":"Canada","geolocation":{"latitude":"43.9168","longitude":"-80.09967"}},
{"ratingStars":621,"name":"Williamson, Wilderman and Konopelski","streetAddress":"1211 Dawn Plaza","postalCode":"781 81","cityLocalized":"Sweden","geolocation":{"latitude":60.429728,"longitude":15.508083}},
{"ratingStars":622,"name":"Baumbach-Bartell","streetAddress":"96 Londonderry Drive","postalCode":"164896","cityLocalized":"Russia","geolocation":{"latitude":63.917408,"longitude":38.1141079}},
{"ratingStars":623,"name":"Schuster-Metz","streetAddress":"3628 Laurel Road","postalCode":null,"cityLocalized":"China","geolocation":{"latitude":34.158664,"longitude":109.386682}},
{"ratingStars":624,"name":"Nader and Sons","streetAddress":"768 Stuart Point","postalCode":null,"cityLocalized":"Venezuela","geolocation":{"latitude":10.1197024,"longitude":-69.0393069}},
{"ratingStars":625,"name":"Strosin, Hilpert and Walsh","streetAddress":"38 Annamark Court","postalCode":null,"cityLocalized":"China","geolocation":{"latitude":19.789147,"longitude":110.808679}},
{"ratingStars":626,"name":"Konopelski-Macejkovic","streetAddress":"730 Fairfield Parkway","postalCode":"1121","cityLocalized":"Denmark","geolocation":{"latitude":55.6828987,"longitude":12.5786568}},
{"ratingStars":627,"name":"Haley, Bartoletti and McClure","streetAddress":"48 Havey Alley","postalCode":"196625","cityLocalized":"Russia","geolocation":{"latitude":59.7050314,"longitude":30.451101}},
{"ratingStars":628,"name":"Torp, Thiel and Jast","streetAddress":"3 6th Trail","postalCode":null,"cityLocalized":"China","geolocation":{"latitude":28.155801,"longitude":105.444765}},
{"ratingStars":629,"name":"Lakin-Greenfelder","streetAddress":"1438 Packers Plaza","postalCode":null,"cityLocalized":"Paraguay","geolocation":{"latitude":-25.4648258,"longitude":-57.0421483}},
{"ratingStars":630,"name":"Torphy, Thompson and Morar","streetAddress":"60233 Hanover Circle","postalCode":null,"cityLocalized":"Indonesia","geolocation":{"latitude":"-7.0009","longitude":"113.8811"}},
{"ratingStars":631,"name":"Ullrich-Leannon","streetAddress":"13 Dahle Street","postalCode":"3313","cityLocalized":"Philippines","geolocation":{"latitude":6.3000002,"longitude":120.5833359}},
{"ratingStars":632,"name":"Larson-Mosciski","streetAddress":"07331 Nobel Crossing","postalCode":"53263","cityLocalized":"United States","geolocation":{"latitude":43.0751316,"longitude":-88.0379517}},
{"ratingStars":633,"name":"Connelly, Strosin and Davis","streetAddress":"414 Maple Park","postalCode":"4600-730","cityLocalized":"Portugal","geolocation":{"latitude":41.2749848,"longitude":-8.0080212}},
{"ratingStars":634,"name":"Heller Group","streetAddress":"66408 Doe Crossing Junction","postalCode":"14680-000","cityLocalized":"Brazil","geolocation":{"latitude":-21.0277616,"longitude":-47.7772049}},
{"ratingStars":635,"name":"Blanda LLC","streetAddress":"21 Clarendon Court","postalCode":"0309","cityLocalized":"Norway","geolocation":{"latitude":59.9050895,"longitude":10.7673005}},
{"ratingStars":636,"name":"Stamm, O'Connell and Stark","streetAddress":"76295 Parkside Lane","postalCode":null,"cityLocalized":"China","geolocation":{"latitude":29.932442,"longitude":114.36947}},
{"ratingStars":637,"name":"Champlin-Dare","streetAddress":"607 Sachs Pass","postalCode":"4745-358","cityLocalized":"Portugal","geolocation":{"latitude":41.3015266,"longitude":-8.5820391}},
{"ratingStars":638,"name":"Simonis-Kilback","streetAddress":"7902 Carey Parkway","postalCode":null,"cityLocalized":"China","geolocation":{"latitude":31.16899,"longitude":121.424679}},
{"ratingStars":639,"name":"Berge-Hickle","streetAddress":"1 Dayton Parkway","postalCode":"11518","cityLocalized":"Dominican Republic","geolocation":{"latitude":18.9313146,"longitude":-70.4070779}},
{"ratingStars":640,"name":"Emmerich, Dicki and Herman","streetAddress":"8 Bartillon Parkway","postalCode":null,"cityLocalized":"Indonesia","geolocation":{"latitude":-7.1546275,"longitude":108.7660364}},
{"ratingStars":641,"name":"Reilly, Ziemann and Feeney","streetAddress":"2317 Mcbride Circle","postalCode":"9265","cityLocalized":"Slovenia","geolocation":{"latitude":46.6488132,"longitude":16.1355432}},
{"ratingStars":642,"name":"Dickens Group","streetAddress":"536 Merry Center","postalCode":null,"cityLocalized":"China","geolocation":{"latitude":38.235041,"longitude":115.726317}},
{"ratingStars":643,"name":"Pollich-McClure","streetAddress":"5955 Lakewood Gardens Place","postalCode":null,"cityLocalized":"Greece","geolocation":{"latitude":39.068035,"longitude":20.6971047}},
{"ratingStars":644,"name":"Roob-Schiller","streetAddress":"28 Linden Center","postalCode":"60477 CEDEX","cityLocalized":"France","geolocation":{"latitude":49.395599,"longitude":2.789137}},
{"ratingStars":645,"name":"Raynor-Bechtelar","streetAddress":"19 Lerdahl Street","postalCode":"55480","cityLocalized":"United States","geolocation":{"latitude":44.9799999,"longitude":-93.26}},
{"ratingStars":646,"name":"McClure Inc","streetAddress":"3 Rigney Parkway","postalCode":null,"cityLocalized":"Bosnia and Herzegovina","geolocation":{"latitude":44.7416079,"longitude":18.2727658}},
{"ratingStars":647,"name":"O'Connell and Sons","streetAddress":"8 Oxford Road","postalCode":"9400","cityLocalized":"Argentina","geolocation":{"latitude":-34.5941789,"longitude":-58.7294973}},
{"ratingStars":648,"name":"Keebler and Sons","streetAddress":"4 Morningstar Point","postalCode":"4620-472","cityLocalized":"Portugal","geolocation":{"latitude":41.3629391,"longitude":-8.3042536}},
{"ratingStars":649,"name":"Baumbach, Hahn and Haley","streetAddress":"23355 Pennsylvania Point","postalCode":null,"cityLocalized":"China","geolocation":{"latitude":43.525311,"longitude":125.664662}},
{"ratingStars":650,"name":"Kessler and Sons","streetAddress":"39 Ridge Oak Street","postalCode":null,"cityLocalized":"China","geolocation":{"latitude":25.66145,"longitude":114.765412}},
{"ratingStars":651,"name":"Dickens Inc","streetAddress":"5373 Red Cloud Pass","postalCode":"4415-739","cityLocalized":"Portugal","geolocation":{"latitude":41.0550723,"longitude":-8.5177375}},
{"ratingStars":652,"name":"Bogisich LLC","streetAddress":"15 8th Street","postalCode":null,"cityLocalized":"Namibia","geolocation":{"latitude":-26.6420382,"longitude":15.1639082}},
{"ratingStars":653,"name":"Ebert, Weissnat and Torphy","streetAddress":"71 Quincy Lane","postalCode":"463 30","cityLocalized":"Sweden","geolocation":{"latitude":58.1456847,"longitude":12.1337569}},
{"ratingStars":654,"name":"Bailey, Ward and Trantow","streetAddress":"58 Kropf Point","postalCode":"4332","cityLocalized":"Philippines","geolocation":{"latitude":14.4713275,"longitude":120.8889291}},
{"ratingStars":655,"name":"MacGyver-Kling","streetAddress":"3775 Summer Ridge Street","postalCode":"L-8273","cityLocalized":"Luxembourg","geolocation":{"latitude":49.6306384,"longitude":6.0346235}},
{"ratingStars":656,"name":"Dietrich, Krajcik and Schiller","streetAddress":"80574 Petterle Drive","postalCode":"1424","cityLocalized":"Australia","geolocation":{"latitude":-33.8882671,"longitude":151.2078465}},
{"ratingStars":657,"name":"McKenzie LLC","streetAddress":"9910 Shopko Alley","postalCode":null,"cityLocalized":"China","geolocation":{"latitude":39.244385,"longitude":76.499773}},
{"ratingStars":658,"name":"Emard Inc","streetAddress":"5099 Petterle Trail","postalCode":"7681","cityLocalized":"South Africa","geolocation":{"latitude":-33.8880642,"longitude":18.9591376}},
{"ratingStars":659,"name":"Paucek-Towne","streetAddress":"336 Donald Avenue","postalCode":null,"cityLocalized":"Indonesia","geolocation":{"latitude":-7.40772,"longitude":112.5349392}},
{"ratingStars":660,"name":"Kris LLC","streetAddress":"1202 Summer Ridge Drive","postalCode":null,"cityLocalized":"China","geolocation":{"latitude":23.1243988,"longitude":113.2475087}},
{"ratingStars":661,"name":"Sipes LLC","streetAddress":"704 Garrison Parkway","postalCode":null,"cityLocalized":"Ukraine","geolocation":{"latitude":46.7523145,"longitude":33.2473218}},
{"ratingStars":662,"name":"Tillman and Sons","streetAddress":"628 Jana Park","postalCode":"771 31","cityLocalized":"Sweden","geolocation":{"latitude":60.1512028,"longitude":15.1735854}},
{"ratingStars":663,"name":"Schuster, Hilll and Pagac","streetAddress":"81 Ryan Parkway","postalCode":"504-0968","cityLocalized":"Japan","geolocation":{"latitude":34.6330462,"longitude":136.524372}},
{"ratingStars":664,"name":"Wuckert, Nicolas and Haag","streetAddress":"55836 Sage Hill","postalCode":null,"cityLocalized":"Montenegro","geolocation":{"latitude":42.9600774,"longitude":19.5835874}},
{"ratingStars":665,"name":"Casper Group","streetAddress":"1 Manitowish Pass","postalCode":"751 41","cityLocalized":"Sweden","geolocation":{"latitude":59.853262,"longitude":17.6356163}},
{"ratingStars":666,"name":"Rath Inc","streetAddress":"15785 Eastlawn Center","postalCode":null,"cityLocalized":"Indonesia","geolocation":{"latitude":-2.6778303,"longitude":118.887477}},
{"ratingStars":667,"name":"Buckridge LLC","streetAddress":"60 Corry Alley","postalCode":null,"cityLocalized":"Indonesia","geolocation":{"latitude":-6.8898398,"longitude":111.8330106}},
{"ratingStars":668,"name":"Romaguera and Sons","streetAddress":"5 Messerschmidt Terrace","postalCode":null,"cityLocalized":"China","geolocation":{"latitude":22.851846,"longitude":110.86585}},
{"ratingStars":669,"name":"Marvin LLC","streetAddress":"88485 Summit Court","postalCode":"10807","cityLocalized":"Costa Rica","geolocation":{"latitude":9.9576111,"longitude":-84.0284827}},
{"ratingStars":670,"name":"Schinner-Metz","streetAddress":"544 Warbler Drive","postalCode":"8200-567","cityLocalized":"Portugal","geolocation":{"latitude":37.1270988,"longitude":-8.2439177}},
{"ratingStars":671,"name":"Langworth-Veum","streetAddress":"652 Spenser Court","postalCode":null,"cityLocalized":"China","geolocation":{"latitude":29.812121,"longitude":114.179091}},
{"ratingStars":672,"name":"Graham-Langworth","streetAddress":"6 Bluestem Pass","postalCode":"309092","cityLocalized":"Russia","geolocation":{"latitude":59.9251489,"longitude":30.317148}},
{"ratingStars":673,"name":"Heathcote Inc","streetAddress":"74 John Wall Avenue","postalCode":null,"cityLocalized":"Ukraine","geolocation":{"latitude":48.0589455,"longitude":34.6153907}},
{"ratingStars":674,"name":"Renner, Erdman and Green","streetAddress":"11006 Tony Point","postalCode":"17120-000","cityLocalized":"Brazil","geolocation":{"latitude":-22.5698961,"longitude":-49.0817124}},
{"ratingStars":675,"name":"Hermann, Kub and Gutmann","streetAddress":"5127 Anderson Circle","postalCode":"4600-757","cityLocalized":"Portugal","geolocation":{"latitude":41.2529921,"longitude":-7.9536382}},
{"ratingStars":676,"name":"Collier Group","streetAddress":"05821 Coleman Avenue","postalCode":null,"cityLocalized":"China","geolocation":{"latitude":22.529403,"longitude":103.93935}},
{"ratingStars":677,"name":"Quitzon Inc","streetAddress":"80955 Fremont Point","postalCode":null,"cityLocalized":"China","geolocation":{"latitude":39.806392,"longitude":116.4442469}},
{"ratingStars":678,"name":"Hartmann-Zulauf","streetAddress":"3565 Lighthouse Bay Pass","postalCode":null,"cityLocalized":"Cuba","geolocation":{"latitude":20.1566488,"longitude":-76.947022}},
{"ratingStars":679,"name":"Schoen Group","streetAddress":"86338 Canary Avenue","postalCode":null,"cityLocalized":"Indonesia","geolocation":{"latitude":-6.9100633,"longitude":107.7147697}},
{"ratingStars":680,"name":"Lindgren Group","streetAddress":"60640 Del Sol Court","postalCode":"506 46","cityLocalized":"Sweden","geolocation":{"latitude":57.7500731,"longitude":12.9485476}},
{"ratingStars":681,"name":"Erdman-Connelly","streetAddress":"13 6th Court","postalCode":"356003","cityLocalized":"Russia","geolocation":{"latitude":45.4885295,"longitude":41.1600688}},
{"ratingStars":682,"name":"Torp and Sons","streetAddress":"47727 Cascade Place","postalCode":"97615","cityLocalized":"Mayotte","geolocation":{"latitude":-12.7822122,"longitude":45.2582086}},
{"ratingStars":683,"name":"Tillman Group","streetAddress":"5 Vidon Place","postalCode":null,"cityLocalized":"China","geolocation":{"latitude":30.89441,"longitude":120.086809}},
{"ratingStars":684,"name":"Olson, Gibson and Wintheiser","streetAddress":"77950 Coolidge Way","postalCode":"5355","cityLocalized":"Argentina","geolocation":{"latitude":-29.4125426,"longitude":-66.8252726}},
{"ratingStars":685,"name":"Jenkins Inc","streetAddress":"49537 International Parkway","postalCode":null,"cityLocalized":"China","geolocation":{"latitude":45.169716,"longitude":126.959837}},
{"ratingStars":686,"name":"Lakin Group","streetAddress":"7849 Scott Point","postalCode":"11-015","cityLocalized":"Poland","geolocation":{"latitude":53.58244,"longitude":20.2827}},
{"ratingStars":687,"name":"Muller, Williamson and Larson","streetAddress":"65 Longview Trail","postalCode":"5571","cityLocalized":"Argentina","geolocation":{"latitude":-34.5377407,"longitude":-58.5521828}},
{"ratingStars":688,"name":"Kshlerin LLC","streetAddress":"0653 Schurz Circle","postalCode":"1106","cityLocalized":"Philippines","geolocation":{"latitude":14.0707852,"longitude":120.7601581}},
{"ratingStars":689,"name":"Schmidt-Daugherty","streetAddress":"225 Farwell Pass","postalCode":null,"cityLocalized":"China","geolocation":{"latitude":28.926001,"longitude":112.320499}},
{"ratingStars":690,"name":"Hahn Group","streetAddress":"176 Pond Drive","postalCode":null,"cityLocalized":"Indonesia","geolocation":{"latitude":-6.9689802,"longitude":112.4261662}},
{"ratingStars":691,"name":"Gutmann, Kuhic and Ziemann","streetAddress":"09768 Straubel Crossing","postalCode":null,"cityLocalized":"China","geolocation":{"latitude":31.031933,"longitude":119.659553}},
{"ratingStars":692,"name":"Willms-Rice","streetAddress":"929 Old Shore Road","postalCode":null,"cityLocalized":"Peru","geolocation":{"latitude":-7.193833,"longitude":-78.426165}},
{"ratingStars":693,"name":"Collins LLC","streetAddress":"6759 Duke Avenue","postalCode":"6513","cityLocalized":"Philippines","geolocation":{"latitude":11.1856085,"longitude":124.9202302}},
{"ratingStars":694,"name":"Maggio and Sons","streetAddress":"6 Upham Center","postalCode":"K1W","cityLocalized":"Canada","geolocation":{"latitude":"49.10469","longitude":"-97.55961"}},
{"ratingStars":695,"name":"Gusikowski, Jaskolski and Wuckert","streetAddress":"4 Buell Alley","postalCode":null,"cityLocalized":"Vietnam","geolocation":{"latitude":22.4033272,"longitude":103.393389}},
{"ratingStars":696,"name":"Stanton Inc","streetAddress":"1 Tennessee Plaza","postalCode":null,"cityLocalized":"Indonesia","geolocation":{"latitude":-6.944465,"longitude":111.4782661}},
{"ratingStars":697,"name":"Shields Group","streetAddress":"06116 5th Way","postalCode":null,"cityLocalized":"Indonesia","geolocation":{"latitude":-0.7048801,"longitude":117.0323305}},
{"ratingStars":698,"name":"Crooks-Cartwright","streetAddress":"7306 Del Sol Crossing","postalCode":null,"cityLocalized":"Ukraine","geolocation":{"latitude":51.8911132,"longitude":31.5958532}},
{"ratingStars":699,"name":"Wolf-Langosh","streetAddress":"6959 Rowland Circle","postalCode":null,"cityLocalized":"Democratic Republic of the Congo","geolocation":{"latitude":0.4990124,"longitude":29.4527538}},
{"ratingStars":700,"name":"Hickle and Sons","streetAddress":"63 Transport Circle","postalCode":"678986","cityLocalized":"Russia","geolocation":{"latitude":59.8639169,"longitude":30.3721765}},
{"ratingStars":701,"name":"Muller and Sons","streetAddress":"1595 Brentwood Center","postalCode":"387 34","cityLocalized":"Sweden","geolocation":{"latitude":56.8744773,"longitude":16.6629189}},
{"ratingStars":702,"name":"Breitenberg Group","streetAddress":"88393 Burrows Street","postalCode":null,"cityLocalized":"China","geolocation":{"latitude":23.701262,"longitude":117.430061}},
{"ratingStars":703,"name":"Hessel, Becker and Zieme","streetAddress":"3901 Anhalt Point","postalCode":"42-660","cityLocalized":"Poland","geolocation":{"latitude":50.5609123,"longitude":18.943124}},
{"ratingStars":704,"name":"Waters-Cummerata","streetAddress":"784 Thompson Alley","postalCode":null,"cityLocalized":"Georgia","geolocation":{"latitude":41.8012304,"longitude":43.4814896}},
{"ratingStars":705,"name":"Heidenreich, Robel and O'Keefe","streetAddress":"828 Lindbergh Place","postalCode":null,"cityLocalized":"China","geolocation":{"latitude":48.239135,"longitude":126.481867}},
{"ratingStars":706,"name":"Ernser, Franecki and Erdman","streetAddress":"606 Spaight Crossing","postalCode":"1682","cityLocalized":"Philippines","geolocation":{"latitude":14.6171091,"longitude":120.986275}},
{"ratingStars":707,"name":"King Group","streetAddress":"0122 Schmedeman Point","postalCode":"4805-191","cityLocalized":"Portugal","geolocation":{"latitude":41.4832512,"longitude":-8.39514}},
{"ratingStars":708,"name":"Stanton-Walker","streetAddress":"6 Pine View Point","postalCode":"411 46","cityLocalized":"Czech Republic","geolocation":{"latitude":50.5624395,"longitude":14.297845}},
{"ratingStars":709,"name":"Brown-Strosin","streetAddress":"220 Anzinger Parkway","postalCode":"606083","cityLocalized":"Russia","geolocation":{"latitude":56.3095721,"longitude":42.9560492}},
{"ratingStars":710,"name":"Crona, Abbott and Yundt","streetAddress":"0089 Vernon Trail","postalCode":"11005","cityLocalized":"Dominican Republic","geolocation":{"latitude":19.3947363,"longitude":-70.5263459}},
{"ratingStars":711,"name":"Deckow Inc","streetAddress":"571 Sloan Place","postalCode":"98000","cityLocalized":"Monaco","geolocation":{"latitude":43.7359241,"longitude":7.4171811}},
{"ratingStars":712,"name":"Feest Inc","streetAddress":"585 Knutson Road","postalCode":null,"cityLocalized":"Albania","geolocation":{"latitude":41.2311557,"longitude":19.5449078}},
{"ratingStars":713,"name":"Skiles-Hamill","streetAddress":"970 Springview Crossing","postalCode":"140074","cityLocalized":"Russia","geolocation":{"latitude":55.6152783,"longitude":37.9416367}},
{"ratingStars":714,"name":"Kshlerin-Durgan","streetAddress":"58906 Oak Trail","postalCode":null,"cityLocalized":"China","geolocation":{"latitude":28.178059,"longitude":109.482752}},
{"ratingStars":715,"name":"Mann LLC","streetAddress":"7613 Clove Point","postalCode":null,"cityLocalized":"China","geolocation":{"latitude":30.941593,"longitude":100.311804}},
{"ratingStars":716,"name":"Kerluke LLC","streetAddress":"24 Donald Crossing","postalCode":"5202","cityLocalized":"Philippines","geolocation":{"latitude":14.5643332,"longitude":121.1334952}},
{"ratingStars":717,"name":"Schiller, Walker and Green","streetAddress":"139 Sutherland Terrace","postalCode":"1017","cityLocalized":"Philippines","geolocation":{"latitude":16.9126068,"longitude":121.622089}},
{"ratingStars":718,"name":"Marks and Sons","streetAddress":"7733 Hollow Ridge Drive","postalCode":"56528","cityLocalized":"Mexico","geolocation":{"latitude":19.3852368,"longitude":-98.9545512}},
{"ratingStars":719,"name":"Hessel, Zulauf and Batz","streetAddress":"5 Hazelcrest Hill","postalCode":"3550","cityLocalized":"Argentina","geolocation":{"latitude":-31.6577222,"longitude":-60.7829517}},
{"ratingStars":720,"name":"Berge-Nolan","streetAddress":"420 Crescent Oaks Street","postalCode":"27509 CEDEX","cityLocalized":"France","geolocation":{"latitude":49.3157944,"longitude":0.5399323}},
{"ratingStars":721,"name":"Nitzsche-Monahan","streetAddress":"16222 Muir Circle","postalCode":"707-0112","cityLocalized":"Japan","geolocation":{"latitude":35.0900891,"longitude":134.1994263}},
{"ratingStars":722,"name":"Littel-Ratke","streetAddress":"32164 Prairieview Terrace","postalCode":"196658","cityLocalized":"Russia","geolocation":{"latitude":59.8037463,"longitude":30.6044813}},
{"ratingStars":723,"name":"Ratke-Stehr","streetAddress":"37298 Steensland Point","postalCode":null,"cityLocalized":"Iran","geolocation":{"latitude":25.4039407,"longitude":60.3732653}},
{"ratingStars":724,"name":"Schroeder-Hand","streetAddress":"86562 Trailsway Center","postalCode":"0492","cityLocalized":"South Africa","geolocation":{"latitude":-24.884645,"longitude":28.299225}},
{"ratingStars":725,"name":"Torp, Hermann and Schmeler","streetAddress":"2499 7th Trail","postalCode":null,"cityLocalized":"Albania","geolocation":{"latitude":40.9314367,"longitude":20.0032794}},
{"ratingStars":726,"name":"Wolf-Reichel","streetAddress":"86 Schurz Avenue","postalCode":"4750-445","cityLocalized":"Portugal","geolocation":{"latitude":41.5660579,"longitude":-8.5793664}},
{"ratingStars":727,"name":"Gerhold-Tillman","streetAddress":"07 Doe Crossing Drive","postalCode":"423524","cityLocalized":"Russia","geolocation":{"latitude":55.3605576,"longitude":52.0111855}},
{"ratingStars":728,"name":"Gislason Group","streetAddress":"77 Bashford Junction","postalCode":null,"cityLocalized":"China","geolocation":{"latitude":26.308284,"longitude":119.677154}},
{"ratingStars":729,"name":"Windler, Kuhlman and Hagenes","streetAddress":"887 Dorton Court","postalCode":null,"cityLocalized":"Iran","geolocation":{"latitude":37.5544156,"longitude":56.9267259}},
{"ratingStars":730,"name":"Berge, Cormier and Orn","streetAddress":"724 Montana Pass","postalCode":null,"cityLocalized":"Indonesia","geolocation":{"latitude":-8.6438821,"longitude":117.4145232}},
{"ratingStars":731,"name":"Hauck-Dooley","streetAddress":"67135 Scott Place","postalCode":"13298 CEDEX 20","cityLocalized":"France","geolocation":{"latitude":43.7441795,"longitude":2.511999}},
{"ratingStars":732,"name":"Hayes, Brakus and O'Hara","streetAddress":"3526 Swallow Circle","postalCode":null,"cityLocalized":"Syria","geolocation":{"latitude":36.2861677,"longitude":37.1097748}},
{"ratingStars":733,"name":"Batz-Bednar","streetAddress":"1 Esch Street","postalCode":"2840","cityLocalized":"Argentina","geolocation":{"latitude":-34.6961915,"longitude":-58.8423829}},
{"ratingStars":734,"name":"Bechtelar, D'Amore and Leffler","streetAddress":"0 Claremont Alley","postalCode":null,"cityLocalized":"Kuwait","geolocation":{"latitude":"29.26917","longitude":"47.97806"}},
{"ratingStars":735,"name":"Walter, Collins and Spencer","streetAddress":"63 Springview Terrace","postalCode":null,"cityLocalized":"Uruguay","geolocation":{"latitude":-33.240297,"longitude":-56.016771}},
{"ratingStars":736,"name":"Kilback and Sons","streetAddress":"7132 Dahle Parkway","postalCode":null,"cityLocalized":"Senegal","geolocation":{"latitude":14.8038531,"longitude":-15.9053689}},
{"ratingStars":737,"name":"Grady LLC","streetAddress":"12017 Sycamore Road","postalCode":null,"cityLocalized":"China","geolocation":{"latitude":27.358123,"longitude":110.514837}},
{"ratingStars":738,"name":"Schultz Inc","streetAddress":"35 Grasskamp Court","postalCode":"95818","cityLocalized":"United States","geolocation":{"latitude":38.5603056,"longitude":-121.4970294}},
{"ratingStars":739,"name":"Bashirian and Sons","streetAddress":"08 7th Trail","postalCode":null,"cityLocalized":"Indonesia","geolocation":{"latitude":-7.5630269,"longitude":107.8998566}},
{"ratingStars":740,"name":"Stark, Rodriguez and Dietrich","streetAddress":"98473 Almo Pass","postalCode":"60105","cityLocalized":"Costa Rica","geolocation":{"latitude":9.823961,"longitude":-84.927454}},
{"ratingStars":741,"name":"Turcotte-Haley","streetAddress":"4839 Carey Terrace","postalCode":null,"cityLocalized":"China","geolocation":{"latitude":35.2099034,"longitude":107.7918964}},
{"ratingStars":742,"name":"Glover, Cummings and Larson","streetAddress":"82465 Northwestern Crossing","postalCode":"307513","cityLocalized":"Russia","geolocation":{"latitude":52.1949456,"longitude":35.0572656}},
{"ratingStars":743,"name":"Buckridge, Dickinson and Wilderman","streetAddress":"645 Holy Cross Trail","postalCode":null,"cityLocalized":"Bosnia and Herzegovina","geolocation":{"latitude":44.150897,"longitude":17.7905271}},
{"ratingStars":744,"name":"Koelpin Inc","streetAddress":"1 Derek Point","postalCode":null,"cityLocalized":"Mali","geolocation":{"latitude":13.8092603,"longitude":-10.8345647}},
{"ratingStars":745,"name":"Kuhn-Parker","streetAddress":"65209 Upham Parkway","postalCode":"91077 CEDEX","cityLocalized":"France","geolocation":{"latitude":48.6169664,"longitude":2.406265}},
{"ratingStars":746,"name":"Ernser, Hintz and Roberts","streetAddress":"1358 Novick Court","postalCode":null,"cityLocalized":"Indonesia","geolocation":{"latitude":-8.7035662,"longitude":116.2245553}},
{"ratingStars":747,"name":"Bode-Waters","streetAddress":"508 Havey Terrace","postalCode":"141292","cityLocalized":"Russia","geolocation":{"latitude":56.1060907,"longitude":38.1392419}},
{"ratingStars":748,"name":"Nicolas and Sons","streetAddress":"519 Rockefeller Avenue","postalCode":null,"cityLocalized":"China","geolocation":{"latitude":22.919769,"longitude":113.618216}},
{"ratingStars":749,"name":"Witting-Glover","streetAddress":"9509 Dexter Court","postalCode":"132007","cityLocalized":"Colombia","geolocation":{"latitude":10.031243,"longitude":-74.97611}},
{"ratingStars":750,"name":"Predovic-Schamberger","streetAddress":"9 School Park","postalCode":null,"cityLocalized":"Yemen","geolocation":{"latitude":"15.01667","longitude":"48.01667"}},
{"ratingStars":751,"name":"Prosacco Group","streetAddress":"60 Farragut Center","postalCode":null,"cityLocalized":"Myanmar","geolocation":{"latitude":16.7587537,"longitude":96.2482149}},
{"ratingStars":752,"name":"Kiehn, Sporer and Wintheiser","streetAddress":"179 Truax Street","postalCode":null,"cityLocalized":"China","geolocation":{"latitude":23.199183,"longitude":113.256439}},
{"ratingStars":753,"name":"Farrell, Hegmann and Miller","streetAddress":"74251 Myrtle Pass","postalCode":"88827","cityLocalized":"Malaysia","geolocation":{"latitude":5.9840985,"longitude":116.0761121}},
{"ratingStars":754,"name":"Wyman-Welch","streetAddress":"781 Heffernan Place","postalCode":"MD-7702","cityLocalized":"Moldova","geolocation":{"latitude":46.9962539,"longitude":28.8716267}},
{"ratingStars":755,"name":"Gusikowski, Bergnaum and Waelchi","streetAddress":"7574 Northridge Alley","postalCode":null,"cityLocalized":"Botswana","geolocation":{"latitude":-24.097317,"longitude":25.0288051}},
{"ratingStars":756,"name":"Davis, Lynch and Littel","streetAddress":"24 Debs Circle","postalCode":"95711 CEDEX 1","cityLocalized":"France","geolocation":{"latitude":49.0096906,"longitude":2.5479245}},
{"ratingStars":757,"name":"O'Hara, Bins and Zemlak","streetAddress":"417 Sage Trail","postalCode":null,"cityLocalized":"Sierra Leone","geolocation":{"latitude":"7.45","longitude":"-11.9"}},
{"ratingStars":758,"name":"O'Reilly, Barrows and Collier","streetAddress":"9233 Luster Junction","postalCode":"9050","cityLocalized":"Argentina","geolocation":{"latitude":-34.5685748,"longitude":-58.870055}},
{"ratingStars":759,"name":"Weber-Schimmel","streetAddress":"571 Roxbury Hill","postalCode":"92773","cityLocalized":"Mexico","geolocation":{"latitude":19.3624962,"longitude":-96.6565439}},
{"ratingStars":760,"name":"Anderson-McClure","streetAddress":"07 Lerdahl Plaza","postalCode":null,"cityLocalized":"Israel","geolocation":{"latitude":32.69412,"longitude":35.368513}},
{"ratingStars":761,"name":"Lueilwitz, Olson and Kerluke","streetAddress":"492 Helena Center","postalCode":null,"cityLocalized":"China","geolocation":{"latitude":33.347316,"longitude":120.16366}},
{"ratingStars":762,"name":"Stark Inc","streetAddress":"2103 Green Circle","postalCode":null,"cityLocalized":"China","geolocation":{"latitude":30.830775,"longitude":112.98787}},
{"ratingStars":763,"name":"Johns-Harvey","streetAddress":"79049 Spohn Avenue","postalCode":null,"cityLocalized":"China","geolocation":{"latitude":49.571196,"longitude":121.395538}},
{"ratingStars":764,"name":"Fay LLC","streetAddress":"01 Coleman Pass","postalCode":null,"cityLocalized":"Mozambique","geolocation":{"latitude":-15.0364493,"longitude":40.7323311}},
{"ratingStars":765,"name":"Zemlak-Hagenes","streetAddress":"97 Toban Parkway","postalCode":"73142","cityLocalized":"United States","geolocation":{"latitude":35.6131551,"longitude":-97.6385368}},
{"ratingStars":766,"name":"Hauck and Sons","streetAddress":"76104 Old Shore Way","postalCode":"7104","cityLocalized":"Philippines","geolocation":{"latitude":14.5665378,"longitude":121.1092186}},
{"ratingStars":767,"name":"Will and Sons","streetAddress":"98 Dixon Park","postalCode":null,"cityLocalized":"Ukraine","geolocation":{"latitude":"50.41661","longitude":"31.46261"}},
{"ratingStars":768,"name":"Collier, Bauch and Rippin","streetAddress":"253 Raven Alley","postalCode":"5000","cityLocalized":"Philippines","geolocation":{"latitude":14.8853727,"longitude":120.8986655}},
{"ratingStars":769,"name":"Roberts-Koch","streetAddress":"13 Ryan Terrace","postalCode":"989-1505","cityLocalized":"Japan","geolocation":{"latitude":38.1861536,"longitude":140.6675584}},
{"ratingStars":770,"name":"Skiles, McKenzie and King","streetAddress":"9611 Surrey Street","postalCode":"11120","cityLocalized":"Thailand","geolocation":{"latitude":13.8994973,"longitude":100.5426442}},
{"ratingStars":771,"name":"Harber, Hilll and McLaughlin","streetAddress":"2669 Butternut Trail","postalCode":"2970-187","cityLocalized":"Portugal","geolocation":{"latitude":38.4618994,"longitude":-9.1029917}},
{"ratingStars":772,"name":"Russel, Kessler and Mohr","streetAddress":"4 Schurz Way","postalCode":"4313","cityLocalized":"Philippines","geolocation":{"latitude":17.5645481,"longitude":120.3913529}},
{"ratingStars":773,"name":"Denesik, Schumm and Towne","streetAddress":"925 Summit Terrace","postalCode":"9265","cityLocalized":"Norway","geolocation":{"latitude":69.63186,"longitude":18.9221}},
{"ratingStars":774,"name":"Nolan LLC","streetAddress":"15990 Corben Avenue","postalCode":"97701","cityLocalized":"Finland","geolocation":{"latitude":66.4924399,"longitude":25.755466}},
{"ratingStars":775,"name":"Kuphal, Nader and Rodriguez","streetAddress":"6619 Thierer Alley","postalCode":"9730","cityLocalized":"Netherlands","geolocation":{"latitude":53.2231057,"longitude":6.5319506}},
{"ratingStars":776,"name":"Veum-Anderson","streetAddress":"27 Goodland Crossing","postalCode":null,"cityLocalized":"China","geolocation":{"latitude":38.465785,"longitude":106.278153}},
{"ratingStars":777,"name":"Kautzer LLC","streetAddress":"5 Debs Drive","postalCode":null,"cityLocalized":"Peru","geolocation":{"latitude":-12.899232,"longitude":-75.8312432}},
{"ratingStars":778,"name":"Koelpin-Thompson","streetAddress":"0 Oakridge Court","postalCode":null,"cityLocalized":"China","geolocation":{"latitude":28.274601,"longitude":88.520031}},
{"ratingStars":779,"name":"Fisher, Bode and Raynor","streetAddress":"519 Namekagon Plaza","postalCode":null,"cityLocalized":"China","geolocation":{"latitude":30.1444208,"longitude":121.4305273}},
{"ratingStars":780,"name":"Thiel, Bergnaum and Johnston","streetAddress":"22695 Grasskamp Alley","postalCode":"32450-000","cityLocalized":"Brazil","geolocation":{"latitude":-19.4704956,"longitude":-42.4548328}},
{"ratingStars":781,"name":"Feest-Ullrich","streetAddress":"2 East Hill","postalCode":null,"cityLocalized":"China","geolocation":{"latitude":41.149869,"longitude":114.722326}},
{"ratingStars":782,"name":"Block and Sons","streetAddress":"16 Rusk Park","postalCode":null,"cityLocalized":"Indonesia","geolocation":{"latitude":-6.9160809,"longitude":110.9036507}},
{"ratingStars":783,"name":"Koch-Stokes","streetAddress":"2 Forest Run Street","postalCode":"5350-064","cityLocalized":"Portugal","geolocation":{"latitude":37.1597899,"longitude":-8.0359507}},
{"ratingStars":784,"name":"Williamson Inc","streetAddress":"56152 Huxley Point","postalCode":"056838","cityLocalized":"Colombia","geolocation":{"latitude":6.313861,"longitude":-76.13181}},
{"ratingStars":785,"name":"Bashirian Inc","streetAddress":"41 Russell Road","postalCode":"68795-000","cityLocalized":"Brazil","geolocation":{"latitude":-1.3524989,"longitude":-48.2592606}},
{"ratingStars":786,"name":"Kulas, Hamill and Klocko","streetAddress":"4 Florence Hill","postalCode":null,"cityLocalized":"Albania","geolocation":{"latitude":41.2311557,"longitude":19.5449078}},
{"ratingStars":787,"name":"Fahey Inc","streetAddress":"626 Karstens Plaza","postalCode":"87-640","cityLocalized":"Poland","geolocation":{"latitude":52.9468825,"longitude":18.9379685}},
{"ratingStars":788,"name":"Shanahan, Schiller and O'Reilly","streetAddress":"00 Warner Junction","postalCode":null,"cityLocalized":"China","geolocation":{"latitude":32.86593,"longitude":118.516053}},
{"ratingStars":789,"name":"Brown and Sons","streetAddress":"3909 Old Gate Drive","postalCode":null,"cityLocalized":"Serbia","geolocation":{"latitude":44.874,"longitude":20.6475673}},
{"ratingStars":790,"name":"Effertz, Ullrich and Windler","streetAddress":"2 Gale Avenue","postalCode":null,"cityLocalized":"China","geolocation":{"latitude":36.097577,"longitude":114.392392}},
{"ratingStars":791,"name":"West LLC","streetAddress":"25 Kennedy Drive","postalCode":"75600-000","cityLocalized":"Brazil","geolocation":{"latitude":-17.9659326,"longitude":-49.6503106}},
{"ratingStars":792,"name":"Kreiger, Wehner and Ward","streetAddress":"0837 Sauthoff Hill","postalCode":null,"cityLocalized":"China","geolocation":{"latitude":22.517585,"longitude":113.39277}},
{"ratingStars":793,"name":"Block-Reilly","streetAddress":"43367 Golf View Hill","postalCode":null,"cityLocalized":"Panama","geolocation":{"latitude":9.1742107,"longitude":-79.5687728}},
{"ratingStars":794,"name":"Gulgowski-Gibson","streetAddress":"31 Hansons Court","postalCode":null,"cityLocalized":"Indonesia","geolocation":{"latitude":-7.0555388,"longitude":107.5767035}},
{"ratingStars":795,"name":"Baumbach-Ferry","streetAddress":"1786 Basil Avenue","postalCode":"93-524","cityLocalized":"Poland","geolocation":{"latitude":52.3956594,"longitude":19.1739321}},
{"ratingStars":796,"name":"Hayes, Brakus and Lebsack","streetAddress":"4745 Everett Street","postalCode":"46004 CEDEX 9","cityLocalized":"France","geolocation":{"latitude":47.772714,"longitude":-1.813332}},
{"ratingStars":797,"name":"Doyle-Will","streetAddress":"4004 Oxford Center","postalCode":"3005","cityLocalized":"Norway","geolocation":{"latitude":59.7434607,"longitude":10.1922785}},
{"ratingStars":798,"name":"Douglas-Ebert","streetAddress":"54 Duke Drive","postalCode":"93504 CEDEX","cityLocalized":"France","geolocation":{"latitude":45.7608815,"longitude":4.26286}},
{"ratingStars":799,"name":"Pagac LLC","streetAddress":"8512 Express Road","postalCode":"7216","cityLocalized":"Macedonia","geolocation":{"latitude":41.107701,"longitude":21.3788215}},
{"ratingStars":800,"name":"Kirlin-Hegmann","streetAddress":"7 Sauthoff Street","postalCode":null,"cityLocalized":"China","geolocation":{"latitude":39.242504,"longitude":77.73699}},
{"ratingStars":801,"name":"Dibbert-Shields","streetAddress":"2028 Johnson Trail","postalCode":null,"cityLocalized":"Armenia","geolocation":{"latitude":40.807399,"longitude":44.4970268}},
{"ratingStars":802,"name":"Torphy and Sons","streetAddress":"45439 Prentice Junction","postalCode":"52740","cityLocalized":"Mexico","geolocation":{"latitude":18.1096868,"longitude":-95.8803869}},
{"ratingStars":803,"name":"Connelly and Sons","streetAddress":"52064 Buell Parkway","postalCode":"4754","cityLocalized":"Bulgaria","geolocation":{"latitude":41.54142,"longitude":24.6964808}},
{"ratingStars":804,"name":"Russel, Rodriguez and Berge","streetAddress":"7 Eagan Park","postalCode":null,"cityLocalized":"China","geolocation":{"latitude":21.860756,"longitude":112.6937778}},
{"ratingStars":805,"name":"Cremin, Rogahn and Cormier","streetAddress":"72574 Bluestem Avenue","postalCode":"3140-253","cityLocalized":"Portugal","geolocation":{"latitude":40.1721605,"longitude":-8.6867786}},
{"ratingStars":806,"name":"Flatley LLC","streetAddress":"81738 Elka Drive","postalCode":null,"cityLocalized":"Indonesia","geolocation":{"latitude":2.100305,"longitude":101.642899}},
{"ratingStars":807,"name":"Feest and Sons","streetAddress":"6263 Cherokee Place","postalCode":null,"cityLocalized":"Indonesia","geolocation":{"latitude":-8.6888277,"longitude":115.1687141}},
{"ratingStars":808,"name":"Keebler, Price and Schroeder","streetAddress":"4266 Porter Terrace","postalCode":null,"cityLocalized":"Chile","geolocation":{"latitude":-39.2820124,"longitude":-72.2307798}},
{"ratingStars":809,"name":"Terry-Weber","streetAddress":"8 Upham Center","postalCode":"462 87","cityLocalized":"Sweden","geolocation":{"latitude":57.9675068,"longitude":12.577321}},
{"ratingStars":810,"name":"Wiza-Boyle","streetAddress":"6724 Merrick Lane","postalCode":null,"cityLocalized":"China","geolocation":{"latitude":36.402881,"longitude":113.38098}},
{"ratingStars":811,"name":"Bahringer and Sons","streetAddress":"279 Tony Point","postalCode":null,"cityLocalized":"Indonesia","geolocation":{"latitude":"-9.9831","longitude":"124.1849"}},
{"ratingStars":812,"name":"Gislason, Halvorson and Grimes","streetAddress":"14 Dakota Crossing","postalCode":null,"cityLocalized":"Egypt","geolocation":{"latitude":27.0444171,"longitude":31.3189319}},
{"ratingStars":813,"name":"Romaguera LLC","streetAddress":"49687 Sachs Street","postalCode":"91959 CEDEX","cityLocalized":"France","geolocation":{"latitude":48.695223,"longitude":2.190167}},
{"ratingStars":814,"name":"Hamill-Kulas","streetAddress":"10653 Corscot Hill","postalCode":"05-090","cityLocalized":"Poland","geolocation":{"latitude":52.1334874,"longitude":20.9139557}},
{"ratingStars":815,"name":"Buckridge-Pfeffer","streetAddress":"8718 Iowa Point","postalCode":null,"cityLocalized":"Indonesia","geolocation":{"latitude":-8.3864643,"longitude":123.2293021}},
{"ratingStars":816,"name":"Kertzmann-Rohan","streetAddress":"9983 Forest Run Parkway","postalCode":"93401","cityLocalized":"Finland","geolocation":{"latitude":65.9624289,"longitude":28.1238568}},
{"ratingStars":817,"name":"Welch, Kiehn and Fritsch","streetAddress":"96753 Susan Plaza","postalCode":"182 57","cityLocalized":"Sweden","geolocation":{"latitude":59.3927955,"longitude":18.0310718}},
{"ratingStars":818,"name":"Stanton LLC","streetAddress":"15074 Glacier Hill Terrace","postalCode":null,"cityLocalized":"China","geolocation":{"latitude":36.650038,"longitude":101.766228}},
{"ratingStars":819,"name":"Gerhold-Crooks","streetAddress":"319 Dapin Way","postalCode":"65500-000","cityLocalized":"Brazil","geolocation":{"latitude":-3.7415256,"longitude":-43.360096}},
{"ratingStars":820,"name":"Bailey, O'Keefe and Hoppe","streetAddress":"2 Barnett Point","postalCode":"27409","cityLocalized":"United States","geolocation":{"latitude":36.0896801,"longitude":-79.9528451}},
{"ratingStars":821,"name":"Heathcote-Borer","streetAddress":"21 Crowley Center","postalCode":null,"cityLocalized":"Bolivia","geolocation":{"latitude":-17.2333329,"longitude":-62.816667}},
{"ratingStars":822,"name":"Kirlin, Stamm and Stracke","streetAddress":"65 Eastwood Place","postalCode":"4800-194","cityLocalized":"Portugal","geolocation":{"latitude":41.5088439,"longitude":-8.2522306}},
{"ratingStars":823,"name":"Nikolaus-Kovacek","streetAddress":"799 Pleasure Lane","postalCode":null,"cityLocalized":"China","geolocation":{"latitude":32.477849,"longitude":117.16587}},
{"ratingStars":824,"name":"Wilderman, Leffler and Gleichner","streetAddress":"1199 Muir Crossing","postalCode":"94525 CEDEX 1","cityLocalized":"France","geolocation":{"latitude":48.7700185,"longitude":2.3508225}},
{"ratingStars":825,"name":"Schulist Group","streetAddress":"03 Prairie Rose Pass","postalCode":"404172","cityLocalized":"Russia","geolocation":{"latitude":46.711547,"longitude":38.2755861}},
{"ratingStars":826,"name":"Hudson, Terry and Lynch","streetAddress":"3060 Vermont Trail","postalCode":null,"cityLocalized":"Egypt","geolocation":{"latitude":30.6701145,"longitude":31.5883709}},
{"ratingStars":827,"name":"Christiansen-Adams","streetAddress":"71 6th Way","postalCode":"421991","cityLocalized":"Russia","geolocation":{"latitude":59.9335031,"longitude":30.3251493}},
{"ratingStars":828,"name":"Lemke, Will and Wolff","streetAddress":"02 Old Gate Alley","postalCode":null,"cityLocalized":"Armenia","geolocation":{"latitude":41.2404491,"longitude":44.8236089}},
{"ratingStars":829,"name":"Ortiz and Sons","streetAddress":"7 Clove Parkway","postalCode":"7419","cityLocalized":"Norway","geolocation":{"latitude":63.4400274,"longitude":10.4024274}},
{"ratingStars":830,"name":"Pfeffer and Sons","streetAddress":"6194 Farmco Street","postalCode":"411 86","cityLocalized":"Czech Republic","geolocation":{"latitude":50.4216642,"longitude":14.3468802}},
{"ratingStars":831,"name":"Ritchie, Bradtke and Champlin","streetAddress":"0 Marquette Park","postalCode":"423440","cityLocalized":"Russia","geolocation":{"latitude":54.8603009,"longitude":52.4223979}},
{"ratingStars":832,"name":"Wolff-Wisozk","streetAddress":"640 Burrows Alley","postalCode":"21320","cityLocalized":"Croatia","geolocation":{"latitude":43.3572645,"longitude":16.9520477}},
{"ratingStars":833,"name":"Lind Group","streetAddress":"370 Dennis Street","postalCode":"9805","cityLocalized":"Philippines","geolocation":{"latitude":6.6250097,"longitude":124.5975512}},
{"ratingStars":834,"name":"Osinski, Jaskolski and Hintz","streetAddress":"7031 Iowa Park","postalCode":null,"cityLocalized":"China","geolocation":{"latitude":34.799642,"longitude":103.202869}},
{"ratingStars":835,"name":"VonRueden-Altenwerth","streetAddress":"0257 Redwing Crossing","postalCode":null,"cityLocalized":"Nicaragua","geolocation":{"latitude":11.4385093,"longitude":-85.9368423}},
{"ratingStars":836,"name":"Stark and Sons","streetAddress":"6 Algoma Lane","postalCode":"579-8066","cityLocalized":"Japan","geolocation":{"latitude":34.6520219,"longitude":135.6373307}},
{"ratingStars":837,"name":"Kling and Sons","streetAddress":"20 Sachs Junction","postalCode":"6014","cityLocalized":"Philippines","geolocation":{"latitude":10.334895,"longitude":123.933309}},
{"ratingStars":838,"name":"Keeling-Mayer","streetAddress":"26 Armistice Crossing","postalCode":null,"cityLocalized":"Indonesia","geolocation":{"latitude":-6.3212658,"longitude":106.0996648}},
{"ratingStars":839,"name":"Yost Group","streetAddress":"417 Tony Trail","postalCode":null,"cityLocalized":"Venezuela","geolocation":{"latitude":9.9785656,"longitude":-63.2194183}},
{"ratingStars":840,"name":"Hammes Inc","streetAddress":"92 North Street","postalCode":null,"cityLocalized":"China","geolocation":{"latitude":30.706999,"longitude":120.421784}},
{"ratingStars":841,"name":"Kshlerin-Kuhic","streetAddress":"556 Myrtle Road","postalCode":"2765-317","cityLocalized":"Portugal","geolocation":{"latitude":38.7052727,"longitude":-9.3896587}},
{"ratingStars":842,"name":"Wisozk-Rutherford","streetAddress":"7 Thierer Alley","postalCode":null,"cityLocalized":"Peru","geolocation":{"latitude":-4.683333,"longitude":-81.1}},
{"ratingStars":843,"name":"Hyatt-Runolfsdottir","streetAddress":"50 Sloan Street","postalCode":"249064","cityLocalized":"Russia","geolocation":{"latitude":54.9907148,"longitude":36.2483787}},
{"ratingStars":844,"name":"Kilback, Mraz and Nolan","streetAddress":"35 Drewry Center","postalCode":null,"cityLocalized":"China","geolocation":{"latitude":33.011529,"longitude":114.022298}},
{"ratingStars":845,"name":"Koss Inc","streetAddress":"0 Sunfield Court","postalCode":null,"cityLocalized":"Nigeria","geolocation":{"latitude":6.7703871,"longitude":8.9935558}},
{"ratingStars":846,"name":"O'Connell, Wiegand and Adams","streetAddress":"487 Vermont Pass","postalCode":null,"cityLocalized":"Zambia","geolocation":{"latitude":-8.8536444,"longitude":31.3655989}},
{"ratingStars":847,"name":"Gulgowski and Sons","streetAddress":"49 Melvin Way","postalCode":"3234","cityLocalized":"Argentina","geolocation":{"latitude":-34.7319408,"longitude":-58.611532}},
{"ratingStars":848,"name":"Carter and Sons","streetAddress":"644 Granby Avenue","postalCode":null,"cityLocalized":"Indonesia","geolocation":{"latitude":-6.981636,"longitude":108.308502}},
{"ratingStars":849,"name":"Lowe LLC","streetAddress":"72174 Forest Parkway","postalCode":"680001","cityLocalized":"Russia","geolocation":{"latitude":52.6738562,"longitude":41.7631303}},
{"ratingStars":850,"name":"Mitchell Group","streetAddress":"12 Banding Lane","postalCode":"92224 CEDEX","cityLocalized":"France","geolocation":{"latitude":48.7946784,"longitude":2.3067496}},
{"ratingStars":851,"name":"Haag, McClure and Weissnat","streetAddress":"00234 Di Loreto Crossing","postalCode":null,"cityLocalized":"Kyrgyzstan","geolocation":{"latitude":40.2487413,"longitude":72.1297653}},
{"ratingStars":852,"name":"Funk-Marvin","streetAddress":"8 Northland Lane","postalCode":"87490-000","cityLocalized":"Brazil","geolocation":{"latitude":-23.4739979,"longitude":-53.088539}},
{"ratingStars":853,"name":"Fahey, Streich and Walsh","streetAddress":"2 Farragut Lane","postalCode":null,"cityLocalized":"China","geolocation":{"latitude":18.412445,"longitude":109.971328}},
{"ratingStars":854,"name":"Kuhlman-Fahey","streetAddress":"6 Rieder Alley","postalCode":"788 23","cityLocalized":"Czech Republic","geolocation":{"latitude":50.0957911,"longitude":16.984906}},
{"ratingStars":855,"name":"Dare LLC","streetAddress":"656 Marcy Avenue","postalCode":"441 38","cityLocalized":"Sweden","geolocation":{"latitude":57.9423223,"longitude":12.5710873}},
{"ratingStars":856,"name":"Moore-Ryan","streetAddress":"566 Susan Parkway","postalCode":null,"cityLocalized":"Indonesia","geolocation":{"latitude":-7.7533886,"longitude":109.8975853}},
{"ratingStars":857,"name":"Lubowitz-Schmeler","streetAddress":"91 Forest Junction","postalCode":"111 95","cityLocalized":"Sweden","geolocation":{"latitude":47.0168309,"longitude":-68.1430168}},
{"ratingStars":858,"name":"Lindgren, West and Rohan","streetAddress":"9 Larry Plaza","postalCode":null,"cityLocalized":"China","geolocation":{"latitude":29.008818,"longitude":110.733813}},
{"ratingStars":859,"name":"Nikolaus-Hagenes","streetAddress":"5768 Buhler Place","postalCode":null,"cityLocalized":"China","geolocation":{"latitude":26.312444,"longitude":99.850365}},
{"ratingStars":860,"name":"Christiansen-Breitenberg","streetAddress":"931 Troy Road","postalCode":"151609","cityLocalized":"Colombia","geolocation":{"latitude":6.0102236,"longitude":-72.4494848}},
{"ratingStars":861,"name":"Funk-Streich","streetAddress":"6 Truax Drive","postalCode":"6215","cityLocalized":"Philippines","geolocation":{"latitude":12.9447713,"longitude":121.7248195}},
{"ratingStars":862,"name":"Bechtelar Inc","streetAddress":"6480 Briar Crest Alley","postalCode":null,"cityLocalized":"China","geolocation":{"latitude":23.127149,"longitude":109.452662}},
{"ratingStars":863,"name":"Borer Group","streetAddress":"7349 Summerview Plaza","postalCode":null,"cityLocalized":"Nigeria","geolocation":{"latitude":12.6256834,"longitude":11.9804613}},
{"ratingStars":864,"name":"Daugherty-Corwin","streetAddress":"5 Porter Terrace","postalCode":"4710","cityLocalized":"South Africa","geolocation":{"latitude":-26.1332779,"longitude":28.2926361}},
{"ratingStars":865,"name":"Paucek, Yost and Batz","streetAddress":"05 Buhler Parkway","postalCode":"96970","cityLocalized":"Marshall Islands","geolocation":{"latitude":6.0867332,"longitude":171.7339319}},
{"ratingStars":866,"name":"Kemmer Group","streetAddress":"06 Sutteridge Court","postalCode":null,"cityLocalized":"Vietnam","geolocation":{"latitude":19.1414862,"longitude":105.6257432}},
{"ratingStars":867,"name":"Zemlak LLC","streetAddress":"79 Morrow Terrace","postalCode":null,"cityLocalized":"Iraq","geolocation":{"latitude":31.9641427,"longitude":44.9066503}},
{"ratingStars":868,"name":"Metz-Rutherford","streetAddress":"9 Lien Center","postalCode":null,"cityLocalized":"China","geolocation":{"latitude":35.529096,"longitude":112.849999}},
{"ratingStars":869,"name":"Stoltenberg Group","streetAddress":"81527 Portage Trail","postalCode":"624082","cityLocalized":"Russia","geolocation":{"latitude":56.975553,"longitude":60.3645218}},
{"ratingStars":870,"name":"Will, Lowe and MacGyver","streetAddress":"3 Fieldstone Point","postalCode":"6131","cityLocalized":"Philippines","geolocation":{"latitude":15.5356992,"longitude":120.5285998}},
{"ratingStars":871,"name":"Krajcik Group","streetAddress":"52 Loeprich Court","postalCode":null,"cityLocalized":"Indonesia","geolocation":{"latitude":-6.7131574,"longitude":107.0185123}},
{"ratingStars":872,"name":"Hilpert-Barton","streetAddress":"4 Sutteridge Avenue","postalCode":"3811","cityLocalized":"Philippines","geolocation":{"latitude":18.2904086,"longitude":121.4356759}},
{"ratingStars":873,"name":"Nicolas-Langosh","streetAddress":"90 Maywood Hill","postalCode":"7460","cityLocalized":"Bangladesh","geolocation":{"latitude":22.8109535,"longitude":91.8696765}},
{"ratingStars":874,"name":"Durgan-Parker","streetAddress":"36417 Pearson Pass","postalCode":"02-158","cityLocalized":"Poland","geolocation":{"latitude":50.4868505,"longitude":17.5957117}},
{"ratingStars":875,"name":"Larson-Paucek","streetAddress":"778 Sunnyside Circle","postalCode":null,"cityLocalized":"Ecuador","geolocation":{"latitude":-4.0620941,"longitude":-78.948623}},
{"ratingStars":876,"name":"Okuneva, Lynch and Dooley","streetAddress":"986 Moulton Center","postalCode":null,"cityLocalized":"Jordan","geolocation":{"latitude":"31.18248","longitude":"35.69999"}},
{"ratingStars":877,"name":"Lebsack, Kihn and Weimann","streetAddress":"2 Annamark Crossing","postalCode":null,"cityLocalized":"Ghana","geolocation":{"latitude":5.301832,"longitude":-1.9930466}},
{"ratingStars":878,"name":"Schoen and Sons","streetAddress":"269 Pearson Terrace","postalCode":"J1K","cityLocalized":"Canada","geolocation":{"latitude":"50.51666","longitude":"-116.03538"}},
{"ratingStars":879,"name":"Kutch-Hagenes","streetAddress":"7962 Twin Pines Center","postalCode":null,"cityLocalized":"Senegal","geolocation":{"latitude":14.6561238,"longitude":-16.2345633}},
{"ratingStars":880,"name":"Collins LLC","streetAddress":"318 Bluejay Trail","postalCode":"11807","cityLocalized":"Dominican Republic","geolocation":{"latitude":18.759886,"longitude":-69.2607406}},
{"ratingStars":881,"name":"Nikolaus Group","streetAddress":"58270 Michigan Crossing","postalCode":null,"cityLocalized":"Burkina Faso","geolocation":{"latitude":12.6612116,"longitude":-0.5683399}},
{"ratingStars":882,"name":"Adams, Klein and Strosin","streetAddress":"4293 Packers Place","postalCode":null,"cityLocalized":"Indonesia","geolocation":{"latitude":"-6.9158","longitude":"112.5541"}},
{"ratingStars":883,"name":"Fisher-Hilll","streetAddress":"321 Clove Plaza","postalCode":null,"cityLocalized":"Ukraine","geolocation":{"latitude":48.418023,"longitude":23.7371118}},
{"ratingStars":884,"name":"Hilpert, Christiansen and Hamill","streetAddress":"91 East Place","postalCode":null,"cityLocalized":"Indonesia","geolocation":{"latitude":-7.003771,"longitude":108.2257659}},
{"ratingStars":885,"name":"White Inc","streetAddress":"7 Mifflin Center","postalCode":"1212","cityLocalized":"Philippines","geolocation":{"latitude":10.8833332,"longitude":122.9666672}},
{"ratingStars":886,"name":"Brakus LLC","streetAddress":"4 Toban Way","postalCode":null,"cityLocalized":"China","geolocation":{"latitude":38.947512,"longitude":116.97413}},
{"ratingStars":887,"name":"Orn LLC","streetAddress":"25 Old Shore Hill","postalCode":"ZTN","cityLocalized":"Malta","geolocation":{"latitude":"35.8875","longitude":"14.51694"}},
{"ratingStars":888,"name":"Marvin-Swaniawski","streetAddress":"8 Algoma Avenue","postalCode":null,"cityLocalized":"Indonesia","geolocation":{"latitude":-7.2030729,"longitude":112.0237903}},
{"ratingStars":889,"name":"Hane Group","streetAddress":"73578 Erie Hill","postalCode":null,"cityLocalized":"Democratic Republic of the Congo","geolocation":{"latitude":-6.1306709,"longitude":23.5966577}},
{"ratingStars":890,"name":"Hane-Heidenreich","streetAddress":"7 Bashford Terrace","postalCode":null,"cityLocalized":"Kazakhstan","geolocation":{"latitude":43.32756,"longitude":76.840271}},
{"ratingStars":891,"name":"Streich LLC","streetAddress":"2531 Crest Line Hill","postalCode":"28289","cityLocalized":"United States","geolocation":{"latitude":35.2299999,"longitude":-80.84}},
{"ratingStars":892,"name":"Hane-Corkery","streetAddress":"902 Ohio Street","postalCode":null,"cityLocalized":"Iran","geolocation":{"latitude":28.0250371,"longitude":57.745955}},
{"ratingStars":893,"name":"Toy LLC","streetAddress":"62 Huxley Street","postalCode":null,"cityLocalized":"Indonesia","geolocation":{"latitude":"-9.582","longitude":"119.367"}},
{"ratingStars":894,"name":"Nienow-Yundt","streetAddress":"0029 Hoepker Place","postalCode":null,"cityLocalized":"China","geolocation":{"latitude":32.930738,"longitude":106.908966}},
{"ratingStars":895,"name":"Powlowski Inc","streetAddress":"4 Dorton Court","postalCode":"1257","cityLocalized":"Norway","geolocation":{"latitude":59.8436248,"longitude":10.790337}},
{"ratingStars":896,"name":"Abbott Group","streetAddress":"07573 Gulseth Plaza","postalCode":"92000","cityLocalized":"Thailand","geolocation":{"latitude":14.4390514,"longitude":102.7190771}},
{"ratingStars":897,"name":"Gutkowski Inc","streetAddress":"62 Acker Terrace","postalCode":null,"cityLocalized":"Mongolia","geolocation":{"latitude":44.730869,"longitude":110.770203}},
{"ratingStars":898,"name":"Rodriguez, Cronin and Stiedemann","streetAddress":"007 Lyons Street","postalCode":null,"cityLocalized":"Iran","geolocation":{"latitude":28.6751124,"longitude":57.7371569}},
{"ratingStars":899,"name":"Wehner, Heaney and Sawayn","streetAddress":"1979 Barby Hill","postalCode":null,"cityLocalized":"Nicaragua","geolocation":{"latitude":11.940477,"longitude":-86.1878899}},
{"ratingStars":900,"name":"Paucek Group","streetAddress":"0 Lien Parkway","postalCode":null,"cityLocalized":"China","geolocation":{"latitude":44.573753,"longitude":129.627161}},
{"ratingStars":901,"name":"Botsford-Will","streetAddress":"940 Longview Street","postalCode":null,"cityLocalized":"Ukraine","geolocation":{"latitude":44.9425871,"longitude":34.1865097}},
{"ratingStars":902,"name":"Ritchie and Sons","streetAddress":"14 Brickson Park Junction","postalCode":null,"cityLocalized":"Niger","geolocation":{"latitude":13.7558622,"longitude":7.986535}},
{"ratingStars":903,"name":"Bruen, Schuppe and Hilpert","streetAddress":"0184 Fallview Lane","postalCode":null,"cityLocalized":"China","geolocation":{"latitude":25.90348,"longitude":116.070449}},
{"ratingStars":904,"name":"Roberts and Sons","streetAddress":"7008 Tomscot Lane","postalCode":"2618","cityLocalized":"Philippines","geolocation":{"latitude":17.0852216,"longitude":120.8681069}},
{"ratingStars":905,"name":"Champlin, Labadie and Wolf","streetAddress":"3 Rigney Plaza","postalCode":null,"cityLocalized":"China","geolocation":{"latitude":24.366556,"longitude":116.697433}},
{"ratingStars":906,"name":"Walsh-Doyle","streetAddress":"05 Hudson Crossing","postalCode":null,"cityLocalized":"Indonesia","geolocation":{"latitude":-6.9633727,"longitude":112.3367573}},
{"ratingStars":907,"name":"Bernier, Lesch and Brekke","streetAddress":"9 Bay Point","postalCode":null,"cityLocalized":"Chile","geolocation":{"latitude":-35.846407,"longitude":-71.5996137}},
{"ratingStars":908,"name":"Grady, Moore and Klein","streetAddress":"69243 Morningstar Drive","postalCode":null,"cityLocalized":"Iran","geolocation":{"latitude":30.9049366,"longitude":52.6921001}},
{"ratingStars":909,"name":"Feeney, Heller and Dach","streetAddress":"0 Namekagon Center","postalCode":null,"cityLocalized":"China","geolocation":{"latitude":36.182571,"longitude":116.768358}},
{"ratingStars":910,"name":"Turner, Littel and Rohan","streetAddress":"9242 Iowa Drive","postalCode":null,"cityLocalized":"Peru","geolocation":{"latitude":-6.5588437,"longitude":-78.7348674}},
{"ratingStars":911,"name":"Shields Group","streetAddress":"282 Sachtjen Park","postalCode":"56372","cityLocalized":"United States","geolocation":{"latitude":45.62,"longitude":-94.25}},
{"ratingStars":912,"name":"Goyette-Terry","streetAddress":"99254 Johnson Alley","postalCode":null,"cityLocalized":"Afghanistan","geolocation":{"latitude":34.6982972,"longitude":69.2758336}},
{"ratingStars":913,"name":"Block, Hegmann and Schuppe","streetAddress":"03456 Anhalt Lane","postalCode":"86430-000","cityLocalized":"Brazil","geolocation":{"latitude":-23.2980974,"longitude":-50.0726882}},
{"ratingStars":914,"name":"Davis and Sons","streetAddress":"88 Ridgeview Hill","postalCode":"321-2342","cityLocalized":"Japan","geolocation":{"latitude":36.7003816,"longitude":139.7750031}},
{"ratingStars":915,"name":"Stark-Jacobson","streetAddress":"5858 Coolidge Park","postalCode":null,"cityLocalized":"China","geolocation":{"latitude":25.60162,"longitude":103.817356}},
{"ratingStars":916,"name":"Turcotte Group","streetAddress":"5 Manitowish Way","postalCode":null,"cityLocalized":"Morocco","geolocation":{"latitude":31.5159823,"longitude":-9.0743876}},
{"ratingStars":917,"name":"Grant-Watsica","streetAddress":"10 Sugar Avenue","postalCode":null,"cityLocalized":"Democratic Republic of the Congo","geolocation":{"latitude":-2.1587078,"longitude":16.2345633}},
{"ratingStars":918,"name":"Paucek-Lemke","streetAddress":"3064 Fair Oaks Parkway","postalCode":null,"cityLocalized":"Armenia","geolocation":{"latitude":40.1014047,"longitude":44.3906123}},
{"ratingStars":919,"name":"Ebert-Robel","streetAddress":"6236 Golden Leaf Alley","postalCode":"441 17","cityLocalized":"Sweden","geolocation":{"latitude":57.9244338,"longitude":12.544198}},
{"ratingStars":920,"name":"Altenwerth-Greenfelder","streetAddress":"77 Arrowood Way","postalCode":"2825-453","cityLocalized":"Portugal","geolocation":{"latitude":38.661678,"longitude":-9.2406619}},
{"ratingStars":921,"name":"Veum, Smitham and O'Connell","streetAddress":"50055 Rieder Hill","postalCode":null,"cityLocalized":"Cuba","geolocation":{"latitude":22.9702067,"longitude":-82.3858672}},
{"ratingStars":922,"name":"Gutkowski LLC","streetAddress":"08503 Claremont Place","postalCode":"85200-000","cityLocalized":"Brazil","geolocation":{"latitude":-24.7592533,"longitude":-51.7601166}},
{"ratingStars":923,"name":"Williamson and Sons","streetAddress":"5787 Colorado Pass","postalCode":null,"cityLocalized":"Indonesia","geolocation":{"latitude":0.125082,"longitude":127.876503}},
{"ratingStars":924,"name":"Jaskolski and Sons","streetAddress":"0219 Daystar Place","postalCode":"6149","cityLocalized":"New Zealand","geolocation":{"latitude":-41.293391,"longitude":174.782036}},
{"ratingStars":925,"name":"Ruecker LLC","streetAddress":"91971 Orin Lane","postalCode":null,"cityLocalized":"Yemen","geolocation":{"latitude":14.4670027,"longitude":47.2752844}},
{"ratingStars":926,"name":"Satterfield and Sons","streetAddress":"12 Acker Trail","postalCode":null,"cityLocalized":"Indonesia","geolocation":{"latitude":-8.665118,"longitude":115.16736}},
{"ratingStars":927,"name":"Borer and Sons","streetAddress":"4061 Warrior Point","postalCode":null,"cityLocalized":"South Korea","geolocation":{"latitude":"37.18447","longitude":"128.46821"}},
{"ratingStars":928,"name":"Metz, Beer and Jakubowski","streetAddress":"413 Chive Place","postalCode":null,"cityLocalized":"China","geolocation":{"latitude":34.2818498,"longitude":109.002843}},
{"ratingStars":929,"name":"Jast, O'Kon and Wehner","streetAddress":"1 Erie Park","postalCode":null,"cityLocalized":"Indonesia","geolocation":{"latitude":-7.428179,"longitude":108.7437098}},
{"ratingStars":930,"name":"Yundt, Rath and Hauck","streetAddress":"8753 Rowland Place","postalCode":"642 24","cityLocalized":"Sweden","geolocation":{"latitude":59.05729,"longitude":16.5763043}},
{"ratingStars":931,"name":"Russel Group","streetAddress":"143 Maryland Drive","postalCode":"3620","cityLocalized":"Argentina","geolocation":{"latitude":-25.8631114,"longitude":-58.8821875}},
{"ratingStars":932,"name":"Anderson, Berge and Hettinger","streetAddress":"6086 Arapahoe Street","postalCode":"2500-370","cityLocalized":"Portugal","geolocation":{"latitude":39.3666967,"longitude":-9.0250527}},
{"ratingStars":933,"name":"Prosacco-Dietrich","streetAddress":"908 Acker Road","postalCode":null,"cityLocalized":"Indonesia","geolocation":{"latitude":-7.500242,"longitude":109.7264281}},
{"ratingStars":934,"name":"Sipes, Swift and Spencer","streetAddress":"3 Amoth Park","postalCode":null,"cityLocalized":"China","geolocation":{"latitude":29.894972,"longitude":121.538057}},
{"ratingStars":935,"name":"Hodkiewicz, Berge and Reynolds","streetAddress":"786 Tomscot Trail","postalCode":"232517","cityLocalized":"Colombia","geolocation":{"latitude":8.797145,"longitude":-75.698571}},
{"ratingStars":936,"name":"Nader, Schmitt and Morissette","streetAddress":"34046 Boyd Parkway","postalCode":"6666","cityLocalized":"Philippines","geolocation":{"latitude":17.7127202,"longitude":121.4424473}},
{"ratingStars":937,"name":"Dicki-Krajcik","streetAddress":"6 Kim Crossing","postalCode":null,"cityLocalized":"China","geolocation":{"latitude":30.643939,"longitude":104.045346}},
{"ratingStars":938,"name":"Kertzmann-Emmerich","streetAddress":"90874 Prentice Crossing","postalCode":null,"cityLocalized":"Indonesia","geolocation":{"latitude":-8.1454945,"longitude":115.1048663}},
{"ratingStars":939,"name":"Batz-Spinka","streetAddress":"08 Pierstorff Road","postalCode":null,"cityLocalized":"China","geolocation":{"latitude":25.941937,"longitude":117.365052}},
{"ratingStars":940,"name":"Wintheiser LLC","streetAddress":"4292 Russell Alley","postalCode":null,"cityLocalized":"Indonesia","geolocation":{"latitude":-7.2026914,"longitude":108.1013637}},
{"ratingStars":941,"name":"Quitzon-Ruecker","streetAddress":"5869 Kinsman Park","postalCode":null,"cityLocalized":"Indonesia","geolocation":{"latitude":-7.0587981,"longitude":108.6620986}},
{"ratingStars":942,"name":"Koss-Botsford","streetAddress":"8 Glacier Hill Way","postalCode":null,"cityLocalized":"China","geolocation":{"latitude":43.9071313,"longitude":125.3462629}},
{"ratingStars":943,"name":"Prohaska, Greenholt and Toy","streetAddress":"10 Harper Park","postalCode":null,"cityLocalized":"Syria","geolocation":{"latitude":34.2307023,"longitude":37.2383506}},
{"ratingStars":944,"name":"McClure, Treutel and Schowalter","streetAddress":"52353 Magdeline Hill","postalCode":null,"cityLocalized":"Venezuela","geolocation":{"latitude":9.3191109,"longitude":-70.6032995}},
{"ratingStars":945,"name":"Grant-Harber","streetAddress":"501 Waubesa Road","postalCode":null,"cityLocalized":"Equatorial Guinea","geolocation":{"latitude":1.5837191,"longitude":10.4705682}},
{"ratingStars":946,"name":"Batz-Thompson","streetAddress":"52 Buell Terrace","postalCode":null,"cityLocalized":"Indonesia","geolocation":{"latitude":-6.3811392,"longitude":107.1854181}},
{"ratingStars":947,"name":"Paucek-Wuckert","streetAddress":"334 Schurz Trail","postalCode":null,"cityLocalized":"Uzbekistan","geolocation":{"latitude":38.2764328,"longitude":67.8927472}},
{"ratingStars":948,"name":"Tremblay-Barrows","streetAddress":"11674 North Circle","postalCode":null,"cityLocalized":"China","geolocation":{"latitude":28.39895,"longitude":113.02064}},
{"ratingStars":949,"name":"Larson Inc","streetAddress":"9978 3rd Park","postalCode":null,"cityLocalized":"China","geolocation":{"latitude":29.915414,"longitude":107.347009}},
{"ratingStars":950,"name":"Ferry Inc","streetAddress":"6 Center Way","postalCode":null,"cityLocalized":"Indonesia","geolocation":{"latitude":-7.633333,"longitude":108.133333}},
{"ratingStars":951,"name":"Kirlin, Wilderman and Lang","streetAddress":"76218 Northwestern Pass","postalCode":null,"cityLocalized":"Nigeria","geolocation":{"latitude":5.489059,"longitude":7.0175879}},
{"ratingStars":952,"name":"Hessel and Sons","streetAddress":"0 Badeau Center","postalCode":"93439","cityLocalized":"Mexico","geolocation":{"latitude":27.4669558,"longitude":-99.5145127}},
{"ratingStars":953,"name":"Bednar-Becker","streetAddress":"56 Maple Wood Junction","postalCode":null,"cityLocalized":"China","geolocation":{"latitude":43.1520105,"longitude":126.4371385}},
{"ratingStars":954,"name":"Rohan-Medhurst","streetAddress":"2 Harper Alley","postalCode":"28355","cityLocalized":"Germany","geolocation":{"latitude":53.0903178,"longitude":8.9354031}},
{"ratingStars":955,"name":"Flatley Inc","streetAddress":"609 Graceland Terrace","postalCode":"05-822","cityLocalized":"Poland","geolocation":{"latitude":52.130314,"longitude":20.6599934}},
{"ratingStars":956,"name":"Nader Group","streetAddress":"9650 Duke Circle","postalCode":"71024 CEDEX 9","cityLocalized":"France","geolocation":{"latitude":46.2993504,"longitude":4.8265786}},
{"ratingStars":957,"name":"Dare Group","streetAddress":"2 Butternut Park","postalCode":"154648","cityLocalized":"Colombia","geolocation":{"latitude":5.614775,"longitude":-73.819571}},
{"ratingStars":958,"name":"Torphy-Ratke","streetAddress":"17 Sutteridge Place","postalCode":null,"cityLocalized":"Ecuador","geolocation":{"latitude":-3.2581112,"longitude":-79.9553924}},
{"ratingStars":959,"name":"Huel and Sons","streetAddress":"99 Summer Ridge Circle","postalCode":"62-004","cityLocalized":"Poland","geolocation":{"latitude":52.476835,"longitude":17.0263373}},
{"ratingStars":960,"name":"Gaylord-Brekke","streetAddress":"14192 Vera Crossing","postalCode":"32350","cityLocalized":"Mexico","geolocation":{"latitude":19.2949759,"longitude":-99.110685}},
{"ratingStars":961,"name":"Erdman LLC","streetAddress":"6911 Eggendart Junction","postalCode":"9500","cityLocalized":"Philippines","geolocation":{"latitude":6.1167871,"longitude":125.230372}},
{"ratingStars":962,"name":"Orn and Sons","streetAddress":"796 Michigan Junction","postalCode":null,"cityLocalized":"China","geolocation":{"latitude":29.761159,"longitude":105.931414}},
{"ratingStars":963,"name":"Homenick, Schinner and Jakubowski","streetAddress":"6127 Del Sol Terrace","postalCode":null,"cityLocalized":"Palestinian Territory","geolocation":{"latitude":"31.52057","longitude":"34.97442"}},
{"ratingStars":964,"name":"Rosenbaum-Stoltenberg","streetAddress":"4 Macpherson Crossing","postalCode":null,"cityLocalized":"China","geolocation":{"latitude":30.202014,"longitude":103.710302}},
{"ratingStars":965,"name":"McLaughlin, Heathcote and Stamm","streetAddress":"0177 Union Parkway","postalCode":null,"cityLocalized":"Indonesia","geolocation":{"latitude":-6.1840029,"longitude":106.8466001}},
{"ratingStars":966,"name":"Stehr LLC","streetAddress":"09595 Jay Center","postalCode":null,"cityLocalized":"China","geolocation":{"latitude":37.189822,"longitude":112.176206}},
{"ratingStars":967,"name":"Becker-Lowe","streetAddress":"6998 Rowland Alley","postalCode":"66-302","cityLocalized":"Poland","geolocation":{"latitude":52.362743,"longitude":21.0450997}},
{"ratingStars":968,"name":"Kuhn-Herman","streetAddress":"1 Fair Oaks Terrace","postalCode":null,"cityLocalized":"Serbia","geolocation":{"latitude":45.5824038,"longitude":19.0552361}},
{"ratingStars":969,"name":"Pfannerstill, Moore and Schmidt","streetAddress":"929 Northwestern Alley","postalCode":"161140","cityLocalized":"Russia","geolocation":{"latitude":59.6313435,"longitude":39.72516}},
{"ratingStars":970,"name":"Effertz-Pfeffer","streetAddress":"8397 Mandrake Circle","postalCode":null,"cityLocalized":"Central African Republic","geolocation":{"latitude":4.1191962,"longitude":15.1346669}},
{"ratingStars":971,"name":"Fadel-Koss","streetAddress":"839 Fallview Pass","postalCode":"E45","cityLocalized":"Ireland","geolocation":{"latitude":52.6681994,"longitude":-8.5369154}},
{"ratingStars":972,"name":"Veum, Brown and Green","streetAddress":"0769 Morrow Trail","postalCode":"178057","cityLocalized":"Colombia","geolocation":{"latitude":5.4238154,"longitude":-75.8185314}},
{"ratingStars":973,"name":"Conn-Halvorson","streetAddress":"9771 Granby Street","postalCode":null,"cityLocalized":"Tunisia","geolocation":{"latitude":36.6832659,"longitude":10.5830644}},
{"ratingStars":974,"name":"Wiza, Schneider and Langosh","streetAddress":"861 Packers Court","postalCode":null,"cityLocalized":"Serbia","geolocation":{"latitude":45.4352011,"longitude":20.4744696}},
{"ratingStars":975,"name":"Schulist-Schmitt","streetAddress":"21 Golf View Way","postalCode":null,"cityLocalized":"Afghanistan","geolocation":{"latitude":33.9690929,"longitude":68.9509787}},
{"ratingStars":976,"name":"Durgan, Gaylord and Farrell","streetAddress":"78 Straubel Hill","postalCode":null,"cityLocalized":"Greece","geolocation":{"latitude":36.2145292,"longitude":28.116926}},
{"ratingStars":977,"name":"Hickle-Weimann","streetAddress":"535 Sommers Junction","postalCode":"140579","cityLocalized":"Russia","geolocation":{"latitude":55.6613674,"longitude":37.4429397}},
{"ratingStars":978,"name":"Volkman-Quitzon","streetAddress":"9 Homewood Point","postalCode":"522068","cityLocalized":"Colombia","geolocation":{"latitude":1.4081109,"longitude":-77.391527}},
{"ratingStars":979,"name":"Heaney, Kovacek and Rohan","streetAddress":"00220 Armistice Court","postalCode":"149 43","cityLocalized":"Sweden","geolocation":{"latitude":58.9108802,"longitude":17.9314968}},
{"ratingStars":980,"name":"Tremblay-Ferry","streetAddress":"8 Amoth Way","postalCode":"25501","cityLocalized":"Finland","geolocation":{"latitude":60.2285503,"longitude":23.1228098}},
{"ratingStars":981,"name":"Wunsch LLC","streetAddress":"3824 Clyde Gallagher Hill","postalCode":"06016 CEDEX 1","cityLocalized":"France","geolocation":{"latitude":44.0678168,"longitude":6.9855112}},
{"ratingStars":982,"name":"Ferry, Luettgen and Hayes","streetAddress":"37439 Union Hill","postalCode":"741 24","cityLocalized":"Sweden","geolocation":{"latitude":59.7222934,"longitude":17.7824686}},
{"ratingStars":983,"name":"Crist, Koss and Gibson","streetAddress":"1213 Schlimgen Avenue","postalCode":"37-565","cityLocalized":"Poland","geolocation":{"latitude":50.002337,"longitude":22.6516099}},
{"ratingStars":984,"name":"Kshlerin and Sons","streetAddress":"95 Atwood Plaza","postalCode":"5048","cityLocalized":"Philippines","geolocation":{"latitude":14.18364,"longitude":122.899983}},
{"ratingStars":985,"name":"Fadel, Farrell and Boehm","streetAddress":"61 Mifflin Road","postalCode":"2835-526","cityLocalized":"Portugal","geolocation":{"latitude":38.6259214,"longitude":-9.0134196}},
{"ratingStars":986,"name":"Zieme, Daugherty and Powlowski","streetAddress":"020 Carey Center","postalCode":null,"cityLocalized":"Mali","geolocation":{"latitude":15.0045218,"longitude":-2.9550619}},
{"ratingStars":987,"name":"Brakus, Bins and Parker","streetAddress":"7 Johnson Trail","postalCode":null,"cityLocalized":"Indonesia","geolocation":{"latitude":-6.9253881,"longitude":107.7177302}},
{"ratingStars":988,"name":"Parisian, Armstrong and Maggio","streetAddress":"9396 Nobel Road","postalCode":"98821","cityLocalized":"New Caledonia","geolocation":{"latitude":-20.344124,"longitude":164.4393897}},
{"ratingStars":989,"name":"Fritsch-Rice","streetAddress":"2 Carioca Alley","postalCode":"0194","cityLocalized":"Norway","geolocation":{"latitude":59.9043046,"longitude":10.7545473}},
{"ratingStars":990,"name":"Moen, Baumbach and Lesch","streetAddress":"4917 Old Shore Circle","postalCode":null,"cityLocalized":"Uganda","geolocation":{"latitude":-0.1432752,"longitude":31.6054893}},
{"ratingStars":991,"name":"Mante and Sons","streetAddress":"8980 Autumn Leaf Alley","postalCode":"9808","cityLocalized":"Philippines","geolocation":{"latitude":6.4946003,"longitude":124.1086807}},
{"ratingStars":992,"name":"Reilly and Sons","streetAddress":"97385 Myrtle Parkway","postalCode":"357-0056","cityLocalized":"Japan","geolocation":{"latitude":38.9013413,"longitude":141.3981944}},
{"ratingStars":993,"name":"Farrell, Rutherford and Satterfield","streetAddress":"2 Arrowood Road","postalCode":null,"cityLocalized":"Indonesia","geolocation":{"latitude":-8.817396,"longitude":120.806198}},
{"ratingStars":994,"name":"Pollich, Parisian and Mohr","streetAddress":"03 Nelson Junction","postalCode":null,"cityLocalized":"China","geolocation":{"latitude":30.274084,"longitude":120.15507}},
{"ratingStars":995,"name":"Ryan, Boyer and Gislason","streetAddress":"9 Towne Parkway","postalCode":null,"cityLocalized":"Ukraine","geolocation":{"latitude":50.9996233,"longitude":26.750679}},
{"ratingStars":996,"name":"Effertz, Christiansen and Boyle","streetAddress":"61283 Mallard Way","postalCode":"88906","cityLocalized":"Malaysia","geolocation":{"latitude":5.9840985,"longitude":116.0761121}},
{"ratingStars":997,"name":"Corkery, Hintz and Bogan","streetAddress":"09 Graceland Drive","postalCode":null,"cityLocalized":"Armenia","geolocation":{"latitude":40.7737307,"longitude":44.2225655}},
{"ratingStars":998,"name":"Jenkins LLC","streetAddress":"6662 Larry Court","postalCode":"01059","cityLocalized":"Guatemala","geolocation":{"latitude":14.6632212,"longitude":-90.6132158}},
{"ratingStars":999,"name":"Hayes Inc","streetAddress":"31 Little Fleur Center","postalCode":"6120-215","cityLocalized":"Portugal","geolocation":{"latitude":39.7213971,"longitude":-7.9808794}},
{"ratingStars":1000,"name":"Bartell Group","streetAddress":"0628 Donald Crossing","postalCode":"95-010","cityLocalized":"Poland","geolocation":{"latitude":51.90218,"longitude":19.6055101}}]